{"type":"FeatureCollection", "features": [
{"type":"Feature","geometry":{"type":"MultiPolygon","coordinates":[[[[120.36,14.53],[122.4,17.11],[120.39,18.04],[119.77,15.47],[120.36,14.53]]],[[[126.05,6.61],[125.93,9.17],[123.46,7.79],[124.22,6.09],[126.05,6.61]]]]},"properties":{"NAME":null,"ABBREVN":null,"SUBJECTO":null,"BORDERPRECISION":1,"PARTOF":null}},
{"type":"Feature","geometry":{"type":"MultiPolygon","coordinates":[[[[175.31,-37.32],[174.65,-38.98],[176.01,-41.26],[178.41,-38.77],[175.31,-37.32]]],[[[172.06,-43.92],[174.23,-42.01],[171.46,-41.99],[171.02,-42.89],[168.42,-44.22],[166.52,-46.23],[169.4,-46.71],[172.06,-43.92]]]]},"properties":{"NAME":null,"ABBREVN":null,"SUBJECTO":null,"BORDERPRECISION":1,"PARTOF":null}},
{"type":"Feature","geometry":{"type":"Polygon","coordinates":[[[-24.22,65.53],[-22.37,63.77],[-18.64,63.32],[-14.82,64.2],[-13.65,65.5],[-16.92,65.98],[-24.22,65.53]]]},"properties":{"NAME":null,"ABBREVN":null,"SUBJECTO":null,"BORDERPRECISION":1,"PARTOF":null}},
{"type":"Feature","geometry":{"type":"Polygon","coordinates":[[[-39.69,65.19],[-34.43,66.38],[-32.96,67.64],[-26.96,68.5],[-22.73,69.77],[-25.29,71.57],[-24.08,73.76],[-20.33,73.42],[-18.25,77.3],[-20.88,78.82],[-14.2,81.21],[-32.51,83.58],[-62.81,81.16],[-62.45,76.34],[-58.64,75.79],[-54.73,73.04],[-51.72,71.59],[-50.54,67.49],[-49.47,67.03],[-49.06,64.79],[-46.16,60.94],[-43.58,59.94],[-44.26,61.87],[-42.79,65.4],[-39.69,65.19]]]},"properties":{"NAME":null,"ABBREVN":null,"SUBJECTO":null,"BORDERPRECISION":1,"PARTOF":null}},
{"type":"Feature","geometry":{"type":"MultiPolygon","coordinates":[[[[-55.18,-80.94],[-44.83,-80.32],[-44.21,-78.39],[-48.85,-78.08],[-55.18,-80.94]]],[[[169.77,-83.42],[159.32,-80.03],[163.64,-78.66],[162.35,-75.11],[168.97,-73.24],[170.73,-71.9],[167.63,-70.87],[160.6,-70.22],[157.31,-69.16],[151.09,-68.89],[145.59,-67.22],[134.21,-66.18],[129.01,-67.03],[122.46,-66.65],[118.29,-67.07],[113.01,-65.76],[109.4,-66.71],[102.63,-65.93],[99.65,-66.55],[90,-66.61],[81.81,-67.3],[72.54,-70.24],[70.3,-72.02],[67.36,-71.71],[69.37,-67.84],[56.63,-66.94],[52.45,-65.99],[47.31,-67.77],[44.8,-67.75],[39.65,-68.93],[38.33,-70.03],[32.75,-69.35],[23.71,-70.59],[17.6,-70.08],[8.49,-70.08],[0.68,-71.32],[-7.2,-70.89],[-11.14,-71.59],[-16.4,-73.44],[-18.4,-75.69],[-23.58,-75.92],[-33.16,-77.39],[-38.03,-80.94],[-60.21,-82.33],[-74.89,-80.71],[-74.5,-78.08],[-70.56,-76.69],[-64.46,-75.69],[-60.83,-72.75],[-61.68,-70.82],[-65.38,-67.34],[-68.78,-69.81],[-67.63,-72.75],[-81.77,-74.02],[-88.57,-73.25],[-99.79,-73],[-105.64,-75.07],[-113.24,-74.32],[-134.77,-74.64],[-146.67,-76.11],[-146.15,-77.46],[-154.17,-77.12],[-158.19,-77.81],[-145.67,-80.52],[-152.08,-82.6],[-148.76,-85.07],[-180,-84.32],[-180,-85.32],[-180,-86.32],[-180,-87.32],[-180,-88.32],[-180,-89.32],[-180,-90],[-179.2,-90],[-178.2,-90],[-177.2,-90],[-176.2,-90],[-175.2,-90],[-174.2,-90],[-173.2,-90],[-172.2,-90],[-171.2,-90],[-170.2,-90],[-169.2,-90],[-168.2,-90],[-167.2,-90],[-166.2,-90],[-165.2,-90],[-164.2,-90],[-163.2,-90],[-162.2,-90],[-161.2,-90],[-160.2,-90],[-159.2,-90],[-158.2,-90],[-157.2,-90],[-156.2,-90],[-155.2,-90],[-154.2,-90],[-153.2,-90],[-152.2,-90],[-151.2,-90],[-150.2,-90],[-149.2,-90],[-148.2,-90],[-147.2,-90],[-146.2,-90],[-145.2,-90],[-144.2,-90],[-143.2,-90],[-142.2,-90],[-141.2,-90],[-140.2,-90],[-139.2,-90],[-138.2,-90],[-137.2,-90],[-136.2,-90],[-135.2,-90],[-134.2,-90],[-133.2,-90],[-132.2,-90],[-131.2,-90],[-130.2,-90],[-129.2,-90],[-128.2,-90],[-127.2,-90],[-126.2,-90],[-125.2,-90],[-124.2,-90],[-123.2,-90],[-122.2,-90],[-121.2,-90],[-120.2,-90],[-119.2,-90],[-118.2,-90],[-117.2,-90],[-116.2,-90],[-115.2,-90],[-114.2,-90],[-113.2,-90],[-112.2,-90],[-111.2,-90],[-110.2,-90],[-109.2,-90],[-108.2,-90],[-107.2,-90],[-106.2,-90],[-105.2,-90],[-104.2,-90],[-103.2,-90],[-102.2,-90],[-101.2,-90],[-100.2,-90],[-99.2,-90],[-98.2,-90],[-97.2,-90],[-96.2,-90],[-95.2,-90],[-94.2,-90],[-93.2,-90],[-92.2,-90],[-91.2,-90],[-90,-90],[-89.2,-90],[-88.2,-90],[-87.2,-90],[-86.2,-90],[-85.2,-90],[-84.2,-90],[-83.2,-90],[-82.2,-90],[-81.2,-90],[-80.2,-90],[-79.2,-90],[-78.2,-90],[-77.2,-90],[-76.2,-90],[-75.2,-90],[-74.2,-90],[-73.2,-90],[-72.2,-90],[-71.2,-90],[-70.2,-90],[-69.2,-90],[-68.2,-90],[-67.2,-90],[-66.2,-90],[-65.2,-90],[-64.2,-90],[-63.2,-90],[-62.2,-90],[-61.2,-90],[-60.2,-90],[-59.2,-90],[-58.2,-90],[-57.2,-90],[-56.2,-90],[-55.2,-90],[-54.2,-90],[-53.2,-90],[-52.2,-90],[-51.2,-90],[-50.2,-90],[-49.2,-90],[-48.2,-90],[-47.2,-90],[-46.2,-90],[-45.2,-90],[-44.2,-90],[-43.2,-90],[-42.2,-90],[-41.2,-90],[-40.2,-90],[-39.2,-90],[-38.2,-90],[-37.2,-90],[-36.2,-90],[-35.2,-90],[-34.2,-90],[-33.2,-90],[-32.2,-90],[-31.2,-90],[-30.2,-90],[-29.2,-90],[-28.2,-90],[-27.2,-90],[-26.2,-90],[-25.2,-90],[-24.2,-90],[-23.2,-90],[-22.2,-90],[-21.2,-90],[-20.2,-90],[-19.2,-90],[-18.2,-90],[-17.2,-90],[-16.2,-90],[-15.2,-90],[-14.2,-90],[-13.2,-90],[-12.2,-90],[-11.2,-90],[-10.2,-90],[-9.2,-90],[-8.2,-90],[-7.2,-90],[-6.2,-90],[-5.2,-90],[-4.2,-90],[-3.2,-90],[-2.2,-90],[-1.2,-90],[-0.2,-90],[0.78,-90],[1.78,-90],[2.78,-90],[3.78,-90],[4.78,-90],[5.78,-90],[6.78,-90],[7.78,-90],[8.78,-90],[9.78,-90],[10.78,-90],[11.78,-90],[12.78,-90],[13.78,-90],[14.78,-90],[15.78,-90],[16.78,-90],[17.78,-90],[18.78,-90],[19.78,-90],[20.78,-90],[21.78,-90],[22.78,-90],[23.78,-90],[24.78,-90],[25.78,-90],[26.78,-90],[27.78,-90],[28.78,-90],[29.78,-90],[30.78,-90],[31.78,-90],[32.78,-90],[33.78,-90],[34.78,-90],[35.78,-90],[36.78,-90],[37.78,-90],[38.78,-90],[39.78,-90],[40.78,-90],[41.78,-90],[42.78,-90],[43.78,-90],[44.78,-90],[45.78,-90],[46.78,-90],[47.78,-90],[48.78,-90],[49.78,-90],[50.78,-90],[51.78,-90],[52.78,-90],[53.78,-90],[54.78,-90],[55.78,-90],[56.78,-90],[57.78,-90],[58.78,-90],[59.78,-90],[60.78,-90],[61.78,-90],[62.78,-90],[63.78,-90],[64.78,-90],[65.78,-90],[66.78,-90],[67.78,-90],[68.78,-90],[69.78,-90],[70.78,-90],[71.78,-90],[72.78,-90],[73.78,-90],[74.78,-90],[75.78,-90],[76.78,-90],[77.78,-90],[78.78,-90],[79.78,-90],[80.78,-90],[81.78,-90],[82.78,-90],[83.78,-90],[84.78,-90],[85.78,-90],[86.78,-90],[87.78,-90],[88.78,-90],[89.78,-90],[89.8,-90],[90,-90],[91.78,-90],[92.78,-90],[93.78,-90],[94.78,-90],[95.78,-90],[96.78,-90],[97.78,-90],[98.78,-90],[99.78,-90],[100.78,-90],[101.78,-90],[102.78,-90],[103.78,-90],[104.78,-90],[105.78,-90],[106.78,-90],[107.78,-90],[108.78,-90],[109.78,-90],[110.78,-90],[111.78,-90],[112.78,-90],[113.78,-90],[114.78,-90],[115.78,-90],[116.78,-90],[117.78,-90],[118.78,-90],[119.78,-90],[120.78,-90],[121.78,-90],[122.78,-90],[123.78,-90],[124.78,-90],[125.78,-90],[126.78,-90],[127.78,-90],[128.78,-90],[129.78,-90],[130.78,-90],[131.78,-90],[132.78,-90],[133.78,-90],[134.78,-90],[135.78,-90],[136.78,-90],[137.78,-90],[138.78,-90],[139.78,-90],[140.78,-90],[141.78,-90],[142.78,-90],[143.78,-90],[144.78,-90],[145.78,-90],[146.78,-90],[147.78,-90],[148.78,-90],[149.78,-90],[150.78,-90],[151.78,-90],[152.78,-90],[153.78,-90],[154.78,-90],[155.78,-90],[156.78,-90],[157.78,-90],[158.78,-90],[159.78,-90],[160.78,-90],[161.78,-90],[162.78,-90],[163.78,-90],[164.78,-90],[165.78,-90],[166.78,-90],[167.78,-90],[168.78,-90],[169.78,-90],[170.78,-90],[171.78,-90],[172.78,-90],[173.78,-90],[174.78,-90],[175.78,-90],[176.78,-90],[177.78,-90],[178.78,-90],[180,-90],[180,-89.32],[180,-88.32],[180,-87.32],[180,-86.32],[180,-85.32],[180,-84.34],[169.77,-83.42]]]]},"properties":{"NAME":null,"ABBREVN":null,"SUBJECTO":null,"BORDERPRECISION":1,"PARTOF":null}},
{"type":"Feature","geometry":{"type":"MultiPolygon","coordinates":[[[[140.87,-2.79],[137.85,-1.61],[135.25,-3.54],[134.28,-2.85],[133.91,-1.01],[132.25,-0.53],[131.21,-1.02],[134.04,-3.95],[137.82,-5.43],[139.16,-7.73],[140.95,-9.27],[142.61,-9.38],[144.38,-7.76],[145.82,-8.1],[147.87,-10.18],[148.59,-9.16],[146.91,-6.89],[147.38,-6.12],[143.45,-3.61],[140.87,-2.79]]],[[[120.43,0.64],[119.91,0.54],[118.68,-2.9],[120.14,-3.08],[121.87,-4.96],[122.26,-3.21],[119.87,-0.46],[120.43,0.64]]]]},"properties":{"NAME":null,"ABBREVN":null,"SUBJECTO":null,"BORDERPRECISION":1,"PARTOF":null}},
{"type":"Feature","geometry":{"type":"Polygon","coordinates":[[[13.25,79.8],[11.76,78.88],[15.1,77.12],[19.12,78.45],[13.25,79.8]]]},"properties":{"NAME":null,"ABBREVN":null,"SUBJECTO":null,"BORDERPRECISION":1,"PARTOF":null}},
{"type":"Feature","geometry":{"type":"Polygon","coordinates":[[[80.56,5.93],[81.87,7.08],[80.66,9.3],[79.67,8.8],[80.56,5.93]]]},"properties":{"NAME":"Simhala","ABBREVN":"Simhala","SUBJECTO":"Simhala","BORDERPRECISION":1,"PARTOF":"Simhala"}},
{"type":"Feature","geometry":{"type":"Polygon","coordinates":[[[-95.43,17.43],[-96.19,17.88],[-97.06,18.06],[-99.21,17.71],[-99.18,17.29],[-99.02,16.82],[-97.69,16.39],[-96.44,16.22],[-95.5,16.53],[-95.43,17.43]]]},"properties":{"NAME":"Monte Albán","ABBREVN":"Monte Albán","SUBJECTO":"Monte Albán","BORDERPRECISION":1,"PARTOF":"Monte Albán"}},
{"type":"Feature","geometry":{"type":"Polygon","coordinates":[[[-87.57,15.91],[-88.66,15.73],[-87.2,21.53],[-90.56,20.99],[-90.93,19.38],[-92.94,18.59],[-93.14,16.98],[-93.59,15.74],[-93.33,15.53],[-92.9,15.19],[-92.47,14.79],[-91.24,13.95],[-90,13.75],[-87.57,15.91]]]},"properties":{"NAME":"Maya chiefdoms and states","ABBREVN":"Maya","SUBJECTO":"Maya chiefdoms and states","BORDERPRECISION":1,"PARTOF":"Maya chiefdoms and states"}},
{"type":"Feature","geometry":{"type":"Polygon","coordinates":[[[-58.14,48.6],[-56.08,47.87],[-54.13,48.84],[-57.36,50.6],[-58.14,48.6]]]},"properties":{"NAME":null,"ABBREVN":null,"SUBJECTO":null,"BORDERPRECISION":1,"PARTOF":null}},
{"type":"Feature","geometry":{"type":"Polygon","coordinates":[[[56.96,73.36],[60.89,75.25],[59.02,75.8],[54.02,73.73],[56.96,73.36]]]},"properties":{"NAME":null,"ABBREVN":null,"SUBJECTO":null,"BORDERPRECISION":1,"PARTOF":null}},
{"type":"Feature","geometry":{"type":"Polygon","coordinates":[[[33.35,23.35],[31.06,22.68],[29.85,20.12],[30.27,15.54],[31.06,13.13],[32.88,12.47],[35.72,13.22],[35.83,14.22],[35.97,15.48],[34.55,20.18],[34.53,20.17],[33.35,23.35]]]},"properties":{"NAME":"Meroe","ABBREVN":"Meroe","SUBJECTO":"Meroe","BORDERPRECISION":1,"PARTOF":"Meroe"}},
{"type":"Feature","geometry":{"type":"Polygon","coordinates":[[[8.58,3.07],[8.83,3.61],[8.48,3.56],[8.58,3.07]]]},"properties":{"NAME":null,"ABBREVN":null,"SUBJECTO":null,"BORDERPRECISION":1,"PARTOF":null}},
{"type":"Feature","geometry":{"type":"MultiPolygon","coordinates":[[[[130.58,30.91],[131.67,33.31],[129.34,33.15],[130.58,30.91]]],[[[136.62,34.76],[140.32,35.03],[140.87,37.92],[142,39.67],[141.15,40.87],[139.2,37.92],[135.16,35.65],[136.62,34.76]]]]},"properties":{"NAME":null,"ABBREVN":null,"SUBJECTO":null,"BORDERPRECISION":1,"PARTOF":null}},
{"type":"Feature","geometry":{"type":"Polygon","coordinates":[[[-90,13.75],[-87.95,13.17],[-86.01,11.37],[-85.78,10.14],[-81.66,8.16],[-80.81,7.27],[-79.72,8.88],[-78.51,8.69],[-78.55,8.75],[-79.5,9.64],[-80.96,8.86],[-82.23,9.05],[-83.91,11.25],[-83.31,14.77],[-84.65,15.93],[-87.57,15.91],[-90,13.75]]]},"properties":{"NAME":null,"ABBREVN":null,"SUBJECTO":null,"BORDERPRECISION":1,"PARTOF":null}},
{"type":"Feature","geometry":{"type":"Polygon","coordinates":[[[7.91,36.78],[1.06,36.46],[-1.33,35.49],[-1.13,32.19],[8.63,34.03],[7.91,36.78]]]},"properties":{"NAME":"Numidia","ABBREVN":"Numidia","SUBJECTO":"Numidia","BORDERPRECISION":1,"PARTOF":"Numidia"}},
{"type":"Feature","geometry":{"type":"Polygon","coordinates":[[[41.68,41.79],[40.36,40.96],[36.38,41.24],[33.56,41.98],[28.48,40.4],[31.61,39.39],[32.95,37.38],[37.01,37.49],[41.4,38.45],[43.39,39.35],[44.69,36.67],[51.42,36.46],[48.84,37.51],[49.67,40.24],[47.01,41.39],[41.68,41.79]]]},"properties":{"NAME":"minor states","ABBREVN":"minor states","SUBJECTO":"minor states","BORDERPRECISION":1,"PARTOF":"minor states"}},
{"type":"Feature","geometry":{"type":"Polygon","coordinates":[[[61.16,37.7],[58.21,39],[53.99,37.52],[54.07,36.94],[54.92,31.59],[57.6,30.97],[60.62,31.32],[61.3,32.83],[60.34,35.98],[61.16,37.7]]]},"properties":{"NAME":"Parthia","ABBREVN":"Parthia","SUBJECTO":"Parthia","BORDERPRECISION":1,"PARTOF":"Parthia"}},
{"type":"Feature","geometry":{"type":"Polygon","coordinates":[[[37.22,25.17],[39.15,26.25],[35.77,31.64],[35.09,30.42],[32.81,29.48],[34.89,28.36],[37.22,25.17]]]},"properties":{"NAME":"Nabatean Kingdom","ABBREVN":"Nabatean K.","SUBJECTO":"Nabatean Kingdom","BORDERPRECISION":1,"PARTOF":"Nabatean Kingdom"}},
{"type":"Feature","geometry":{"type":"Polygon","coordinates":[[[37.22,25.17],[39.1,22.4],[39.17,21.22],[40.69,19.87],[42.21,17.51],[43.79,18.66],[42.34,20.72],[39.15,26.25],[37.22,25.17]]]},"properties":{"NAME":"Maan","ABBREVN":"Maan","SUBJECTO":"Maan","BORDERPRECISION":1,"PARTOF":"Maan"}},
{"type":"Feature","geometry":{"type":"Polygon","coordinates":[[[42.21,17.51],[43.05,14.61],[44.69,15.53],[45.43,17.77],[43.79,18.66],[42.21,17.51]]]},"properties":{"NAME":"Saba","ABBREVN":"Saba","SUBJECTO":"Saba","BORDERPRECISION":1,"PARTOF":"Saba"}},
{"type":"Feature","geometry":{"type":"Polygon","coordinates":[[[43.05,14.61],[43.84,12.66],[48.96,14.22],[49.71,14.77],[49,17.61],[45.43,17.77],[44.69,15.53],[43.05,14.61]]]},"properties":{"NAME":"Qataban","ABBREVN":"Qataban","SUBJECTO":"Qataban","BORDERPRECISION":1,"PARTOF":"Qataban"}},
{"type":"Feature","geometry":{"type":"Polygon","coordinates":[[[39.15,26.25],[42.34,20.72],[43.79,18.66],[45.43,17.77],[49,17.61],[53.62,18.14],[55.29,17.68],[57.84,19.03],[59.84,22.28],[57.15,23.98],[56.02,25.77],[54.35,24.15],[51.59,24],[49.94,25.96],[47.61,29.27],[41.95,32.21],[41.06,32.89],[37.21,32.69],[35.77,31.64],[39.15,26.25]]]},"properties":{"NAME":null,"ABBREVN":null,"SUBJECTO":null,"BORDERPRECISION":1,"PARTOF":null}},
{"type":"Feature","geometry":{"type":"Polygon","coordinates":[[[49.71,14.77],[52.14,15.69],[52.89,16.61],[55.29,17.68],[53.62,18.14],[49,17.61],[49.71,14.77]]]},"properties":{"NAME":"Hadramaut","ABBREVN":"Hadramaut","SUBJECTO":"Hadramaut","BORDERPRECISION":1,"PARTOF":"Hadramaut"}},
{"type":"Feature","geometry":{"type":"Polygon","coordinates":[[[74.42,14.38],[76.7,8.71],[77.9,8.26],[79.83,10.36],[79.92,12.11],[76.88,11.35],[75.64,13.54],[74.42,14.38]]]},"properties":{"NAME":"Hindu kingdoms","ABBREVN":"Hindu kingdoms","SUBJECTO":"Hindu kingdoms","BORDERPRECISION":1,"PARTOF":"Hindu kingdoms"}},
{"type":"Feature","geometry":{"type":"Polygon","coordinates":[[[79.92,12.11],[80.09,15.18],[86.12,19.81],[87.64,21.56],[91.57,22.54],[93.42,25.02],[93.07,26.85],[89.76,25.98],[86.18,26.41],[83.24,27.39],[80.66,28.45],[79.83,26.69],[72.68,22.03],[73.06,18.03],[74.42,14.38],[75.64,13.54],[76.88,11.35],[79.92,12.11]],[[83.52,23.63],[85.14,23.01],[86.49,21.43],[84.98,20.68],[81.34,17.18],[79.49,18.21],[81.82,21.09],[82.18,23.36],[83.52,23.63]]]},"properties":{"NAME":"Mauryan Empire","ABBREVN":"Mauryan Emp.","SUBJECTO":"Mauryan Empire","BORDERPRECISION":1,"PARTOF":"Mauryan Empire"}},
{"type":"Feature","geometry":{"type":"Polygon","coordinates":[[[83.52,23.63],[82.18,23.36],[81.82,21.09],[79.49,18.21],[81.34,17.18],[84.98,20.68],[86.49,21.43],[85.14,23.01],[83.52,23.63]]]},"properties":{"NAME":null,"ABBREVN":null,"SUBJECTO":null,"BORDERPRECISION":1,"PARTOF":null}},
{"type":"Feature","geometry":{"type":"Polygon","coordinates":[[[113.5,22.74],[116.34,22.91],[119.43,25.65],[116.54,27.75],[114.9,25.9],[113.58,22.93],[113.5,22.74]]]},"properties":{"NAME":"Min-Yue","ABBREVN":"Min-Yue","SUBJECTO":"Min-Yue","BORDERPRECISION":1,"PARTOF":"Min-Yue"}},
{"type":"Feature","geometry":{"type":"Polygon","coordinates":[[[113.58,22.93],[111.26,22.84],[106.87,22.67],[104.95,22.05],[104.74,20.54],[105.84,19.7],[107.9,21.48],[110.08,20.87],[112.75,21.76],[113.5,22.74],[113.58,22.93]]]},"properties":{"NAME":"Nan-Yue","ABBREVN":"Nan-Yue","SUBJECTO":"Nan-Yue","BORDERPRECISION":1,"PARTOF":"Nan-Yue"}},
{"type":"Feature","geometry":{"type":"Polygon","coordinates":[[[119.43,25.65],[121.36,28.39],[121.61,31.83],[119.02,34.69],[120.14,36.19],[117.59,38.28],[121.01,40.85],[124.1,39.88],[123.75,41.68],[118.55,41.43],[114.54,41.56],[113.32,41.6],[111.5,41.82],[109.08,42.12],[107.21,41.75],[106.8,39.14],[106.04,37.56],[104.74,36.6],[101.65,29.53],[102.13,28.02],[105.08,28.02],[108.17,27.54],[110.85,24.87],[111.26,22.84],[113.58,22.93],[114.9,25.9],[116.54,27.75],[119.43,25.65]]]},"properties":{"NAME":"Han Empire","ABBREVN":"Han Empire","SUBJECTO":"Han Empire","BORDERPRECISION":1,"PARTOF":"Han Empire"}},
{"type":"Feature","geometry":{"type":"MultiPolygon","coordinates":[[[[99.86,2.9],[98.15,4.07],[96.72,3.7],[98.6,1.71],[100.81,-2.34],[104.57,-6.07],[105.73,-5.83],[105.94,-3.21],[103.24,-0.66],[102.47,0.62],[99.86,2.9]]],[[[110.97,1.23],[109.28,1.88],[108.81,0.81],[110.1,-3.08],[112.8,-2.97],[114.71,-4.21],[115.57,-3.8],[117.53,0.61],[118.52,1.17],[117.07,3.51],[119.04,5.17],[116.6,6.9],[114.88,4.86],[112.76,3.01],[111.37,2.6],[110.97,1.23]]],[[[112.68,-7.72],[112.27,-7.03],[108.56,-6.92],[106.95,-6.03],[106.48,-7.5],[109.04,-7.72],[112.41,-8.49],[112.68,-7.72]]]]},"properties":{"NAME":null,"ABBREVN":null,"SUBJECTO":null,"BORDERPRECISION":1,"PARTOF":null}},
{"type":"Feature","geometry":{"type":"Polygon","coordinates":[[[37.77,44.74],[39.25,45.96],[40.32,48.24],[37.77,48.64],[35.21,46.64],[37.97,46.44],[37.77,44.74]]]},"properties":{"NAME":"Bosporan Kingdom","ABBREVN":"Bosporan K.","SUBJECTO":"Bosporan Kingdom","BORDERPRECISION":1,"PARTOF":"Bosporan Kingdom"}},
{"type":"Feature","geometry":{"type":"Polygon","coordinates":[[[5.04,43.33],[5.83,43.02],[6.84,43.38],[5.04,43.33]]]},"properties":{"NAME":null,"ABBREVN":null,"SUBJECTO":null,"BORDERPRECISION":1,"PARTOF":null}},
{"type":"Feature","geometry":{"type":"Polygon","coordinates":[[[-1.33,35.49],[-4.59,35.15],[-5.93,35.73],[-7,33.87],[-9.22,32.58],[-9.63,30.41],[-1.13,32.19],[-1.33,35.49]]]},"properties":{"NAME":"Mauretania","ABBREVN":"Mauretania","SUBJECTO":"Mauretania","BORDERPRECISION":1,"PARTOF":"Mauretania"}},
{"type":"Feature","geometry":{"type":"Polygon","coordinates":[[[33.35,23.35],[33.69,23.55],[33.66,24.02],[35.19,24.4],[32.65,28.77],[32.81,29.48],[35.09,30.42],[35.77,31.64],[36.39,33.58],[35.82,34.34],[34.5,31.62],[33.56,30.97],[31,31.47],[29.25,30.75],[23.15,32.14],[21.67,32.82],[20.37,32.3],[20.12,30.96],[22.09,31.75],[25.44,30.68],[25.45,28.98],[28.41,27.74],[31.21,24.25],[31.06,22.68],[33.35,23.35]]]},"properties":{"NAME":"Ptolemaic Kingdom","ABBREVN":"Ptolemaic Ki","SUBJECTO":"Ptolemaic Kingdom","BORDERPRECISION":1,"PARTOF":"Ptolemaic Kingdom"}},
{"type":"Feature","geometry":{"type":"Polygon","coordinates":[[[-14.51,28.05],[-13.88,28.2],[-14.15,28.39],[-14.51,28.05]]]},"properties":{"NAME":"Guanches","ABBREVN":"Guanches","SUBJECTO":"Guanches","BORDERPRECISION":1,"PARTOF":"Guanches"}},
{"type":"Feature","geometry":{"type":"Polygon","coordinates":[[[-68.2,12.22],[-68.36,12.31],[-68.29,12.1],[-68.2,12.22]]]},"properties":{"NAME":null,"ABBREVN":null,"SUBJECTO":null,"BORDERPRECISION":1,"PARTOF":null}},
{"type":"Feature","geometry":{"type":"Polygon","coordinates":[[[-61.67,17.08],[-61.79,17.16],[-61.89,17.03],[-61.74,16.99],[-61.67,17.08]]]},"properties":{"NAME":null,"ABBREVN":null,"SUBJECTO":null,"BORDERPRECISION":1,"PARTOF":null}},
{"type":"Feature","geometry":{"type":"Polygon","coordinates":[[[-68.97,12.2],[-69.08,12.35],[-69.16,12.31],[-69.06,12.19],[-68.83,12.05],[-68.82,12.16],[-68.97,12.2]]]},"properties":{"NAME":null,"ABBREVN":null,"SUBJECTO":null,"BORDERPRECISION":1,"PARTOF":null}},
{"type":"Feature","geometry":{"type":"Polygon","coordinates":[[[-61.6,12.19],[-61.72,12.17],[-61.79,12.01],[-61.64,12.03],[-61.6,12.19]]]},"properties":{"NAME":null,"ABBREVN":null,"SUBJECTO":null,"BORDERPRECISION":1,"PARTOF":null}},
{"type":"Feature","geometry":{"type":"Polygon","coordinates":[[[-62.17,16.67],[-62.14,16.69],[-62.18,16.81],[-62.24,16.71],[-62.17,16.67]]]},"properties":{"NAME":null,"ABBREVN":null,"SUBJECTO":null,"BORDERPRECISION":1,"PARTOF":null}},
{"type":"Feature","geometry":{"type":"Polygon","coordinates":[[[-62.54,17.18],[-62.61,17.19],[-62.61,17.1],[-62.54,17.11],[-62.54,17.18]]]},"properties":{"NAME":null,"ABBREVN":null,"SUBJECTO":null,"BORDERPRECISION":1,"PARTOF":null}},
{"type":"Feature","geometry":{"type":"Polygon","coordinates":[[[-62.69,17.28],[-62.73,17.37],[-62.81,17.41],[-62.86,17.37],[-62.78,17.29],[-62.69,17.28]]]},"properties":{"NAME":null,"ABBREVN":null,"SUBJECTO":null,"BORDERPRECISION":1,"PARTOF":null}},
{"type":"Feature","geometry":{"type":"Polygon","coordinates":[[[-61.09,16.3],[-61.04,16.31],[-60.99,16.34],[-61.02,16.35],[-61.09,16.3]]]},"properties":{"NAME":null,"ABBREVN":null,"SUBJECTO":null,"BORDERPRECISION":1,"PARTOF":null}},
{"type":"Feature","geometry":{"type":"Polygon","coordinates":[[[-62.97,17.46],[-62.94,17.49],[-62.99,17.52],[-63,17.49],[-62.97,17.46]]]},"properties":{"NAME":null,"ABBREVN":null,"SUBJECTO":null,"BORDERPRECISION":1,"PARTOF":null}},
{"type":"Feature","geometry":{"type":"MultiPolygon","coordinates":[[[[-7.43,55.06],[-9.89,52.19],[-6.41,52.21],[-6.02,55.09],[-7.43,55.06]]],[[[-0.2,53.52],[-2.74,55.96],[-2.15,57.57],[-5.76,57.62],[-5.63,55.94],[-3.58,54.92],[-2.91,53.27],[-4.32,53.09],[-3.52,50.62],[0.19,50.73],[1.69,52.31],[-0.2,53.52]]]]},"properties":{"NAME":"Celts","ABBREVN":"Celts","SUBJECTO":"Celts","BORDERPRECISION":1,"PARTOF":"Celts"}},
{"type":"Feature","geometry":{"type":"Polygon","coordinates":[[[32.95,37.38],[31.37,36.71],[32.09,36.33],[34.04,36.33],[35.71,36.21],[35.82,34.34],[36.39,33.58],[35.77,31.64],[37.21,32.69],[41.06,32.89],[41.95,32.21],[47.61,29.27],[50.13,30.07],[51.35,28.04],[54.65,26.39],[56.79,26.97],[57.25,25.79],[58.74,25.54],[58.42,27.75],[60.34,27.89],[60.62,31.32],[57.6,30.97],[54.92,31.59],[54.07,36.94],[51.42,36.46],[44.69,36.67],[43.39,39.35],[41.4,38.45],[37.01,37.49],[32.95,37.38]]]},"properties":{"NAME":"Seleucid Kingdom","ABBREVN":"Seleucid Kin","SUBJECTO":"Seleucid Kingdom","BORDERPRECISION":1,"PARTOF":"Seleucid Kingdom"}},
{"type":"Feature","geometry":{"type":"Polygon","coordinates":[[[27.49,37.24],[28.63,36.65],[28.24,37.43],[27.49,37.24]]]},"properties":{"NAME":null,"ABBREVN":null,"SUBJECTO":null,"BORDERPRECISION":1,"PARTOF":null}},
{"type":"Feature","geometry":{"type":"Polygon","coordinates":[[[28.48,40.4],[26.77,40.38],[27.49,37.24],[28.24,37.43],[28.63,36.65],[31.37,36.71],[32.95,37.38],[31.61,39.39],[28.48,40.4]]]},"properties":{"NAME":"Roman Republic","ABBREVN":"Rome","SUBJECTO":"Roman Republic","BORDERPRECISION":1,"PARTOF":"Roman Republic"}},
{"type":"Feature","geometry":{"type":"MultiPolygon","coordinates":[[[[8.63,34.03],[10.96,33.58],[11.13,35.24],[10.13,37.1],[7.91,36.78],[8.63,34.03]]],[[[6.84,43.38],[7.07,43.54],[4.69,44.05],[2.12,42.4],[-1.73,41.81],[-8.83,41.87],[-9.55,38.77],[-8.67,37.12],[-2.24,36.73],[0.17,38.74],[0.88,41.02],[3.13,41.86],[5.04,43.33],[6.84,43.38]]],[[[7.3,43.67],[8.9,44.44],[12.64,41.53],[15.67,40.09],[17.08,40.53],[14.09,42.61],[12.35,44.3],[13.67,45.71],[13.78,46.77],[7.35,46.5],[7.3,43.67]]],[[[19.61,41.76],[19.37,40.26],[21.23,37.9],[23.56,38.35],[22.6,40.4],[27.93,40.96],[26.8,41.34],[26.74,41.36],[26.25,41.46],[23.04,41.8],[22.95,41.91],[19.61,41.76]]],[[[12.66,38.07],[15.03,36.75],[15.39,38.21],[12.66,38.07]]]]},"properties":{"NAME":"Roman Republic","ABBREVN":"Rome","SUBJECTO":"Roman Republic","BORDERPRECISION":1,"PARTOF":"Roman Republic"}},
{"type":"Feature","geometry":{"type":"Polygon","coordinates":[[[123.75,41.68],[125.88,41.48],[131.08,46.2],[124.2,50.33],[107.07,50.97],[100.71,51.09],[100.68,51.02],[100.25,50.74],[100.29,51.09],[95.82,51.18],[85.41,48.36],[94.98,41.22],[106.04,37.56],[106.8,39.14],[107.21,41.75],[109.08,42.12],[111.5,41.82],[113.32,41.6],[114.54,41.56],[118.55,41.43],[123.75,41.68]]]},"properties":{"NAME":"Xiongnu","ABBREVN":"Xiongnu","SUBJECTO":"Xiongnu","BORDERPRECISION":1,"PARTOF":"Xiongnu"}},
{"type":"Feature","geometry":{"type":"Polygon","coordinates":[[[-70.87,47.05],[-66.37,50.31],[-60.14,50.41],[-55.66,52.19],[-56.13,53.47],[-58.79,52.57],[-60.17,53.3],[-60.22,53.32],[-62.89,54.73],[-65.64,55.26],[-71.03,55.2],[-74.2,52.93],[-78.74,52.74],[-79.59,51.27],[-82.34,52.98],[-82.2,54.97],[-87.47,55.91],[-90.44,57.14],[-92.4,56.98],[-102.14,57.21],[-111.28,58.55],[-118.2,62.71],[-124.94,64.83],[-132.43,62.5],[-139.52,62.42],[-144.68,63.19],[-150.13,63.32],[-160.94,63.98],[-165.43,62.43],[-165.9,61.27],[-162,58.83],[-158.29,58.73],[-156.68,57.4],[-154.28,59.25],[-149.33,60.03],[-148.49,61.06],[-144.41,60.09],[-139.57,59.9],[-137.58,58.6],[-134.12,58.24],[-131.77,56.01],[-129.85,55],[-128.59,55.06],[-125.7,55.19],[-114.47,52],[-105.19,51.45],[-98.92,50.23],[-97.2,50.11],[-97.15,50.41],[-98.72,52.23],[-101.21,53.27],[-101.05,54.62],[-97.09,55.07],[-95.27,53.86],[-96.2,52.38],[-93.99,50.64],[-90.71,50.27],[-91.08,49.95],[-87.79,49.93],[-85.04,49.09],[-81.93,48.9],[-76.06,47.31],[-74.19,47.97],[-70.87,47.05]]]},"properties":{"NAME":"Subarctic forest hunter-gatherers","ABBREVN":"Subarctic forest hunter-gatherers","SUBJECTO":"Subarctic forest hunter-gatherers","BORDERPRECISION":1,"PARTOF":"Subarctic forest hunter-gatherers"}},
{"type":"Feature","geometry":{"type":"Polygon","coordinates":[[[142.34,-10.92],[141.68,-12.47],[141.71,-15.23],[140.8,-17.56],[139.25,-17.43],[135.39,-14.9],[136.66,-12.62],[133.56,-11.95],[130.46,-12.76],[129.2,-14.99],[126.85,-13.78],[122.74,-16.58],[122.2,-18.24],[120.87,-19.68],[116.42,-20.84],[113.63,-22.57],[113.43,-26.57],[114.63,-28.9],[115.75,-32.21],[115.05,-34.42],[118.21,-35.09],[119.77,-34.12],[123.62,-33.92],[126.06,-32.43],[131.28,-31.63],[133.84,-32.34],[135.53,-35.05],[137.46,-33.31],[139.37,-35.61],[140.01,-37.64],[143.36,-38.97],[145.93,-38.88],[149.5,-37.93],[151.36,-33.52],[152.97,-31.42],[153.49,-28.84],[153.07,-26.23],[150.75,-22.81],[149.56,-22.43],[149.1,-21.06],[146.32,-19.08],[145.18,-15.05],[143.74,-14.47],[143.17,-12.12],[142.34,-10.92]]]},"properties":{"NAME":"Australian aboriginal hunter-gatherers","ABBREVN":"Australian aboriginal hunter-gatherers","SUBJECTO":"Australian aboriginal hunter-gatherers","BORDERPRECISION":1,"PARTOF":"Australian aboriginal hunter-gatherers"}},
{"type":"Feature","geometry":{"type":"Polygon","coordinates":[[[146.71,-43.72],[147.82,-42.97],[148.27,-41.09],[144.78,-40.84],[145.72,-43.24],[146.71,-43.72]]]},"properties":{"NAME":"Tasmanian hunter-gatherers","ABBREVN":"Tasmanian hunter-gatherers","SUBJECTO":"Tasmanian hunter-gatherers","BORDERPRECISION":1,"PARTOF":"Tasmanian hunter-gatherers"}},
{"type":"Feature","geometry":{"type":"Polygon","coordinates":[[[140.01,41.38],[141.93,42.5],[143.21,41.93],[145.06,43.79],[141.88,45.44],[141.3,43.19],[140.01,41.38]]]},"properties":{"NAME":"Ainu","ABBREVN":"Ainu","SUBJECTO":"Ainu","BORDERPRECISION":1,"PARTOF":"Ainu"}},
{"type":"Feature","geometry":{"type":"Polygon","coordinates":[[[105.4,72.75],[98.46,69.79],[75.86,61.43],[62.81,56.96],[59.09,56.43],[65.31,55.05],[78.36,56.41],[93.7,56.48],[99.49,55.66],[107.96,59.82],[114.02,59.55],[116.71,54.66],[119.94,51.26],[127.34,49.98],[134.87,52.01],[141.05,52.69],[140.1,53.8],[134.99,54.85],[137.23,55.98],[142.85,59.27],[148.42,59.1],[154.32,59.98],[157.1,61.63],[160.64,60.72],[158.33,58.03],[156.78,57.58],[155.47,54.92],[156.7,50.96],[161.5,55.29],[162.51,57.03],[161.8,58.1],[163.39,59.81],[165.78,60.35],[170.34,60.28],[169.48,61.19],[172.44,63.08],[171.77,65.86],[168.14,67.46],[155.89,68.17],[130.87,69.9],[124.54,71.59],[123.5,73.5],[123.41,73.48],[111.76,73.66],[105.6,72.74],[105.4,72.75]]]},"properties":{"NAME":"Paleo-Siberian hunter-gatherers","ABBREVN":"Paleo-Siberian hunter-gatherers","SUBJECTO":"Paleo-Siberian hunter-gatherers","BORDERPRECISION":1,"PARTOF":"Paleo-Siberian hunter-gatherers"}},
{"type":"Feature","geometry":{"type":"Polygon","coordinates":[[[25.2,65.27],[34.73,65.78],[34.73,65.8],[39.19,66.04],[40.83,67.66],[35.44,69.15],[29.73,69.7],[28.31,70.95],[20.16,69.75],[13.17,66.46],[10.16,64.1],[11.53,61.9],[15.43,61.87],[17.94,62.55],[20.7,63.82],[22.65,65.93],[25.25,65.42],[25.2,65.27]]]},"properties":{"NAME":"Saami","ABBREVN":"Saami","SUBJECTO":"Saami","BORDERPRECISION":1,"PARTOF":"Saami"}},
{"type":"Feature","geometry":{"type":"Polygon","coordinates":[[[105.4,72.75],[105.28,72.75],[113.63,75.27],[113.53,76.09],[103.39,77.56],[99.47,75.97],[91.63,75.65],[89.8,75.52],[87.69,73.9],[80.46,73.31],[79.22,72.27],[73.22,71.46],[74.74,67.69],[72.84,67.65],[72.71,72.77],[69.34,72.83],[66.82,71.11],[66.58,68.89],[62.28,69.71],[57.02,68.45],[53.89,68.79],[44.38,66.61],[39.95,65.58],[37.41,63.75],[34.73,65.61],[34.73,65.78],[25.2,65.27],[25.19,65.24],[21.2,62.44],[29.02,61.77],[32.52,60.93],[46.11,57.71],[53.98,57.71],[59.09,56.43],[62.81,56.96],[75.86,61.43],[98.46,69.79],[105.4,72.75]]]},"properties":{"NAME":"Finno-Ugric taiga hunter-gatherers","ABBREVN":"Finno-Ugric taiga hunter-gatherers","SUBJECTO":"Finno-Ugric taiga hunter-gatherers","BORDERPRECISION":1,"PARTOF":"Finno-Ugric taiga hunter-gatherers"}},
{"type":"Feature","geometry":{"type":"MultiPolygon","coordinates":[[[[-43.58,59.94],[-39.69,65.19],[-42.79,65.4],[-44.26,61.87],[-43.58,59.94]]],[[[-50.54,67.49],[-50.94,67.53],[-53.1,65.87],[-48.92,61.42],[-46.16,60.94],[-49.06,64.79],[-49.47,67.03],[-50.54,67.49]]],[[[-62.81,81.16],[-65.48,79.16],[-72.38,78.53],[-67.04,75.94],[-62.45,76.34],[-62.81,81.16]]],[[[-92.4,56.98],[-94.75,59.95],[-93.42,61.86],[-87.44,64.57],[-85.99,66.16],[-81.29,67.5],[-84.31,69.83],[-86.49,67.38],[-89.74,68.53],[-93.27,71.56],[-96.7,70.84],[-92.96,69.08],[-96.21,68.07],[-101.91,67.71],[-105.64,68.35],[-112.5,67.69],[-115.29,68.89],[-127.35,70.38],[-131.67,69.28],[-137.73,69.02],[-156.9,71.35],[-160.24,70.86],[-164.07,69.06],[-163.74,67.22],[-168.18,65.69],[-166.59,64.73],[-160.94,63.98],[-150.13,63.32],[-144.68,63.19],[-139.52,62.42],[-132.43,62.5],[-124.94,64.83],[-118.2,62.71],[-111.28,58.55],[-102.14,57.21],[-92.4,56.98]]],[[[-60.22,53.32],[-57.52,54.47],[-61.93,56.27],[-62.89,58.66],[-69.21,58.75],[-70.03,60.88],[-73.39,62.35],[-77.36,62.52],[-78.34,58.55],[-76.44,56.81],[-77.23,55.61],[-79.55,54.69],[-78.74,52.74],[-74.2,52.93],[-71.03,55.2],[-65.64,55.26],[-62.89,54.73],[-60.22,53.32]]],[[[-56.13,53.47],[-57.56,54.13],[-60.17,53.3],[-58.79,52.57],[-56.13,53.47]]],[[[170.34,60.28],[170.52,60.34],[173.48,61.6],[179.29,62.82],[178.15,64.16],[180,64.95],[180,65.05],[180,65.31],[180,65.38],[180,65.96],[180,66.96],[180,67.96],[180,68.92],[175.61,69.78],[167.32,69.66],[159.44,69.76],[158.41,70.81],[152.13,70.66],[146.92,72.2],[141.29,72.79],[137.63,71.08],[126.22,72.38],[124.22,73.7],[123.5,73.5],[124.54,71.59],[130.87,69.9],[155.89,68.17],[168.14,67.46],[171.77,65.86],[172.44,63.08],[169.48,61.19],[170.34,60.28]]],[[[-75.62,69.1],[-72.3,67.26],[-75.79,65.2],[-71.32,63.06],[-66.5,63.08],[-64.47,63.74],[-67.61,65.91],[-62.84,65.61],[-61.21,66.64],[-68.67,68.72],[-71.25,71.35],[-81.53,73.69],[-88.1,73.64],[-90,71.54],[-87.95,70.38],[-78.71,70.01],[-75.62,69.1]]],[[[-81.91,64.52],[-85.56,65.86],[-85.46,63.21],[-81.91,64.52]]],[[[-125.83,72.08],[-123.47,71.2],[-120.84,71.53],[-120.45,72.3],[-117.69,73.22],[-121.65,73.99],[-124.74,74.24],[-124.06,73.87],[-125.14,72.61],[-125.83,72.08]]],[[[-100.97,69.63],[-105.6,71.04],[-110.35,71.2],[-114.04,72.06],[-118.65,71.8],[-115.52,71.42],[-117.76,70.72],[-111.54,70.33],[-116.99,69.74],[-113.54,69.11],[-113.15,68.6],[-106.85,69.45],[-101.81,69.14],[-103.27,69.33],[-100.97,69.63]]],[[[-88.33,74.68],[-80.35,74.62],[-81.7,75.87],[-88.33,74.68]]],[[[-75.8,82.68],[-75.99,82.34],[-77.52,80.75],[-81.36,79.91],[-80.73,79.66],[-85.69,79.72],[-81.6,78.75],[-86.63,78.3],[-84.84,78.16],[-84.41,77.63],[-83.05,77.63],[-87.58,77.46],[-87.1,77.28],[-88.59,76.47],[-84.67,76.47],[-84.8,76.87],[-83.09,76.48],[-82.57,76.7],[-77.8,76.73],[-82.1,77.32],[-78.22,77.57],[-78.37,78.03],[-76.29,78.01],[-76.62,78.3],[-74.91,78.82],[-77.3,79.29],[-73.67,79.52],[-74.54,79.89],[-70.42,80.05],[-70.51,80.55],[-65.3,81.46],[-67.85,81.75],[-61.99,82.31],[-70.92,82.93],[-73.23,82.86],[-76.23,82.91],[-75.8,82.68]]],[[[-170.47,66.29],[-180,68.92],[-180,67.96],[-180,66.96],[-180,65.96],[-180,65.38],[-180,65.31],[-180,65.26],[-178.12,65.48],[-173.08,64.38],[-170.47,66.29]]]]},"properties":{"NAME":"Arctic marine mammal hunters","ABBREVN":"Arctic marine mammal hunters","SUBJECTO":"Arctic marine mammal hunters","BORDERPRECISION":1,"PARTOF":"Arctic marine mammal hunters"}},
{"type":"Feature","geometry":{"type":"Polygon","coordinates":[[[-80.24,-3.48],[-76.45,-5.04],[-73.08,-4.72],[-74.23,-2.27],[-77.3,-0.89],[-80.87,-1.2],[-80.24,-3.48]]]},"properties":{"NAME":"Chorrera","ABBREVN":"Chorrera","SUBJECTO":"Chorrera","BORDERPRECISION":1,"PARTOF":"Chorrera"}},
{"type":"Feature","geometry":{"type":"Polygon","coordinates":[[[-48.8,-28.48],[-48.72,-25.43],[-44.56,-22.99],[-43.24,-23.03],[-43.28,-21.59],[-45.94,-21.75],[-49.49,-24.55],[-49.84,-26.8],[-48.8,-28.48]]]},"properties":{"NAME":"Shellfish gatherers","ABBREVN":"Shellfish gatherers","SUBJECTO":"Shellfish gatherers","BORDERPRECISION":1,"PARTOF":"Shellfish gatherers"}},
{"type":"Feature","geometry":{"type":"Polygon","coordinates":[[[-64.19,-14.69],[-60.27,-13.81],[-51.54,-14.38],[-48.32,-13.92],[-39.94,-8.29],[-37.89,-4.39],[-40.23,-2.85],[-43.33,-2.43],[-44.55,-3.1],[-49.07,-4.74],[-54.16,-4.63],[-56.33,-4.33],[-58.44,-2.29],[-57.97,-0.59],[-55.8,0.88],[-55.86,1.7],[-58.56,3.98],[-62.66,4.15],[-66.41,3.04],[-70.16,-5.74],[-69.05,-8.24],[-64.19,-14.69]]]},"properties":{"NAME":"Amazon hunter-gatherers","ABBREVN":"Amazon hunter-gatherers","SUBJECTO":"Amazon hunter-gatherers","BORDERPRECISION":1,"PARTOF":"Amazon hunter-gatherers"}},
{"type":"Feature","geometry":{"type":"Polygon","coordinates":[[[-43.24,-23.03],[-41.96,-22.92],[-39.69,-19.41],[-38.95,-16],[-39.13,-14.32],[-37.19,-10.84],[-35.6,-9.63],[-34.89,-7.61],[-35.46,-5.27],[-37.89,-4.39],[-39.94,-8.29],[-48.32,-13.92],[-51.54,-14.38],[-60.27,-13.81],[-64.19,-14.69],[-64.66,-16.8],[-65.91,-18.31],[-67.12,-25.03],[-68.62,-26.67],[-69.32,-29.3],[-67.48,-31.66],[-63.56,-30.04],[-57.35,-29.68],[-54.36,-30.59],[-52.14,-31.74],[-48.8,-28.48],[-49.84,-26.8],[-49.49,-24.55],[-45.94,-21.75],[-43.28,-21.59],[-43.24,-23.03]]]},"properties":{"NAME":"Savanna hunter-gatherers","ABBREVN":"Savanna hunter-gatherers","SUBJECTO":"Savanna hunter-gatherers","BORDERPRECISION":1,"PARTOF":"Savanna hunter-gatherers"}},
{"type":"Feature","geometry":{"type":"Polygon","coordinates":[[[-67.48,-31.66],[-67.65,-33.58],[-69.44,-37.16],[-72.07,-40.55],[-70.58,-40.58],[-71.63,-43.2],[-72.19,-45.99],[-72.04,-48.77],[-71.17,-51.56],[-69.11,-51.35],[-65.78,-47.23],[-67.33,-46.53],[-65.44,-44.89],[-64.94,-40.83],[-62.96,-41.14],[-61.36,-39.03],[-57.81,-38.39],[-56.7,-36.94],[-56.34,-35],[-54.07,-34.65],[-52.14,-31.74],[-54.36,-30.59],[-57.35,-29.68],[-63.56,-30.04],[-67.48,-31.66]]]},"properties":{"NAME":"Pampas cultures","ABBREVN":"Pampas cultures","SUBJECTO":"Pampas cultures","BORDERPRECISION":1,"PARTOF":"Pampas cultures"}},
{"type":"Feature","geometry":{"type":"Polygon","coordinates":[[[-65.91,-18.31],[-70.15,-20.27],[-70.57,-23.17],[-70.4,-25.25],[-71.43,-29.1],[-71.62,-33.71],[-73.67,-37.5],[-72.73,-41.55],[-72.07,-40.55],[-69.44,-37.16],[-67.65,-33.58],[-67.48,-31.66],[-69.32,-29.3],[-68.62,-26.67],[-67.12,-25.03],[-65.91,-18.31]]]},"properties":{"NAME":"Andean hunter-gatherers","ABBREVN":"Andean hunter-gatherers","SUBJECTO":"Andean hunter-gatherers","BORDERPRECISION":1,"PARTOF":"Andean hunter-gatherers"}},
{"type":"Feature","geometry":{"type":"MultiPolygon","coordinates":[[[[-72.07,-40.55],[-72.73,-41.55],[-74.31,-48.75],[-73.41,-52.02],[-71.87,-53.7],[-69.11,-51.35],[-71.17,-51.56],[-72.04,-48.77],[-72.19,-45.99],[-71.63,-43.2],[-70.58,-40.58],[-72.07,-40.55]]],[[[-69.21,-54.93],[-66.98,-54.34],[-68.31,-52.94],[-70.33,-53.47],[-69.21,-54.93]]]]},"properties":{"NAME":"Patagonian shellfish and marine mammal hunters","ABBREVN":"Patagonian shellfish and marine mammal hunters","SUBJECTO":"Patagonian shellfish and marine mammal hunters","BORDERPRECISION":1,"PARTOF":"Patagonian shellfish and marine mammal hunters"}},
{"type":"Feature","geometry":{"type":"Polygon","coordinates":[[[-61.7,8.61],[-61.53,9.85],[-64.07,10.63],[-64.88,10.14],[-67.98,10.54],[-69.75,11.53],[-71.5,10.65],[-71.18,9.28],[-70.68,8.56],[-65.97,8.18],[-61.7,8.61]]]},"properties":{"NAME":"Caribbean hunter-gatherers","ABBREVN":"Caribbean hunter-gatherers","SUBJECTO":"Caribbean hunter-gatherers","BORDERPRECISION":1,"PARTOF":"Caribbean hunter-gatherers"}},
{"type":"Feature","geometry":{"type":"Polygon","coordinates":[[[-69.86,-16.51],[-69.83,-17.72],[-68.73,-17.68],[-68.8,-16.38],[-69.86,-16.51]]]},"properties":{"NAME":"Wankarani","ABBREVN":"Wankarani","SUBJECTO":"Wankarani","BORDERPRECISION":1,"PARTOF":"Wankarani"}},
{"type":"Feature","geometry":{"type":"Polygon","coordinates":[[[-120.47,43.57],[-121.36,39.69],[-120.13,34.52],[-117.5,33.33],[-115.6,29.69],[-114.07,28.42],[-114.48,27.24],[-112.41,26.19],[-112.87,28.33],[-114.68,30.14],[-113.05,31.14],[-111.69,28.5],[-110.53,27.76],[-107.56,27.76],[-104.22,25.12],[-100.36,23.97],[-97.82,24.21],[-97.21,28.07],[-98.19,29.18],[-104.52,33.87],[-111.67,41.94],[-119.02,43.11],[-120.47,43.57]]]},"properties":{"NAME":"Desert hunter-gatherers","ABBREVN":"Desert hunter-gatherers","SUBJECTO":"Desert hunter-gatherers","BORDERPRECISION":1,"PARTOF":"Desert hunter-gatherers"}},
{"type":"Feature","geometry":{"type":"Polygon","coordinates":[[[-128.59,55.06],[-120.48,48.96],[-120.47,43.57],[-119.02,43.11],[-111.67,41.94],[-114.13,47.95],[-114.47,52],[-125.7,55.19],[-128.59,55.06]]]},"properties":{"NAME":"Plateau fichers and hunter gatherers","ABBREVN":"Plateau fichers and hunter gatherers","SUBJECTO":"Plateau fichers and hunter gatherers","BORDERPRECISION":1,"PARTOF":"Plateau fichers and hunter gatherers"}},
{"type":"Feature","geometry":{"type":"Polygon","coordinates":[[[-129.85,55],[-130,53.94],[-127.56,52.17],[-127.25,50.97],[-122.61,48.83],[-124.68,48.39],[-123.99,45.76],[-124.63,43.01],[-124.36,40.33],[-121.93,36.34],[-120.13,34.52],[-121.36,39.69],[-120.47,43.57],[-120.48,48.96],[-128.59,55.06],[-129.85,55]]]},"properties":{"NAME":"North American Pacifi foraging, hunting and fishing peoples","ABBREVN":"North American Pacifi foraging, hunting and fishing peoples","SUBJECTO":"North American Pacifi foraging, hunting and fishing peoples","BORDERPRECISION":1,"PARTOF":"North American Pacifi foraging, hunting and fishing peoples"}},
{"type":"Feature","geometry":{"type":"Polygon","coordinates":[[[32.88,12.47],[30.6,11.12],[24.07,11.18],[23.2,11.78],[20.44,11.97],[17.75,12.83],[8.27,12.37],[2.35,13.29],[-6.26,13.35],[-13.4,14.92],[-16.87,14.36],[-16.77,12.6],[-13.68,9.92],[-12.26,7.35],[-9.25,5.17],[-7.53,4.34],[-5,5.24],[-2.03,4.7],[1.56,6.24],[3.95,6.58],[5.45,5.48],[5.36,5.37],[12.6,7.73],[22.22,6.2],[33.93,2.84],[36.02,1.3],[38.77,-2.27],[40.45,-1.36],[40.86,0.32],[42.54,1.26],[44.14,1.15],[44.3,1.29],[46.36,2.67],[48.47,5.2],[50.78,9.37],[51.18,11.78],[44.28,10.4],[42.08,13.86],[39.52,15.46],[39.24,16.25],[35.83,14.22],[35.72,13.22],[32.88,12.47]],[[35.58,5.53],[33.02,6.86],[32.35,9.53],[34.23,11.71],[37.13,11.64],[39.14,9.06],[38.61,6.6],[35.58,5.53]]]},"properties":{"NAME":"West African cereal farmers","ABBREVN":"West African cereal farmers","SUBJECTO":"West African cereal farmers","BORDERPRECISION":1,"PARTOF":"West African cereal farmers"}},
{"type":"Feature","geometry":{"type":"Polygon","coordinates":[[[35.83,14.22],[39.24,16.25],[39.52,15.46],[38.69,18],[37.4,18.92],[37.13,21.23],[34.55,20.18],[35.97,15.48],[35.83,14.22]]]},"properties":{"NAME":null,"ABBREVN":null,"SUBJECTO":null,"BORDERPRECISION":1,"PARTOF":null}},
{"type":"Feature","geometry":{"type":"MultiPolygon","coordinates":[[[[5.36,5.37],[5.35,5.36],[6.84,4.29],[8.87,4.62],[9.92,2.82],[9.2,-0.63],[9.66,-2.42],[11.77,-4.54],[13.39,-8.16],[13.65,-12.2],[12.59,-13.46],[11.78,-15.87],[11.77,-17.6],[14.42,-22.27],[15.45,-27.62],[16.79,-29.14],[18.18,-31.81],[18.49,-34.4],[20.26,-34.62],[22.68,-34.1],[26.66,-33.85],[28.92,-32.3],[32.23,-28.74],[33.35,-25.3],[34.88,-24.72],[35.26,-22.27],[34.73,-19.86],[37.28,-17.71],[39.47,-16.72],[40.6,-14.4],[40.31,-11.34],[38.92,-6.34],[40.23,-3.19],[43.72,0.8],[44.14,1.15],[42.54,1.26],[40.86,0.32],[40.45,-1.36],[38.77,-2.27],[36.02,1.3],[33.93,2.84],[22.22,6.2],[12.6,7.73],[5.36,5.37]]],[[[45.28,-16.05],[43.97,-17.55],[44.47,-20.17],[43.5,-21.49],[43.67,-24.23],[45.58,-25.62],[47.26,-24.77],[49.34,-18.23],[50.5,-15.31],[49.82,-12.83],[46.92,-15.36],[45.28,-16.05]]]]},"properties":{"NAME":"Khoiasan","ABBREVN":"Khoiasan","SUBJECTO":"Khoiasan","BORDERPRECISION":1,"PARTOF":"Khoiasan"}},
{"type":"Feature","geometry":{"type":"Polygon","coordinates":[[[34.55,20.18],[37.13,21.23],[35.19,24.4],[33.66,24.02],[33.69,23.55],[33.35,23.35],[34.53,20.17],[34.55,20.18]]]},"properties":{"NAME":"Blemmyes","ABBREVN":"Blemmyes","SUBJECTO":"Blemmyes","BORDERPRECISION":1,"PARTOF":"Blemmyes"}},
{"type":"Feature","geometry":{"type":"Polygon","coordinates":[[[-114.47,52],[-114.13,47.95],[-111.67,41.94],[-104.52,33.87],[-98.19,29.18],[-97.21,28.07],[-94.12,29.69],[-94.12,31.64],[-96.04,32.99],[-95.46,33.03],[-96.26,34.62],[-94.28,35.13],[-94.12,35.88],[-94.12,36.33],[-94.9,36.25],[-95.79,37.17],[-95.36,39.95],[-94.12,40.14],[-94.23,46.72],[-94.51,47.39],[-95.62,47.72],[-97.28,49.57],[-97.2,50.11],[-98.92,50.23],[-105.19,51.45],[-114.47,52]]]},"properties":{"NAME":"Plain bison hunters","ABBREVN":"Plain bison hunters","SUBJECTO":"Plain bison hunters","BORDERPRECISION":1,"PARTOF":"Plain bison hunters"}},
{"type":"Feature","geometry":{"type":"Polygon","coordinates":[[[-93.59,15.74],[-93.14,16.98],[-92.94,18.59],[-93.09,18.55],[-93.78,18.35],[-94.24,18.24],[-96.01,18.93],[-97.5,21.19],[-97.82,24.21],[-100.36,23.97],[-104.22,25.12],[-107.56,27.76],[-110.53,27.76],[-105.54,22.28],[-104.95,19.44],[-103.49,18.35],[-97.88,16.05],[-95.13,16.3],[-93.59,15.74]],[[-95.43,17.43],[-95.5,16.53],[-96.44,16.22],[-97.69,16.39],[-99.02,16.82],[-99.18,17.29],[-99.21,17.71],[-97.06,18.06],[-96.19,17.88],[-95.43,17.43]]]},"properties":{"NAME":null,"ABBREVN":null,"SUBJECTO":null,"BORDERPRECISION":1,"PARTOF":null}},
{"type":"Feature","geometry":{"type":"Polygon","coordinates":[[[-75.99,82.34],[-90.5,82.01],[-89.19,81.1],[-77.52,80.75],[-75.99,82.34]]]},"properties":{"NAME":null,"ABBREVN":null,"SUBJECTO":null,"BORDERPRECISION":1,"PARTOF":null}},
{"type":"Feature","geometry":{"type":"Polygon","coordinates":[[[-105.6,71.04],[-105.31,72.65],[-114.04,72.06],[-110.35,71.2],[-105.6,71.04]]]},"properties":{"NAME":null,"ABBREVN":null,"SUBJECTO":null,"BORDERPRECISION":1,"PARTOF":null}},
{"type":"Feature","geometry":{"type":"Polygon","coordinates":[[[-87.5,80.23],[-96.43,79.93],[-92.7,78.43],[-87.17,79.13],[-87.5,80.23]]]},"properties":{"NAME":null,"ABBREVN":null,"SUBJECTO":null,"BORDERPRECISION":1,"PARTOF":null}},
{"type":"Feature","geometry":{"type":"Polygon","coordinates":[[[-125.83,72.08],[-123.47,71.2],[-120.84,71.53],[-120.45,72.3],[-115.65,73.63],[-121.65,73.99],[-117.69,73.22],[-120.45,72.3],[-120.84,71.53],[-123.47,71.2],[-125.83,72.08]]]},"properties":{"NAME":null,"ABBREVN":null,"SUBJECTO":null,"BORDERPRECISION":1,"PARTOF":null}},
{"type":"Feature","geometry":{"type":"Polygon","coordinates":[[[-113.85,76.22],[-115.19,75.15],[-112.2,74.5],[-105.77,75.23],[-105.92,76.02],[-111.39,75.66],[-113.85,76.22]]]},"properties":{"NAME":null,"ABBREVN":null,"SUBJECTO":null,"BORDERPRECISION":1,"PARTOF":null}},
{"type":"Feature","geometry":{"type":"Polygon","coordinates":[[[-122.15,76.58],[-120.1,75.98],[-118.74,76.94],[-122.15,76.58]]]},"properties":{"NAME":null,"ABBREVN":null,"SUBJECTO":null,"BORDERPRECISION":1,"PARTOF":null}},
{"type":"Feature","geometry":{"type":"Polygon","coordinates":[[[-102.56,78.31],[-99.89,78.66],[-102.57,79.02],[-104.97,78.53],[-102.56,78.31]]]},"properties":{"NAME":null,"ABBREVN":null,"SUBJECTO":null,"BORDERPRECISION":1,"PARTOF":null}},
{"type":"Feature","geometry":{"type":"Polygon","coordinates":[[[-101.58,75.69],[-98,75.16],[-97.82,76.48],[-101.88,76.33],[-101.58,75.69]]]},"properties":{"NAME":null,"ABBREVN":null,"SUBJECTO":null,"BORDERPRECISION":1,"PARTOF":null}},
{"type":"Feature","geometry":{"type":"Polygon","coordinates":[[[-97.31,78.82],[-97.46,78.1],[-95.1,78.44],[-97.31,78.82]]]},"properties":{"NAME":null,"ABBREVN":null,"SUBJECTO":null,"BORDERPRECISION":1,"PARTOF":null}},
{"type":"Feature","geometry":{"type":"Polygon","coordinates":[[[-113.16,77.79],[-110.62,77.54],[-110.71,78.02],[-113.16,77.79]]]},"properties":{"NAME":null,"ABBREVN":null,"SUBJECTO":null,"BORDERPRECISION":1,"PARTOF":null}},
{"type":"Feature","geometry":{"type":"Polygon","coordinates":[[[-94.12,29.69],[-90.78,29.11],[-89.79,30.69],[-90.66,33.45],[-92.22,33.32],[-93.81,31.94],[-94.12,31.64],[-94.12,29.69]]]},"properties":{"NAME":"Marksville Culture","ABBREVN":"Marksville Culture","SUBJECTO":"Marksville Culture","BORDERPRECISION":1,"PARTOF":"Marksville Culture"}},
{"type":"Feature","geometry":{"type":"Polygon","coordinates":[[[-96.04,32.99],[-93.81,31.94],[-92.22,33.32],[-94.28,35.13],[-96.26,34.62],[-95.46,33.03],[-96.04,32.99]]]},"properties":{"NAME":"Fourche Maline Culture","ABBREVN":"Fourche Maline Culture","SUBJECTO":"Fourche Maline Culture","BORDERPRECISION":1,"PARTOF":"Fourche Maline Culture"}},
{"type":"Feature","geometry":{"type":"Polygon","coordinates":[[[-94.12,31.64],[-93.81,31.94],[-96.04,32.99],[-94.12,31.64]]]},"properties":{"NAME":"Mill Creek Culture","ABBREVN":"Mill Creek Culture","SUBJECTO":"Mill Creek Culture","BORDERPRECISION":1,"PARTOF":"Mill Creek Culture"}},
{"type":"Feature","geometry":{"type":"Polygon","coordinates":[[[-80.9,32.04],[-82.39,34.14],[-85.77,34.16],[-85.77,34.15],[-86.84,32.65],[-87.3,31.3],[-85.3,29.66],[-83.7,29.87],[-81.38,30],[-80.9,32.04]]]},"properties":{"NAME":"Swift Creek Culture","ABBREVN":"Swift Creek Culture","SUBJECTO":"Swift Creek Culture","BORDERPRECISION":1,"PARTOF":"Swift Creek Culture"}},
{"type":"Feature","geometry":{"type":"Polygon","coordinates":[[[-88.07,35.11],[-89.79,35.28],[-90.62,34.17],[-88.38,33.19],[-88.07,35.11]]]},"properties":{"NAME":"Miller","ABBREVN":"Miller","SUBJECTO":"Miller","BORDERPRECISION":1,"PARTOF":"Miller"}},
{"type":"Feature","geometry":{"type":"MultiPolygon","coordinates":[[[[-97.2,50.11],[-97.28,49.57],[-95.62,47.72],[-94.51,47.39],[-91.15,47.37],[-88.25,48.93],[-88.2,48.98],[-91.08,49.95],[-90.71,50.27],[-93.99,50.64],[-96.2,52.38],[-95.27,53.86],[-97.09,55.07],[-101.05,54.62],[-101.21,53.27],[-98.72,52.23],[-97.15,50.41],[-97.2,50.11]]],[[[-83.49,47.46],[-86.46,48.95],[-84.44,46.82],[-87.27,46.51],[-89.09,46.96],[-87.2,45.57],[-86.1,44.76],[-84.18,45.6],[-83.49,47.46]]]]},"properties":{"NAME":"Laurel complex","ABBREVN":"Laurel complex","SUBJECTO":"Laurel complex","BORDERPRECISION":1,"PARTOF":"Laurel complex"}},
{"type":"Feature","geometry":{"type":"Polygon","coordinates":[[[-85.77,34.16],[-85.85,34.43],[-88.07,35.11],[-88.38,33.19],[-88.54,32.82],[-86.99,32.82],[-86.84,32.65],[-85.77,34.15],[-85.77,34.16]]]},"properties":{"NAME":"Copena","ABBREVN":"Copena","SUBJECTO":"Copena","BORDERPRECISION":1,"PARTOF":"Copena"}},
{"type":"Feature","geometry":{"type":"Polygon","coordinates":[[[-86.84,32.65],[-86.99,32.82],[-88.54,32.82],[-89.67,31.78],[-88.03,30.68],[-87.3,31.3],[-86.84,32.65]]]},"properties":{"NAME":"Porter","ABBREVN":"Porter","SUBJECTO":"Porter","BORDERPRECISION":1,"PARTOF":"Porter"}},
{"type":"Feature","geometry":{"type":"Polygon","coordinates":[[[-83.74,43.62],[-86.45,44.13],[-86.49,44.02],[-87.03,41.69],[-87.22,41.63],[-87.38,41.63],[-87.35,41.17],[-84.74,41.72],[-83.74,43.62]]]},"properties":{"NAME":"Goodall Focus","ABBREVN":"Goodall Focus","SUBJECTO":"Goodall Focus","BORDERPRECISION":1,"PARTOF":"Goodall Focus"}},
{"type":"Feature","geometry":{"type":"Polygon","coordinates":[[[-79.64,42.85],[-80.52,44.6],[-82.17,43.08],[-81.86,42.26],[-79.64,42.85]]]},"properties":{"NAME":"Saugeen Complex","ABBREVN":"Saugeen Complex","SUBJECTO":"Saugeen Complex","BORDERPRECISION":1,"PARTOF":"Saugeen Complex"}},
{"type":"Feature","geometry":{"type":"Polygon","coordinates":[[[-84.74,41.72],[-83.66,40.61],[-82.28,40.91],[-81.95,41.51],[-82.77,42.27],[-82.46,43.2],[-83.74,43.62],[-84.74,41.72]]]},"properties":{"NAME":"Couture Complex","ABBREVN":"Couture Complex","SUBJECTO":"Couture Complex","BORDERPRECISION":1,"PARTOF":"Couture Complex"}},
{"type":"Feature","geometry":{"type":"Polygon","coordinates":[[[-76.06,47.31],[-80.3,45.95],[-80.29,44.52],[-79.37,43.61],[-78.82,43.31],[-76.94,43.24],[-76.18,43.61],[-75.59,43.68],[-70.56,45.31],[-70.87,47.05],[-74.19,47.97],[-76.06,47.31]],[[-78.5,43.36],[-78.24,43.37],[-78.22,43.37],[-78.5,43.36]]]},"properties":{"NAME":"Point Peninsula","ABBREVN":"Point Peninsula","SUBJECTO":"Point Peninsula","BORDERPRECISION":1,"PARTOF":"Point Peninsula"}},
{"type":"Feature","geometry":{"type":"Polygon","coordinates":[[[-94.12,36.33],[-93.43,38.34],[-90.81,38.01],[-88.51,36.06],[-85.56,37.55],[-82.14,36.96],[-79.98,37.58],[-78.29,41.02],[-75.59,43.68],[-76.18,43.61],[-76.94,43.24],[-78.82,43.31],[-79.19,42.85],[-79.56,42.39],[-80.29,41.34],[-82.28,40.91],[-83.66,40.61],[-86.55,39.41],[-89.19,39.42],[-87.35,41.17],[-87.38,41.63],[-87.48,41.69],[-87.79,42.83],[-89.32,44.49],[-92.21,45.76],[-91.95,43.69],[-94.11,42.03],[-94.12,40.14],[-95.36,39.95],[-95.79,37.17],[-94.9,36.25],[-94.12,36.33]]]},"properties":{"NAME":"Hopewell Culture","ABBREVN":"Hopewell Culture","SUBJECTO":"Hopewell Culture","BORDERPRECISION":1,"PARTOF":"Hopewell Culture"}},
{"type":"Feature","geometry":{"type":"Polygon","coordinates":[[[-94.28,35.13],[-92.22,33.32],[-90.66,33.45],[-89.79,30.69],[-88.03,30.68],[-89.67,31.78],[-88.54,32.82],[-88.38,33.19],[-90.62,34.17],[-89.79,35.28],[-88.07,35.11],[-85.85,34.43],[-85.77,34.16],[-82.39,34.14],[-80.9,32.04],[-75.73,35.88],[-75.67,37.9],[-73.74,40.98],[-70.3,41.76],[-70.22,43.8],[-67.17,44.71],[-65.71,43.56],[-61.03,45.38],[-64.53,46.27],[-64.95,49.21],[-68.34,48.55],[-70.87,47.05],[-70.56,45.31],[-75.59,43.68],[-78.29,41.02],[-79.98,37.58],[-82.14,36.96],[-85.56,37.55],[-88.51,36.06],[-90.81,38.01],[-93.43,38.34],[-94.12,36.33],[-94.12,35.88],[-94.28,35.13]]]},"properties":{"NAME":null,"ABBREVN":null,"SUBJECTO":null,"BORDERPRECISION":1,"PARTOF":null}},
{"type":"Feature","geometry":{"type":"Polygon","coordinates":[[[-80.45,27.78],[-81.38,30],[-83.7,29.87],[-82.43,27.83],[-81.1,25.13],[-80.05,26.55],[-80.45,27.78]]]},"properties":{"NAME":null,"ABBREVN":null,"SUBJECTO":null,"BORDERPRECISION":1,"PARTOF":null}},
{"type":"Feature","geometry":{"type":"Polygon","coordinates":[[[-82.17,43.08],[-82.46,43.2],[-82.77,42.27],[-81.86,42.26],[-82.17,43.08]]]},"properties":{"NAME":null,"ABBREVN":null,"SUBJECTO":null,"BORDERPRECISION":1,"PARTOF":null}},
{"type":"Feature","geometry":{"type":"Polygon","coordinates":[[[-82.28,40.91],[-80.29,41.34],[-79.56,42.39],[-81.95,41.51],[-82.28,40.91]]]},"properties":{"NAME":null,"ABBREVN":null,"SUBJECTO":null,"BORDERPRECISION":1,"PARTOF":null}},
{"type":"Feature","geometry":{"type":"Polygon","coordinates":[[[-87.35,41.17],[-89.19,39.42],[-86.55,39.41],[-83.66,40.61],[-84.74,41.72],[-87.35,41.17]]]},"properties":{"NAME":null,"ABBREVN":null,"SUBJECTO":null,"BORDERPRECISION":1,"PARTOF":null}},
{"type":"Feature","geometry":{"type":"Polygon","coordinates":[[[-86.1,44.76],[-86.45,44.13],[-83.74,43.62],[-84.18,45.6],[-86.1,44.76]]]},"properties":{"NAME":null,"ABBREVN":null,"SUBJECTO":null,"BORDERPRECISION":1,"PARTOF":null}},
{"type":"Feature","geometry":{"type":"Polygon","coordinates":[[[-94.12,40.14],[-94.11,42.03],[-91.95,43.69],[-92.21,45.76],[-89.32,44.49],[-87.79,42.83],[-87.2,45.57],[-89.09,46.96],[-91.15,47.37],[-94.51,47.39],[-94.23,46.72],[-94.12,40.14]]]},"properties":{"NAME":null,"ABBREVN":null,"SUBJECTO":null,"BORDERPRECISION":1,"PARTOF":null}},
{"type":"Feature","geometry":{"type":"Polygon","coordinates":[[[-78.5,43.36],[-78.22,43.37],[-78.24,43.37],[-78.5,43.36]]]},"properties":{"NAME":null,"ABBREVN":null,"SUBJECTO":null,"BORDERPRECISION":1,"PARTOF":null}},
{"type":"Feature","geometry":{"type":"Polygon","coordinates":[[[-79.64,42.85],[-79.19,42.85],[-78.82,43.31],[-79.37,43.61],[-80.29,44.52],[-80.52,44.6],[-79.64,42.85]]]},"properties":{"NAME":null,"ABBREVN":null,"SUBJECTO":null,"BORDERPRECISION":1,"PARTOF":null}},
{"type":"Feature","geometry":{"type":"Polygon","coordinates":[[[-91.08,49.95],[-88.2,48.98],[-86.46,48.95],[-83.49,47.46],[-83.09,46.19],[-80.3,45.95],[-76.06,47.31],[-81.93,48.9],[-85.04,49.09],[-87.79,49.93],[-91.08,49.95]]]},"properties":{"NAME":null,"ABBREVN":null,"SUBJECTO":null,"BORDERPRECISION":1,"PARTOF":null}},
{"type":"Feature","geometry":{"type":"Polygon","coordinates":[[[-78.51,8.69],[-77.4,6.67],[-77.11,3.79],[-78.98,1.3],[-80.09,0.82],[-80.87,-1.2],[-77.3,-0.89],[-74.23,-2.27],[-73.08,-4.72],[-76.45,-5.04],[-80.24,-3.48],[-81.42,-4.68],[-80.61,-6.37],[-79.06,-8.22],[-76.24,-13.57],[-75.56,-12.87],[-73.89,-14.85],[-74.38,-15.82],[-70.58,-18.08],[-70.15,-20.27],[-65.91,-18.31],[-64.66,-16.8],[-64.19,-14.69],[-69.05,-8.24],[-70.16,-5.74],[-66.41,3.04],[-62.66,4.15],[-58.56,3.98],[-55.86,1.7],[-55.8,0.88],[-57.97,-0.59],[-58.44,-2.29],[-56.33,-4.33],[-54.16,-4.63],[-49.07,-4.74],[-44.55,-3.1],[-44.8,-1.74],[-47.24,-0.68],[-49.22,-2.11],[-50.64,-1.88],[-51.53,-0.43],[-49.88,1.21],[-51.21,4.07],[-54.29,5.88],[-56.75,6],[-58.58,6.98],[-59.83,8.44],[-61.7,8.61],[-65.97,8.18],[-70.68,8.56],[-71.18,9.28],[-72.38,11.81],[-75.45,10.63],[-76.76,8.69],[-78.55,8.75],[-78.51,8.69]],[[-69.86,-16.51],[-68.8,-16.38],[-68.73,-17.68],[-69.83,-17.72],[-69.86,-16.51]],[[-73.95,-9.04],[-74.12,-10.46],[-76.04,-11.38],[-77.16,-10.56],[-77.43,-8.86],[-73.95,-9.04]]]},"properties":{"NAME":"Manioc farmers","ABBREVN":"Manioc farmers","SUBJECTO":"Manioc farmers","BORDERPRECISION":1,"PARTOF":"Manioc farmers"}},
{"type":"Feature","geometry":{"type":"Polygon","coordinates":[[[-76.24,-13.57],[-74.38,-15.82],[-73.89,-14.85],[-75.56,-12.87],[-76.24,-13.57]]]},"properties":{"NAME":"Nazca","ABBREVN":"Nazca","SUBJECTO":"Nazca","BORDERPRECISION":1,"PARTOF":"Nazca"}},
{"type":"Feature","geometry":null,"properties":{"NAME":null,"ABBREVN":null,"SUBJECTO":null,"BORDERPRECISION":1,"PARTOF":null}},
{"type":"Feature","geometry":null,"properties":{"NAME":null,"ABBREVN":null,"SUBJECTO":null,"BORDERPRECISION":1,"PARTOF":null}},
{"type":"Feature","geometry":{"type":"Polygon","coordinates":[[[35.58,5.53],[38.61,6.6],[39.14,9.06],[37.13,11.64],[34.23,11.71],[32.35,9.53],[33.02,6.86],[35.58,5.53]]]},"properties":{"NAME":null,"ABBREVN":null,"SUBJECTO":null,"BORDERPRECISION":1,"PARTOF":null}},
{"type":"Feature","geometry":{"type":"Polygon","coordinates":[[[31.06,22.68],[31.21,24.25],[28.41,27.74],[25.45,28.98],[25.44,30.68],[22.09,31.75],[20.12,30.96],[18.92,30.2],[15.84,31.29],[15.01,32.36],[12.56,32.74],[10.96,33.58],[8.63,34.03],[-1.13,32.19],[-9.63,30.41],[-10.34,29.15],[-12.87,27.86],[-14.37,26.12],[-17.05,21],[-16.35,20.52],[-15.98,18.18],[-16.87,14.36],[-13.4,14.92],[-6.26,13.35],[2.35,13.29],[8.27,12.37],[17.75,12.83],[20.44,11.97],[23.2,11.78],[24.07,11.18],[30.6,11.12],[32.88,12.47],[31.06,13.13],[30.27,15.54],[29.85,20.12],[31.06,22.68]]]},"properties":{"NAME":null,"ABBREVN":null,"SUBJECTO":null,"BORDERPRECISION":1,"PARTOF":null}},
{"type":"Feature","geometry":{"type":"Polygon","coordinates":[[[-4.15,53.23],[-4.28,53.4],[-4.57,53.27],[-4.35,53.12],[-4.15,53.23]]]},"properties":{"NAME":null,"ABBREVN":null,"SUBJECTO":null,"BORDERPRECISION":1,"PARTOF":null}},
{"type":"Feature","geometry":{"type":"Polygon","coordinates":[[[-5.1,55.44],[-5.15,55.67],[-5.4,55.6],[-5.1,55.44]]]},"properties":{"NAME":null,"ABBREVN":null,"SUBJECTO":null,"BORDERPRECISION":1,"PARTOF":null}},
{"type":"Feature","geometry":{"type":"Polygon","coordinates":[[[-6.12,55.88],[-6.33,55.59],[-6.02,55.68],[-6.12,55.88]]]},"properties":{"NAME":null,"ABBREVN":null,"SUBJECTO":null,"BORDERPRECISION":1,"PARTOF":null}},
{"type":"Feature","geometry":{"type":"Polygon","coordinates":[[[-5.95,55.83],[-5.75,56.06],[-5.97,56.02],[-6.08,55.91],[-5.95,55.83]]]},"properties":{"NAME":null,"ABBREVN":null,"SUBJECTO":null,"BORDERPRECISION":1,"PARTOF":null}},
{"type":"Feature","geometry":{"type":"Polygon","coordinates":[[[-7.47,56.94],[-7.38,56.98],[-7.45,57.06],[-7.55,56.97],[-7.47,56.94]]]},"properties":{"NAME":null,"ABBREVN":null,"SUBJECTO":null,"BORDERPRECISION":1,"PARTOF":null}},
{"type":"Feature","geometry":{"type":"Polygon","coordinates":[[[-7.22,57.34],[-7.42,57.38],[-7.38,57.11],[-7.23,57.09],[-7.22,57.34]]]},"properties":{"NAME":null,"ABBREVN":null,"SUBJECTO":null,"BORDERPRECISION":1,"PARTOF":null}},
{"type":"Feature","geometry":{"type":"Polygon","coordinates":[[[-7.27,57.4],[-7.2,57.46],[-7.35,57.49],[-7.39,57.42],[-7.27,57.4]]]},"properties":{"NAME":null,"ABBREVN":null,"SUBJECTO":null,"BORDERPRECISION":1,"PARTOF":null}},
{"type":"Feature","geometry":{"type":"Polygon","coordinates":[[[-7.19,57.69],[-7.48,57.56],[-7.15,57.51],[-7.19,57.69]]]},"properties":{"NAME":null,"ABBREVN":null,"SUBJECTO":null,"BORDERPRECISION":1,"PARTOF":null}},
{"type":"Feature","geometry":{"type":"Polygon","coordinates":[[[-7.01,57.88],[-6.99,57.92],[-7.07,57.9],[-7.01,57.88]]]},"properties":{"NAME":null,"ABBREVN":null,"SUBJECTO":null,"BORDERPRECISION":1,"PARTOF":null}},
{"type":"Feature","geometry":{"type":"Polygon","coordinates":[[[-6.2,58.36],[-7.03,58.24],[-6.47,57.94],[-6.2,58.36]]]},"properties":{"NAME":null,"ABBREVN":null,"SUBJECTO":null,"BORDERPRECISION":1,"PARTOF":null}},
{"type":"Feature","geometry":{"type":"Polygon","coordinates":[[[-2.92,58.73],[-2.88,58.82],[-3.04,58.82],[-2.92,58.73]]]},"properties":{"NAME":null,"ABBREVN":null,"SUBJECTO":null,"BORDERPRECISION":1,"PARTOF":null}},
{"type":"Feature","geometry":{"type":"Polygon","coordinates":[[[-3.23,58.78],[-3.14,58.8],[-3.34,58.93],[-3.43,58.87],[-3.23,58.78]]]},"properties":{"NAME":null,"ABBREVN":null,"SUBJECTO":null,"BORDERPRECISION":1,"PARTOF":null}},
{"type":"Feature","geometry":{"type":"Polygon","coordinates":[[[-2.79,58.95],[-3.08,59.12],[-3.19,58.91],[-2.79,58.95]]]},"properties":{"NAME":null,"ABBREVN":null,"SUBJECTO":null,"BORDERPRECISION":1,"PARTOF":null}},
{"type":"Feature","geometry":{"type":"Polygon","coordinates":[[[-2.68,59.2],[-2.62,59.24],[-2.5,59.24],[-2.41,59.31],[-2.59,59.29],[-2.68,59.2]]]},"properties":{"NAME":null,"ABBREVN":null,"SUBJECTO":null,"BORDERPRECISION":1,"PARTOF":null}},
{"type":"Feature","geometry":{"type":"Polygon","coordinates":[[[-2.89,59.3],[-3.05,59.33],[-3,59.26],[-2.97,59.29],[-2.89,59.3]]]},"properties":{"NAME":null,"ABBREVN":null,"SUBJECTO":null,"BORDERPRECISION":1,"PARTOF":null}},
{"type":"Feature","geometry":{"type":"Polygon","coordinates":[[[-1.3,60.49],[-1.32,60.36],[-1.65,60.23],[-1.13,60.15],[-1.04,60.45],[-1.3,60.49]]]},"properties":{"NAME":null,"ABBREVN":null,"SUBJECTO":null,"BORDERPRECISION":1,"PARTOF":null}},
{"type":"Feature","geometry":{"type":"Polygon","coordinates":[[[-1.03,60.5],[-0.99,60.72],[-1.18,60.64],[-1.03,60.5]]]},"properties":{"NAME":null,"ABBREVN":null,"SUBJECTO":null,"BORDERPRECISION":1,"PARTOF":null}},
{"type":"Feature","geometry":{"type":"Polygon","coordinates":[[[-0.82,60.69],[-0.77,60.83],[-0.94,60.79],[-0.97,60.69],[-0.82,60.69]]]},"properties":{"NAME":null,"ABBREVN":null,"SUBJECTO":null,"BORDERPRECISION":1,"PARTOF":null}},
{"type":"Feature","geometry":{"type":"Polygon","coordinates":[[[-6.71,61.94],[-6.72,62.03],[-7.19,62.31],[-7.23,62.17],[-6.71,61.94]]]},"properties":{"NAME":null,"ABBREVN":null,"SUBJECTO":null,"BORDERPRECISION":1,"PARTOF":null}},
{"type":"Feature","geometry":{"type":"Polygon","coordinates":[[[-4.78,54.06],[-4.39,54.19],[-4.53,54.37],[-4.78,54.06]]]},"properties":{"NAME":null,"ABBREVN":null,"SUBJECTO":null,"BORDERPRECISION":1,"PARTOF":null}},
{"type":"Feature","geometry":{"type":"Polygon","coordinates":[[[18.21,56.91],[18.71,57.24],[18.81,57.7],[18.11,57.52],[18.21,56.91]]]},"properties":{"NAME":null,"ABBREVN":null,"SUBJECTO":null,"BORDERPRECISION":1,"PARTOF":null}},
{"type":"Feature","geometry":{"type":"Polygon","coordinates":[[[129.72,28.45],[129.16,28.23],[129.37,28.12],[129.72,28.45]]]},"properties":{"NAME":null,"ABBREVN":null,"SUBJECTO":null,"BORDERPRECISION":1,"PARTOF":null}},
{"type":"Feature","geometry":{"type":"Polygon","coordinates":[[[129.96,29.96],[129.94,30],[129.92,29.98],[129.96,29.96]]]},"properties":{"NAME":null,"ABBREVN":null,"SUBJECTO":null,"BORDERPRECISION":1,"PARTOF":null}},
{"type":"Feature","geometry":{"type":"Polygon","coordinates":[[[129.9,29.87],[129.88,29.83],[129.92,29.82],[129.9,29.87]]]},"properties":{"NAME":null,"ABBREVN":null,"SUBJECTO":null,"BORDERPRECISION":1,"PARTOF":null}},
{"type":"Feature","geometry":{"type":"Polygon","coordinates":[[[130.91,30.35],[131.07,30.69],[130.95,30.68],[130.91,30.35]]]},"properties":{"NAME":null,"ABBREVN":null,"SUBJECTO":null,"BORDERPRECISION":1,"PARTOF":null}},
{"type":"Feature","geometry":{"type":"Polygon","coordinates":[[[130.56,30.24],[130.67,30.37],[130.51,30.46],[130.39,30.4],[130.56,30.24]]]},"properties":{"NAME":null,"ABBREVN":null,"SUBJECTO":null,"BORDERPRECISION":1,"PARTOF":null}},
{"type":"Feature","geometry":{"type":"Polygon","coordinates":[[[121.73,25.14],[120.12,23.63],[120.88,22.34],[121.73,25.14]]]},"properties":{"NAME":null,"ABBREVN":null,"SUBJECTO":null,"BORDERPRECISION":1,"PARTOF":null}},
{"type":"Feature","geometry":{"type":"Polygon","coordinates":[[[128.9,32.64],[128.65,32.78],[128.61,32.61],[128.9,32.64]]]},"properties":{"NAME":null,"ABBREVN":null,"SUBJECTO":null,"BORDERPRECISION":1,"PARTOF":null}},
{"type":"Feature","geometry":{"type":"Polygon","coordinates":[[[126.48,36.92],[126.37,34.79],[129.44,35.48],[129.34,37.26],[128.26,38.41],[126.66,37.25],[126.5,36.87],[126.48,36.92]]]},"properties":{"NAME":null,"ABBREVN":null,"SUBJECTO":null,"BORDERPRECISION":1,"PARTOF":null}},
{"type":"Feature","geometry":{"type":"Polygon","coordinates":[[[123.87,24.25],[123.92,24.37],[123.77,24.41],[123.68,24.32],[123.87,24.25]]]},"properties":{"NAME":null,"ABBREVN":null,"SUBJECTO":null,"BORDERPRECISION":1,"PARTOF":null}},
{"type":"Feature","geometry":{"type":"Polygon","coordinates":[[[125.36,24.78],[125.26,24.88],[125.25,24.74],[125.36,24.78]]]},"properties":{"NAME":null,"ABBREVN":null,"SUBJECTO":null,"BORDERPRECISION":1,"PARTOF":null}},
{"type":"Feature","geometry":{"type":"Polygon","coordinates":[[[124.26,24.46],[124.08,24.42],[124.12,24.34],[124.23,24.34],[124.26,24.46]]]},"properties":{"NAME":null,"ABBREVN":null,"SUBJECTO":null,"BORDERPRECISION":1,"PARTOF":null}},
{"type":"Feature","geometry":{"type":"Polygon","coordinates":[[[128.25,26.64],[128.25,26.84],[127.96,26.54],[128.25,26.64]]]},"properties":{"NAME":null,"ABBREVN":null,"SUBJECTO":null,"BORDERPRECISION":1,"PARTOF":null}},
{"type":"Feature","geometry":{"type":"Polygon","coordinates":[[[126.76,26.39],[126.7,26.35],[126.78,26.3],[126.81,26.35],[126.76,26.39]]]},"properties":{"NAME":null,"ABBREVN":null,"SUBJECTO":null,"BORDERPRECISION":1,"PARTOF":null}},
{"type":"Feature","geometry":{"type":"Polygon","coordinates":[[[128.95,27.68],[129.03,27.77],[128.9,27.9],[128.9,27.73],[128.95,27.68]]]},"properties":{"NAME":null,"ABBREVN":null,"SUBJECTO":null,"BORDERPRECISION":1,"PARTOF":null}},
{"type":"Feature","geometry":{"type":"Polygon","coordinates":[[[128.61,27.36],[128.7,27.45],[128.52,27.41],[128.61,27.36]]]},"properties":{"NAME":null,"ABBREVN":null,"SUBJECTO":null,"BORDERPRECISION":1,"PARTOF":null}},
{"type":"Feature","geometry":{"type":"Polygon","coordinates":[[[129.99,28.28],[130.03,28.35],[129.94,28.32],[129.99,28.28]]]},"properties":{"NAME":null,"ABBREVN":null,"SUBJECTO":null,"BORDERPRECISION":1,"PARTOF":null}},
{"type":"Feature","geometry":{"type":"Polygon","coordinates":[[[129.34,28.08],[129.34,28.11],[129.22,28.18],[129.22,28.1],[129.34,28.08]]]},"properties":{"NAME":null,"ABBREVN":null,"SUBJECTO":null,"BORDERPRECISION":1,"PARTOF":null}},
{"type":"Feature","geometry":{"type":"Polygon","coordinates":[[[129.73,29.61],[129.75,29.65],[129.71,29.65],[129.73,29.61]]]},"properties":{"NAME":null,"ABBREVN":null,"SUBJECTO":null,"BORDERPRECISION":1,"PARTOF":null}},
{"type":"Feature","geometry":{"type":"Polygon","coordinates":[[[18.97,52.74],[19.4,54.28],[18.35,54.83],[15.09,54],[15.47,53.8],[18.97,52.74]]]},"properties":{"NAME":"Pomeranian culture ","ABBREVN":"Pomeranian culture ","SUBJECTO":"Pomeranian culture ","BORDERPRECISION":1,"PARTOF":"Baltic archeological cultures"}},
{"type":"Feature","geometry":{"type":"Polygon","coordinates":[[[21.16,54.9],[19.82,54.46],[19.91,54.39],[21.48,54.44],[21.16,54.9]]]},"properties":{"NAME":"Sambian-Nothangian culture","ABBREVN":"Sambian-Nothangian culture","SUBJECTO":"Sambian-Nothangian culture","BORDERPRECISION":1,"PARTOF":"Baltic archeological cultures"}},
{"type":"Feature","geometry":{"type":"Polygon","coordinates":[[[15.47,53.8],[16.45,51.27],[18.41,49.55],[21.14,49.76],[24.49,51.38],[20.99,52.62],[18.97,52.74],[15.47,53.8]]]},"properties":{"NAME":"Bell-shaped burials culture","ABBREVN":"Bell-shaped burials culture","SUBJECTO":"Bell-shaped burials culture","BORDERPRECISION":1,"PARTOF":"Baltic archeological cultures"}},
{"type":"Feature","geometry":{"type":"Polygon","coordinates":[[[18.97,52.74],[20.99,52.62],[21.48,54.44],[19.91,54.39],[19.82,54.46],[19.4,54.28],[18.97,52.74]]]},"properties":{"NAME":"Western Masurian culture","ABBREVN":"Western Masurian culture","SUBJECTO":"Western Masurian culture","BORDERPRECISION":1,"PARTOF":"Baltic archeological cultures"}},
{"type":"Feature","geometry":{"type":"Polygon","coordinates":[[[21.48,54.44],[20.99,52.62],[24.49,51.38],[24.78,51.53],[25.06,51.98],[23.92,54.88],[21.98,54.99],[21.17,54.92],[21.16,54.9],[21.48,54.44]]]},"properties":{"NAME":"Eastern Masurian culture","ABBREVN":"Eastern Masurian culture","SUBJECTO":"Eastern Masurian culture","BORDERPRECISION":1,"PARTOF":"Baltic archeological cultures"}},
{"type":"Feature","geometry":{"type":"Polygon","coordinates":[[[21.98,54.99],[22.82,56.14],[21.86,57.6],[21.17,54.92],[21.98,54.99]]]},"properties":{"NAME":"Curonians","ABBREVN":"Curonians","SUBJECTO":"Curonians","BORDERPRECISION":1,"PARTOF":"Baltic archeological cultures"}},
{"type":"Feature","geometry":{"type":"Polygon","coordinates":[[[25.06,51.98],[27.78,52.31],[29.71,53.3],[29.7,55.66],[24.31,57.1],[21.86,57.6],[22.82,56.14],[21.98,54.99],[23.92,54.88],[25.06,51.98]]]},"properties":{"NAME":"Brushed Pottery culture","ABBREVN":"Brushed Pottery culture","SUBJECTO":"Brushed Pottery culture","BORDERPRECISION":1,"PARTOF":"Baltic archeological cultures"}},
{"type":"Feature","geometry":{"type":"Polygon","coordinates":[[[24.78,51.53],[30.59,50.16],[31.56,50.9],[31.8,52.88],[29.71,53.3],[27.78,52.31],[25.06,51.98],[24.78,51.53]]]},"properties":{"NAME":"Milograd culture","ABBREVN":"Milograd culture","SUBJECTO":"Milograd culture","BORDERPRECISION":1,"PARTOF":"Baltic archeological cultures"}},
{"type":"Feature","geometry":{"type":"Polygon","coordinates":[[[29.71,53.3],[31.8,52.88],[31.56,50.9],[34.91,51.48],[38.31,53.65],[36.96,54.29],[38.46,55.93],[33.73,56.73],[29.7,55.66],[29.71,53.3]]]},"properties":{"NAME":"Plain-Pottery culture","ABBREVN":"Plain-Pottery culture","SUBJECTO":"Plain-Pottery culture","BORDERPRECISION":1,"PARTOF":"Baltic archeological cultures"}},
{"type":"Feature","geometry":{"type":"Polygon","coordinates":[[[91.63,75.65],[90,75.6],[89.8,75.52],[91.63,75.65]]]},"properties":{"NAME":null,"ABBREVN":null,"SUBJECTO":null,"BORDERPRECISION":1,"PARTOF":null}},
{"type":"Feature","geometry":{"type":"Polygon","coordinates":[[[11.53,61.9],[9.83,63.68],[5.15,61.74],[5.62,58.46],[8.15,58.09],[10.55,59.38],[13.3,55.3],[15.77,56.03],[16.74,58.31],[19.04,59.86],[17.15,60.95],[17.94,62.55],[15.43,61.87],[11.53,61.9]]]},"properties":{"NAME":null,"ABBREVN":null,"SUBJECTO":null,"BORDERPRECISION":1,"PARTOF":null}},
{"type":"Feature","geometry":{"type":"Polygon","coordinates":[[[-73.95,-9.04],[-77.43,-8.86],[-77.16,-10.56],[-76.04,-11.38],[-74.12,-10.46],[-73.95,-9.04]]]},"properties":{"NAME":"Chavin","ABBREVN":"Chavin","SUBJECTO":"Chavin","BORDERPRECISION":1,"PARTOF":"Chavin"}},
{"type":"Feature","geometry":{"type":"Polygon","coordinates":[[[49.67,40.24],[46.85,44.45],[49.76,46.54],[46.87,50.34],[35.18,49.29],[28.85,47.15],[27.58,43.79],[28.17,43.45],[30.83,46.58],[33.64,45.93],[33.56,44.94],[35.03,45.53],[35.21,46.64],[37.77,48.64],[40.32,48.24],[39.25,45.96],[37.77,44.74],[41.41,42.79],[41.68,41.79],[47.01,41.39],[49.67,40.24]]]},"properties":{"NAME":"Sarmates","ABBREVN":"Sarmates","SUBJECTO":"Sarmates","BORDERPRECISION":1,"PARTOF":"Scythians"}},
{"type":"Feature","geometry":{"type":"Polygon","coordinates":[[[26.74,41.36],[26.81,41.35],[26.8,41.34],[27.93,40.96],[28.17,43.45],[27.58,43.79],[26.57,47.13],[21.71,46.25],[21.9,43.32],[22.95,41.91],[23.04,41.8],[26.25,41.46],[26.74,41.36]]]},"properties":{"NAME":"Daces","ABBREVN":"Daces","SUBJECTO":"Daces","BORDERPRECISION":1,"PARTOF":"Daces"}},
{"type":"Feature","geometry":{"type":"Polygon","coordinates":[[[126.5,36.87],[126.51,36.91],[126.48,36.92],[126.5,36.87]]]},"properties":{"NAME":null,"ABBREVN":null,"SUBJECTO":null,"BORDERPRECISION":1,"PARTOF":null}},
{"type":"Feature","geometry":{"type":"Polygon","coordinates":[[[26.8,41.34],[26.81,41.35],[26.74,41.36],[26.8,41.34]]]},"properties":{"NAME":null,"ABBREVN":null,"SUBJECTO":null,"BORDERPRECISION":1,"PARTOF":null}},
{"type":"Feature","geometry":{"type":"Polygon","coordinates":[[[61.16,37.7],[66.15,39.69],[65.21,42.85],[68.56,46.36],[54.54,51.03],[46.87,50.34],[49.76,46.54],[53.19,46.87],[52.61,45.4],[50.87,44.63],[52.52,42.07],[54.82,40.88],[52.85,40.18],[54.07,38.9],[53.99,37.52],[58.21,39],[61.16,37.7]],[[61.31,46.68],[60.94,44.44],[58.37,43.74],[58.82,45.93],[61.31,46.68]]]},"properties":{"NAME":"Scythians","ABBREVN":"Scythians","SUBJECTO":"Scythians","BORDERPRECISION":1,"PARTOF":"Scythians"}},
{"type":"Feature","geometry":{"type":"Polygon","coordinates":[[[66.15,39.69],[72.28,40.99],[73.58,40.03],[77.35,40.03],[80.22,41.41],[77.51,44.64],[74.15,45.24],[73.79,45.31],[68.56,46.36],[65.21,42.85],[66.15,39.69]]]},"properties":{"NAME":"Saces","ABBREVN":"Saces","SUBJECTO":"Saces","BORDERPRECISION":1,"PARTOF":"Scythians"}},
{"type":"Feature","geometry":{"type":"Polygon","coordinates":[[[100.71,51.09],[100.73,51.14],[100.3,51.11],[100.29,51.09],[100.25,50.74],[100.68,51.02],[100.71,51.09]]]},"properties":{"NAME":"Hövsgöl Nuur","ABBREVN":"Hövsgöl Nuur","SUBJECTO":"Hövsgöl Nuur","BORDERPRECISION":1,"PARTOF":"Hövsgöl Nuur"}},
{"type":"Feature","geometry":{"type":"Polygon","coordinates":[[[91.57,22.54],[93.11,20.59],[94.05,19.06],[95.33,15.68],[97.57,16.45],[98.74,11.44],[98.18,8.6],[100.14,6.18],[101.34,2.78],[103.43,1.38],[103.34,4.81],[101.56,6.74],[100.61,6.98],[99.07,9.9],[99.9,12.08],[100.87,12.68],[102.66,12.07],[103.04,10.9],[106.48,9.55],[109.07,11.64],[109.31,12.91],[108.24,16.08],[106.43,17.55],[105.84,19.7],[104.74,20.54],[104.95,22.05],[106.87,22.67],[111.26,22.84],[110.85,24.87],[108.17,27.54],[105.08,28.02],[102.13,28.02],[101.65,29.53],[104.74,36.6],[106.04,37.56],[94.98,41.22],[85.41,48.36],[95.82,51.18],[100.29,51.09],[100.3,51.11],[100.73,51.14],[100.71,51.09],[107.07,50.97],[124.2,50.33],[131.08,46.2],[125.88,41.48],[123.75,41.68],[124.1,39.88],[124.74,38.28],[126.36,37.72],[126.41,37.59],[126.66,37.25],[128.26,38.41],[127.67,39.87],[132.18,43.19],[134.14,42.99],[137.72,46],[140.08,48.5],[141.05,52.69],[134.87,52.01],[127.34,49.98],[119.94,51.26],[116.71,54.66],[114.02,59.55],[107.96,59.82],[99.49,55.66],[93.7,56.48],[78.36,56.41],[65.31,55.05],[59.09,56.43],[53.98,57.71],[46.11,57.71],[32.52,60.93],[29.02,61.77],[21.2,62.44],[21.56,60.51],[23.66,59.84],[24.31,57.1],[29.7,55.66],[33.73,56.73],[38.46,55.93],[36.96,54.29],[38.31,53.65],[34.91,51.48],[31.56,50.9],[30.59,50.16],[24.78,51.53],[24.49,51.38],[21.14,49.76],[18.41,49.55],[16.45,51.27],[15.47,53.8],[15.09,54],[14.47,53.88],[8.85,53.75],[4.64,52.76],[0.03,49.33],[-1.89,49.53],[-3.95,47.9],[-1.08,46.01],[-1.56,43.52],[-7.64,43.72],[-9.27,43.05],[-8.83,41.87],[-1.73,41.81],[2.12,42.4],[4.69,44.05],[7.07,43.54],[7.3,43.67],[7.35,46.5],[13.78,46.77],[13.67,45.71],[15.41,43.93],[19.61,41.76],[22.95,41.91],[21.9,43.32],[21.71,46.25],[26.57,47.13],[27.58,43.79],[28.85,47.15],[35.18,49.29],[46.87,50.34],[54.54,51.03],[68.56,46.36],[73.79,45.31],[74.15,45.24],[77.51,44.64],[80.22,41.41],[77.35,40.03],[75.6,37.54],[80.53,36.17],[84.4,35.39],[83.24,27.39],[86.18,26.41],[89.76,25.98],[93.07,26.85],[93.42,25.02],[91.57,22.54]]]},"properties":{"NAME":null,"ABBREVN":null,"SUBJECTO":null,"BORDERPRECISION":1,"PARTOF":null}},
{"type":"Feature","geometry":{"type":"Polygon","coordinates":[[[83.24,27.39],[84.4,35.39],[80.53,36.17],[75.6,37.54],[74.23,34.18],[76.6,31.04],[80.66,28.45],[83.24,27.39]]]},"properties":{"NAME":"Zhangzhung Kingdom","ABBREVN":"Zhangzhung Kingdom","SUBJECTO":"Zhangzhung Kingdom","BORDERPRECISION":1,"PARTOF":"Zhangzhung Kingdom"}},
{"type":"Feature","geometry":{"type":"Polygon","coordinates":[[[91.57,22.54],[92.18,20.89],[93.11,20.59],[91.57,22.54]]]},"properties":{"NAME":"Arakan","ABBREVN":null,"SUBJECTO":"Arakan","BORDERPRECISION":1,"PARTOF":"Arakan"}},
{"type":"Feature","geometry":{"type":"Polygon","coordinates":[[[60.62,31.32],[60.34,27.89],[58.42,27.75],[58.74,25.54],[61.34,25.03],[66.62,25.32],[68.79,23.03],[69.13,21.97],[71.02,20.66],[72.68,22.03],[79.83,26.69],[80.66,28.45],[76.6,31.04],[74.23,34.18],[75.6,37.54],[77.35,40.03],[73.58,40.03],[72.28,40.99],[66.15,39.69],[61.16,37.7],[60.34,35.98],[61.3,32.83],[60.62,31.32]]]},"properties":{"NAME":"Kushan Empire","ABBREVN":"Kushan","SUBJECTO":"Kushan Empire","BORDERPRECISION":1,"PARTOF":"Kushan Empire"}}
]}