{"type":"FeatureCollection", "features": [
{"type":"Feature","geometry":{"type":"Polygon","coordinates":[[[-2.8,51.56],[0.63,50.91],[1.69,52.31],[-2.74,55.96],[-2.15,57.57],[-5.76,57.62],[-5.63,55.94],[-3.58,54.92],[-2.8,51.56]]]},"properties":{"NAME":null,"ABBREVN":null,"type":null,"weblinks":null,"SUBJECTO":null,"BORDERPRECISION":1,"PARTOF":null}},
{"type":"Feature","geometry":{"type":"Polygon","coordinates":[[[5.93,45.12],[13.11,46.5],[11.93,47.39],[6.3,45.72],[5.93,45.12]]]},"properties":{"NAME":null,"ABBREVN":null,"type":null,"weblinks":null,"SUBJECTO":null,"BORDERPRECISION":1,"PARTOF":null}},
{"type":"Feature","geometry":{"type":"Polygon","coordinates":[[[-73.67,-16.2],[-71.61,-17.22],[-70.21,-19.07],[-70.4,-25.25],[-71.43,-29.1],[-71.62,-33.71],[-73.67,-37.5],[-73.19,-39.57],[-73.91,-40.84],[-72.44,-42.3],[-74.31,-48.75],[-73.41,-52.02],[-71.87,-53.7],[-69.48,-52.36],[-69.04,-50.56],[-65.78,-47.23],[-67.33,-46.53],[-65.44,-44.89],[-64.94,-40.83],[-62.96,-41.14],[-61.36,-39.03],[-57.81,-38.39],[-56.34,-35],[-54.07,-34.65],[-52.04,-31.56],[-48.94,-28.7],[-48.72,-25.43],[-44.56,-22.99],[-41.96,-22.92],[-39.69,-19.41],[-38.95,-16],[-39.13,-14.32],[-37.19,-10.84],[-35.6,-9.63],[-34.89,-7.61],[-35.46,-5.27],[-37.18,-4.95],[-40.23,-2.85],[-44.22,-2.78],[-44.8,-1.74],[-47.24,-0.68],[-49.22,-2.11],[-50.64,-1.88],[-51.53,-0.43],[-49.88,1.21],[-51.21,4.07],[-54.29,5.88],[-56.75,6],[-58.58,6.98],[-61.53,9.85],[-64.07,10.63],[-64.88,10.14],[-67.98,10.54],[-69.75,11.53],[-71.69,10.77],[-72.38,11.81],[-75.45,10.63],[-76.76,8.69],[-79.5,9.64],[-82.23,9.05],[-83.91,11.25],[-83.31,14.77],[-84.65,15.93],[-88.66,15.73],[-87.2,21.53],[-90.28,21.14],[-91.7,18.82],[-94.24,18.24],[-96.01,18.93],[-97.5,21.19],[-97.82,24.21],[-97.63,27.23],[-94.14,29.69],[-90.78,29.11],[-89.23,30.41],[-83.89,30.05],[-81.1,25.13],[-80.05,26.55],[-81.51,30.73],[-80.58,32.5],[-76.62,34.76],[-75.67,37.9],[-73.74,40.98],[-70.3,41.76],[-70.22,43.8],[-67.17,44.71],[-65.71,43.56],[-61.03,45.38],[-64.53,46.27],[-64.95,49.21],[-66.37,50.31],[-60.14,50.41],[-55.66,52.19],[-55.88,53.35],[-61.93,56.27],[-62.89,58.66],[-69.21,58.75],[-70.03,60.88],[-73.39,62.35],[-77.36,62.52],[-78.34,58.55],[-76.44,56.81],[-79.55,54.69],[-78.49,52.26],[-79.59,51.27],[-82.34,52.98],[-82.2,54.97],[-87.47,55.91],[-90.44,57.14],[-92.48,56.98],[-94.75,59.95],[-93.42,61.86],[-87.44,64.57],[-85.99,66.16],[-81.29,67.5],[-84.31,69.83],[-86.49,67.38],[-89.74,68.53],[-93.27,71.56],[-96.7,70.84],[-92.96,69.08],[-96.21,68.07],[-101.91,67.71],[-105.64,68.35],[-112.5,67.69],[-115.29,68.89],[-127.35,70.38],[-131.67,69.28],[-137.73,69.02],[-156.9,71.35],[-164.07,69.06],[-163.74,67.22],[-168.18,65.69],[-166.59,64.73],[-161.13,63.56],[-165.43,62.43],[-165.9,61.27],[-162,58.83],[-158.29,58.73],[-149.33,60.03],[-148.49,61.06],[-144.41,60.09],[-139.57,59.9],[-137.58,58.6],[-134.12,58.24],[-130,53.94],[-127.25,50.97],[-124.94,50.6],[-124.79,50.04],[-122.61,48.83],[-122.83,48.02],[-124.68,48.39],[-123.99,45.76],[-124.63,43.01],[-123.8,39.03],[-120.53,34.51],[-117.5,33.33],[-115.6,29.69],[-113.05,31.14],[-111.69,28.5],[-109.13,26.29],[-105.54,22.28],[-104.95,19.44],[-103.49,18.35],[-97.88,16.05],[-94.08,16.11],[-91.52,14.06],[-87.95,13.17],[-86.01,11.37],[-85.78,10.14],[-81.66,8.16],[-80.81,7.27],[-79.07,9.03],[-77.4,6.67],[-77.11,3.79],[-78.98,1.3],[-80.09,0.82],[-80.97,-1.03],[-80.14,-3.41],[-81.42,-4.68],[-79.06,-8.22],[-75.23,-15.22],[-73.67,-16.2]],[[-83.9,46.13],[-80.81,45.95],[-81.81,43.32],[-83.39,44.31],[-83.9,46.13]],[[-89.11,48.45],[-85.03,47.94],[-84.44,46.82],[-90.28,46.62],[-89.11,48.45]]]},"properties":{"NAME":null,"ABBREVN":null,"type":null,"weblinks":null,"SUBJECTO":null,"BORDERPRECISION":1,"PARTOF":null}},
{"type":"Feature","geometry":{"type":"Polygon","coordinates":[[[-11.72,28.17],[-14.37,26.12],[-17.05,21],[-15.98,18.18],[-17.05,14.59],[-16.77,12.6],[-13.68,9.92],[-12.26,7.35],[-7.53,4.34],[-5,5.24],[-2.03,4.7],[1.56,6.24],[3.95,6.58],[5.61,4.63],[8.87,4.62],[9.92,2.82],[9.2,-0.63],[9.66,-2.42],[11.77,-4.54],[13.39,-8.16],[13.65,-12.2],[12.59,-13.46],[11.77,-17.6],[14.42,-22.27],[15.45,-27.62],[17,-29.63],[23.07,-26.18],[24.68,-22.69],[25.54,-14.36],[28.89,-8.05],[31.36,-1.63],[31.49,5.05],[27.15,12.03],[21.33,16.23],[15.01,17.42],[10.43,19.06],[0.15,22.19],[-11.12,25.03],[-11.72,28.17]]]},"properties":{"NAME":null,"ABBREVN":null,"type":null,"weblinks":null,"SUBJECTO":null,"BORDERPRECISION":1,"PARTOF":null}},
{"type":"Feature","geometry":{"type":"Polygon","coordinates":[[[-24.22,65.53],[-22.37,63.77],[-18.64,63.32],[-14.82,64.2],[-16.92,65.98],[-24.22,65.53]]]},"properties":{"NAME":null,"ABBREVN":null,"type":null,"weblinks":null,"SUBJECTO":null,"BORDERPRECISION":1,"PARTOF":null}},
{"type":"Feature","geometry":{"type":"Polygon","coordinates":[[[25.74,36.39],[25.77,36.34],[25.87,36.36],[25.79,36.4],[25.74,36.39]]]},"properties":{"NAME":null,"ABBREVN":null,"type":null,"weblinks":null,"SUBJECTO":null,"BORDERPRECISION":1,"PARTOF":null}},
{"type":"Feature","geometry":{"type":"Polygon","coordinates":[[[-26.79,71.56],[-20.33,73.42],[-18.25,77.3],[-20.88,78.82],[-14.2,81.21],[-32.51,83.58],[-67.14,80.56],[-65.48,79.16],[-72.38,78.53],[-67.04,75.94],[-58.64,75.79],[-51.72,71.59],[-50.48,67.48],[-52.3,66.91],[-51.37,63.73],[-48.92,61.42],[-43.14,59.82],[-39.99,65.53],[-35.97,65.85],[-32.96,67.64],[-26.96,68.5],[-22.73,69.77],[-26.79,71.56]]]},"properties":{"NAME":null,"ABBREVN":null,"type":null,"weblinks":null,"SUBJECTO":null,"BORDERPRECISION":1,"PARTOF":null}},
{"type":"Feature","geometry":{"type":"Polygon","coordinates":[[[169.77,-83.42],[159.32,-80.03],[163.64,-78.66],[162.35,-75.11],[170.73,-71.9],[167.63,-70.87],[160.6,-70.22],[157.31,-69.16],[151.09,-68.89],[145.59,-67.22],[134.21,-66.18],[129.01,-67.03],[122.46,-66.65],[118.29,-67.07],[113.01,-65.76],[109.4,-66.71],[102.63,-65.93],[99.65,-66.55],[90.85,-66.61],[81.81,-67.3],[67.36,-71.71],[69.37,-67.84],[56.63,-66.94],[52.45,-65.99],[47.31,-67.77],[39.65,-68.93],[38.33,-70.03],[32.75,-69.35],[23.71,-70.59],[17.6,-70.08],[8.49,-70.08],[0.68,-71.32],[-7.2,-70.89],[-11.14,-71.59],[-16.4,-73.44],[-18.4,-75.69],[-23.58,-75.92],[-33.16,-77.39],[-38.03,-80.94],[-60.21,-82.33],[-74.89,-80.71],[-74.5,-78.08],[-64.46,-75.69],[-60.83,-72.75],[-61.68,-70.82],[-65.38,-67.34],[-68.78,-69.81],[-67.63,-72.75],[-81.77,-74.02],[-88.57,-73.25],[-99.79,-73],[-105.64,-75.07],[-113.24,-74.32],[-134.77,-74.64],[-146.67,-76.11],[-158.19,-77.81],[-145.67,-80.52],[-152.08,-82.6],[-148.76,-85.07],[-180,-84.32],[-180,-85.32],[-180,-86.32],[-180,-87.32],[-180,-88.32],[-180,-89.32],[-180,-90],[-179.2,-90],[-178.2,-90],[-177.2,-90],[-176.2,-90],[-175.2,-90],[-174.2,-90],[-173.2,-90],[-172.2,-90],[-171.2,-90],[-170.2,-90],[-169.2,-90],[-168.2,-90],[-167.2,-90],[-166.2,-90],[-165.2,-90],[-164.2,-90],[-163.2,-90],[-162.2,-90],[-161.2,-90],[-160.2,-90],[-159.2,-90],[-158.2,-90],[-157.2,-90],[-156.2,-90],[-155.2,-90],[-154.2,-90],[-153.2,-90],[-152.2,-90],[-151.2,-90],[-150.2,-90],[-149.2,-90],[-148.2,-90],[-147.2,-90],[-146.2,-90],[-145.2,-90],[-144.2,-90],[-143.2,-90],[-142.2,-90],[-141.2,-90],[-140.2,-90],[-139.2,-90],[-138.2,-90],[-137.2,-90],[-136.2,-90],[-135.2,-90],[-134.2,-90],[-133.2,-90],[-132.2,-90],[-131.2,-90],[-130.2,-90],[-129.2,-90],[-128.2,-90],[-127.2,-90],[-126.2,-90],[-125.2,-90],[-124.2,-90],[-123.2,-90],[-122.2,-90],[-121.2,-90],[-120.2,-90],[-119.2,-90],[-118.2,-90],[-117.2,-90],[-116.2,-90],[-115.2,-90],[-114.2,-90],[-113.2,-90],[-112.2,-90],[-111.2,-90],[-110.2,-90],[-109.2,-90],[-108.2,-90],[-107.2,-90],[-106.2,-90],[-105.2,-90],[-104.2,-90],[-103.2,-90],[-102.2,-90],[-101.2,-90],[-100.2,-90],[-99.2,-90],[-98.2,-90],[-97.2,-90],[-96.2,-90],[-95.2,-90],[-94.2,-90],[-93.2,-90],[-92.2,-90],[-91.2,-90],[-90.2,-90],[-89.2,-90],[-88.2,-90],[-87.2,-90],[-86.2,-90],[-85.2,-90],[-84.2,-90],[-83.2,-90],[-82.2,-90],[-81.2,-90],[-80.2,-90],[-79.2,-90],[-78.2,-90],[-77.2,-90],[-76.2,-90],[-75.2,-90],[-74.2,-90],[-73.2,-90],[-72.2,-90],[-71.2,-90],[-70.2,-90],[-69.2,-90],[-68.2,-90],[-67.2,-90],[-66.2,-90],[-65.2,-90],[-64.2,-90],[-63.2,-90],[-62.2,-90],[-61.2,-90],[-60.2,-90],[-59.2,-90],[-58.2,-90],[-57.2,-90],[-56.2,-90],[-55.2,-90],[-54.2,-90],[-53.2,-90],[-52.2,-90],[-51.2,-90],[-50.2,-90],[-49.2,-90],[-48.2,-90],[-47.2,-90],[-46.2,-90],[-45.2,-90],[-44.2,-90],[-43.2,-90],[-42.2,-90],[-41.2,-90],[-40.2,-90],[-39.2,-90],[-38.2,-90],[-37.2,-90],[-36.2,-90],[-35.2,-90],[-34.2,-90],[-33.2,-90],[-32.2,-90],[-31.2,-90],[-30.2,-90],[-29.2,-90],[-28.2,-90],[-27.2,-90],[-26.2,-90],[-25.2,-90],[-24.2,-90],[-23.2,-90],[-22.2,-90],[-21.2,-90],[-20.2,-90],[-19.2,-90],[-18.2,-90],[-17.2,-90],[-16.2,-90],[-15.2,-90],[-14.2,-90],[-13.2,-90],[-12.2,-90],[-11.2,-90],[-10.2,-90],[-9.2,-90],[-8.2,-90],[-7.2,-90],[-6.2,-90],[-5.2,-90],[-4.2,-90],[-3.2,-90],[-2.2,-90],[-1.2,-90],[-0.2,-90],[0.78,-90],[1.78,-90],[2.78,-90],[3.78,-90],[4.78,-90],[5.78,-90],[6.78,-90],[7.78,-90],[8.78,-90],[9.78,-90],[10.78,-90],[11.78,-90],[12.78,-90],[13.78,-90],[14.78,-90],[15.78,-90],[16.78,-90],[17.78,-90],[18.78,-90],[19.78,-90],[20.78,-90],[21.78,-90],[22.78,-90],[23.78,-90],[24.78,-90],[25.78,-90],[26.78,-90],[27.78,-90],[28.78,-90],[29.78,-90],[30.78,-90],[31.78,-90],[32.78,-90],[33.78,-90],[34.78,-90],[35.78,-90],[36.78,-90],[37.78,-90],[38.78,-90],[39.78,-90],[40.78,-90],[41.78,-90],[42.78,-90],[43.78,-90],[44.78,-90],[45.78,-90],[46.78,-90],[47.78,-90],[48.78,-90],[49.78,-90],[50.78,-90],[51.78,-90],[52.78,-90],[53.78,-90],[54.78,-90],[55.78,-90],[56.78,-90],[57.78,-90],[58.78,-90],[59.78,-90],[60.78,-90],[61.78,-90],[62.78,-90],[63.78,-90],[64.78,-90],[65.78,-90],[66.78,-90],[67.78,-90],[68.78,-90],[69.78,-90],[70.78,-90],[71.78,-90],[72.78,-90],[73.78,-90],[74.78,-90],[75.78,-90],[76.78,-90],[77.78,-90],[78.78,-90],[79.78,-90],[80.78,-90],[81.78,-90],[82.78,-90],[83.78,-90],[84.78,-90],[85.78,-90],[86.78,-90],[87.78,-90],[88.78,-90],[89.78,-90],[89.8,-90],[90.78,-90],[91.78,-90],[92.78,-90],[93.78,-90],[94.78,-90],[95.78,-90],[96.78,-90],[97.78,-90],[98.78,-90],[99.78,-90],[100.78,-90],[101.78,-90],[102.78,-90],[103.78,-90],[104.78,-90],[105.78,-90],[106.78,-90],[107.78,-90],[108.78,-90],[109.78,-90],[110.78,-90],[111.78,-90],[112.78,-90],[113.78,-90],[114.78,-90],[115.78,-90],[116.78,-90],[117.78,-90],[118.78,-90],[119.78,-90],[120.78,-90],[121.78,-90],[122.78,-90],[123.78,-90],[124.78,-90],[125.78,-90],[126.78,-90],[127.78,-90],[128.78,-90],[129.78,-90],[130.78,-90],[131.78,-90],[132.78,-90],[133.78,-90],[134.78,-90],[135.78,-90],[136.78,-90],[137.78,-90],[138.78,-90],[139.78,-90],[140.78,-90],[141.78,-90],[142.78,-90],[143.78,-90],[144.78,-90],[145.78,-90],[146.78,-90],[147.78,-90],[148.78,-90],[149.78,-90],[150.78,-90],[151.78,-90],[152.78,-90],[153.78,-90],[154.78,-90],[155.78,-90],[156.78,-90],[157.78,-90],[158.78,-90],[159.78,-90],[160.78,-90],[161.78,-90],[162.78,-90],[163.78,-90],[164.78,-90],[165.78,-90],[166.78,-90],[167.78,-90],[168.78,-90],[169.78,-90],[170.78,-90],[171.78,-90],[172.78,-90],[173.78,-90],[174.78,-90],[175.78,-90],[176.78,-90],[177.78,-90],[178.78,-90],[180,-90],[180,-89.32],[180,-88.32],[180,-87.32],[180,-86.32],[180,-85.32],[180,-84.34],[169.77,-83.42]]]},"properties":{"NAME":null,"ABBREVN":null,"type":null,"weblinks":null,"SUBJECTO":null,"BORDERPRECISION":1,"PARTOF":null}},
{"type":"Feature","geometry":{"type":"Polygon","coordinates":[[[33.89,31.06],[33.56,30.97],[32.65,29.85],[34.89,28.36],[39.1,22.4],[39.17,21.22],[41.33,18.6],[43.94,17.89],[45.3,15.93],[50.63,16.59],[55.09,18.71],[56.63,20.17],[56.01,23.22],[54.83,24.79],[52.05,25.63],[49.23,27.3],[45.24,27.86],[37.93,28.51],[33.89,31.06]]]},"properties":{"NAME":null,"ABBREVN":null,"type":null,"weblinks":null,"SUBJECTO":null,"BORDERPRECISION":1,"PARTOF":null}},
{"type":"Feature","geometry":{"type":"Polygon","coordinates":[[[13.25,79.8],[11.76,78.88],[15.1,77.12],[19.12,78.45],[13.25,79.8]]]},"properties":{"NAME":null,"ABBREVN":null,"type":null,"weblinks":null,"SUBJECTO":null,"BORDERPRECISION":1,"PARTOF":null}},
{"type":"Feature","geometry":{"type":"Polygon","coordinates":[[[-58.14,48.6],[-56.08,47.87],[-54.13,48.84],[-57.36,50.6],[-58.14,48.6]]]},"properties":{"NAME":null,"ABBREVN":null,"type":null,"weblinks":null,"SUBJECTO":null,"BORDERPRECISION":1,"PARTOF":null}},
{"type":"Feature","geometry":{"type":"Polygon","coordinates":[[[-68.75,-54.89],[-66.62,-55.07],[-68.31,-52.94],[-70.33,-53.47],[-68.75,-54.89]]]},"properties":{"NAME":null,"ABBREVN":null,"type":null,"weblinks":null,"SUBJECTO":null,"BORDERPRECISION":1,"PARTOF":null}},
{"type":"Feature","geometry":{"type":"Polygon","coordinates":[[[56.96,73.36],[60.89,75.25],[59.02,75.8],[54.02,73.73],[56.96,73.36]]]},"properties":{"NAME":null,"ABBREVN":null,"type":null,"weblinks":null,"SUBJECTO":null,"BORDERPRECISION":1,"PARTOF":null}},
{"type":"Feature","geometry":{"type":"Polygon","coordinates":[[[8.58,3.07],[8.83,3.61],[8.48,3.56],[8.58,3.07]]]},"properties":{"NAME":null,"ABBREVN":null,"type":null,"weblinks":null,"SUBJECTO":null,"BORDERPRECISION":1,"PARTOF":null}},
{"type":"Feature","geometry":{"type":"Polygon","coordinates":[[[25.49,36.42],[25.37,36.5],[25.32,36.4],[25.39,36.32],[25.49,36.42]]]},"properties":{"NAME":null,"ABBREVN":null,"type":null,"weblinks":null,"SUBJECTO":null,"BORDERPRECISION":1,"PARTOF":null}},
{"type":"Feature","geometry":{"type":"Polygon","coordinates":[[[26.09,36.9],[26.02,36.96],[25.86,36.84],[26.09,36.9]]]},"properties":{"NAME":null,"ABBREVN":null,"type":null,"weblinks":null,"SUBJECTO":null,"BORDERPRECISION":1,"PARTOF":null}},
{"type":"Feature","geometry":{"type":"Polygon","coordinates":[[[24.3,36.75],[24.47,36.65],[24.68,36.76],[24.59,36.87],[24.3,36.75]]]},"properties":{"NAME":null,"ABBREVN":null,"type":null,"weblinks":null,"SUBJECTO":null,"BORDERPRECISION":1,"PARTOF":null}},
{"type":"Feature","geometry":{"type":"Polygon","coordinates":[[[24.82,36.64],[24.95,36.57],[24.98,36.64],[24.88,36.68],[24.82,36.64]]]},"properties":{"NAME":null,"ABBREVN":null,"type":null,"weblinks":null,"SUBJECTO":null,"BORDERPRECISION":1,"PARTOF":null}},
{"type":"Feature","geometry":{"type":"Polygon","coordinates":[[[44.67,-16.24],[43.97,-17.55],[44.47,-20.17],[43.5,-21.49],[43.67,-24.23],[45.58,-25.62],[47.26,-24.77],[49.34,-18.23],[50.5,-15.31],[49.82,-12.83],[46.92,-15.36],[44.67,-16.24]]]},"properties":{"NAME":null,"ABBREVN":null,"type":null,"weblinks":null,"SUBJECTO":null,"BORDERPRECISION":1,"PARTOF":null}},
{"type":"Feature","geometry":{"type":"Polygon","coordinates":[[[-7.43,55.06],[-9.89,52.19],[-6.41,52.21],[-7.43,55.06]]]},"properties":{"NAME":null,"ABBREVN":null,"type":null,"weblinks":null,"SUBJECTO":null,"BORDERPRECISION":1,"PARTOF":null}},
{"type":"Feature","geometry":{"type":"Polygon","coordinates":[[[22.87,38.84],[23.12,38.87],[23.64,38.52],[23.79,38.72],[23.24,39.04],[22.87,38.84]]]},"properties":{"NAME":null,"ABBREVN":null,"type":null,"weblinks":null,"SUBJECTO":null,"BORDERPRECISION":1,"PARTOF":null}},
{"type":"Feature","geometry":{"type":"Polygon","coordinates":[[[33.78,35.21],[32.82,35.28],[32.6,34.61],[33.92,34.95],[33.78,35.21]]]},"properties":{"NAME":null,"ABBREVN":null,"type":null,"weblinks":null,"SUBJECTO":null,"BORDERPRECISION":1,"PARTOF":null}},
{"type":"Feature","geometry":{"type":"Polygon","coordinates":[[[25.06,36.62],[25.2,36.67],[25.17,36.74],[25.04,36.66],[25.06,36.62]]]},"properties":{"NAME":null,"ABBREVN":null,"type":null,"weblinks":null,"SUBJECTO":null,"BORDERPRECISION":1,"PARTOF":null}},
{"type":"Feature","geometry":{"type":"Polygon","coordinates":[[[9.43,42.79],[8.61,42.49],[8.73,41.56],[9.45,42.05],[9.43,42.79]]]},"properties":{"NAME":null,"ABBREVN":null,"type":null,"weblinks":null,"SUBJECTO":null,"BORDERPRECISION":1,"PARTOF":null}},
{"type":"Feature","geometry":{"type":"Polygon","coordinates":[[[139.81,35.01],[139.83,34.84],[139.93,34.88],[139.81,35.01]]]},"properties":{"NAME":null,"ABBREVN":null,"type":null,"weblinks":null,"SUBJECTO":null,"BORDERPRECISION":1,"PARTOF":null}},
{"type":"Feature","geometry":{"type":"Polygon","coordinates":[[[25.24,36.75],[25.39,36.64],[25.43,36.7],[25.3,36.81],[25.24,36.75]]]},"properties":{"NAME":null,"ABBREVN":null,"type":null,"weblinks":null,"SUBJECTO":null,"BORDERPRECISION":1,"PARTOF":null}},
{"type":"Feature","geometry":{"type":"Polygon","coordinates":[[[-82.18,22.37],[-77.29,20.7],[-77.34,21.51],[-81.43,23.14],[-82.18,22.37]]]},"properties":{"NAME":null,"ABBREVN":null,"type":null,"weblinks":null,"SUBJECTO":null,"BORDERPRECISION":1,"PARTOF":null}},
{"type":"Feature","geometry":{"type":"Polygon","coordinates":[[[-71.68,18],[-68.66,18.87],[-70.88,19.93],[-71.68,18]]]},"properties":{"NAME":null,"ABBREVN":null,"type":null,"weblinks":null,"SUBJECTO":null,"BORDERPRECISION":1,"PARTOF":null}},
{"type":"Feature","geometry":{"type":"Polygon","coordinates":[[[-66.91,17.94],[-65.97,18.03],[-65.95,18.47],[-67.06,18.55],[-66.91,17.94]]]},"properties":{"NAME":null,"ABBREVN":null,"type":null,"weblinks":null,"SUBJECTO":null,"BORDERPRECISION":1,"PARTOF":null}},
{"type":"Feature","geometry":{"type":"Polygon","coordinates":[[[-77.29,17.81],[-76.43,18.12],[-77.77,18.51],[-77.29,17.81]]]},"properties":{"NAME":null,"ABBREVN":null,"type":null,"weblinks":null,"SUBJECTO":null,"BORDERPRECISION":1,"PARTOF":null}},
{"type":"Feature","geometry":{"type":"Polygon","coordinates":[[[-70.67,62.86],[-64.47,63.74],[-61.21,66.64],[-68.67,68.72],[-71.25,71.35],[-81.53,73.69],[-88.1,73.64],[-90,71.54],[-87.95,70.38],[-78.71,70.01],[-72.3,67.26],[-75.79,65.2],[-70.67,62.86]]]},"properties":{"NAME":null,"ABBREVN":null,"type":null,"weblinks":null,"SUBJECTO":null,"BORDERPRECISION":1,"PARTOF":null}},
{"type":"Feature","geometry":{"type":"Polygon","coordinates":[[[-90.2,81.44],[-83.91,79.26],[-87.27,76.5],[-78.21,76.55],[-78.37,78.03],[-71.45,79.85],[-62.43,82.63],[-76.38,83.15],[-90.2,81.44]]]},"properties":{"NAME":null,"ABBREVN":null,"type":null,"weblinks":null,"SUBJECTO":null,"BORDERPRECISION":1,"PARTOF":null}},
{"type":"Feature","geometry":{"type":"Polygon","coordinates":[[[-114.47,72.63],[-117.57,69.99],[-113.15,68.6],[-106.85,69.45],[-103.86,70.7],[-105.31,72.65],[-114.47,72.63]]]},"properties":{"NAME":null,"ABBREVN":null,"type":null,"weblinks":null,"SUBJECTO":null,"BORDERPRECISION":1,"PARTOF":null}},
{"type":"Feature","geometry":{"type":"Polygon","coordinates":[[[-180,65.26],[-172.56,65.51],[-170.61,66.04],[-180,68.92],[-180,67.96],[-180,66.96],[-180,65.96],[-180,65.38],[-180,65.31],[-180,65.26]]]},"properties":{"NAME":null,"ABBREVN":null,"type":null,"weblinks":null,"SUBJECTO":null,"BORDERPRECISION":1,"PARTOF":null}},
{"type":"Feature","geometry":{"type":"Polygon","coordinates":[[[-90.2,80.66],[-96.43,79.93],[-92.7,78.43],[-87,79.45],[-90.2,80.66]]]},"properties":{"NAME":null,"ABBREVN":null,"type":null,"weblinks":null,"SUBJECTO":null,"BORDERPRECISION":1,"PARTOF":null}},
{"type":"Feature","geometry":{"type":"Polygon","coordinates":[[[-122.57,71.15],[-115.65,73.63],[-121.24,74.58],[-125.62,71.99],[-122.57,71.15]]]},"properties":{"NAME":null,"ABBREVN":null,"type":null,"weblinks":null,"SUBJECTO":null,"BORDERPRECISION":1,"PARTOF":null}},
{"type":"Feature","geometry":{"type":"Polygon","coordinates":[[[-90.2,76.28],[-91.87,74.79],[-80.35,74.62],[-81.7,75.87],[-86.62,75.43],[-90.2,76.28]]]},"properties":{"NAME":null,"ABBREVN":null,"type":null,"weblinks":null,"SUBJECTO":null,"BORDERPRECISION":1,"PARTOF":null}},
{"type":"Feature","geometry":{"type":"Polygon","coordinates":[[[-115.15,75.76],[-112.2,74.5],[-105.77,75.23],[-105.92,76.02],[-115.15,75.76]]]},"properties":{"NAME":null,"ABBREVN":null,"type":null,"weblinks":null,"SUBJECTO":null,"BORDERPRECISION":1,"PARTOF":null}},
{"type":"Feature","geometry":{"type":"Polygon","coordinates":[[[-85.16,63.18],[-82.11,64.64],[-85.56,65.86],[-86.24,64.54],[-85.16,63.18]]]},"properties":{"NAME":null,"ABBREVN":null,"type":null,"weblinks":null,"SUBJECTO":null,"BORDERPRECISION":1,"PARTOF":null}},
{"type":"Feature","geometry":{"type":"Polygon","coordinates":[[[-98.72,71.35],[-96.69,72.82],[-99.96,73.26],[-101.65,72.37],[-98.72,71.35]]]},"properties":{"NAME":null,"ABBREVN":null,"type":null,"weblinks":null,"SUBJECTO":null,"BORDERPRECISION":1,"PARTOF":null}},
{"type":"Feature","geometry":{"type":"Polygon","coordinates":[[[-123.9,48.47],[-123.86,49.16],[-125.72,50.41],[-125.97,49.17],[-123.9,48.47]]]},"properties":{"NAME":null,"ABBREVN":null,"type":null,"weblinks":null,"SUBJECTO":null,"BORDERPRECISION":1,"PARTOF":null}},
{"type":"Feature","geometry":{"type":"Polygon","coordinates":[[[-120.45,75.95],[-118.74,76.94],[-121.58,76.7],[-120.45,75.95]]]},"properties":{"NAME":null,"ABBREVN":null,"type":null,"weblinks":null,"SUBJECTO":null,"BORDERPRECISION":1,"PARTOF":null}},
{"type":"Feature","geometry":{"type":"Polygon","coordinates":[[[-99.68,77.79],[-99.89,78.66],[-102.57,79.02],[-104.16,78.3],[-101.17,78.27],[-99.68,77.79]]]},"properties":{"NAME":null,"ABBREVN":null,"type":null,"weblinks":null,"SUBJECTO":null,"BORDERPRECISION":1,"PARTOF":null}},
{"type":"Feature","geometry":{"type":"Polygon","coordinates":[[[-94.54,72.19],[-90.45,73.9],[-95.07,74.06],[-94.54,72.19]]]},"properties":{"NAME":null,"ABBREVN":null,"type":null,"weblinks":null,"SUBJECTO":null,"BORDERPRECISION":1,"PARTOF":null}},
{"type":"Feature","geometry":{"type":"Polygon","coordinates":[[[-99.94,75.08],[-97.82,76.48],[-101.88,76.33],[-99.94,75.08]]]},"properties":{"NAME":null,"ABBREVN":null,"type":null,"weblinks":null,"SUBJECTO":null,"BORDERPRECISION":1,"PARTOF":null}},
{"type":"Feature","geometry":{"type":"Polygon","coordinates":[[[-96.47,68.51],[-97.74,69.83],[-99.37,68.97],[-96.47,68.51]]]},"properties":{"NAME":null,"ABBREVN":null,"type":null,"weblinks":null,"SUBJECTO":null,"BORDERPRECISION":1,"PARTOF":null}},
{"type":"Feature","geometry":{"type":"Polygon","coordinates":[[[-96.6,78],[-95.1,78.44],[-97.31,78.82],[-98.44,78.66],[-96.6,78]]]},"properties":{"NAME":null,"ABBREVN":null,"type":null,"weblinks":null,"SUBJECTO":null,"BORDERPRECISION":1,"PARTOF":null}},
{"type":"Feature","geometry":{"type":"Polygon","coordinates":[[[-76.27,67.25],[-75.12,68.11],[-76.79,68.15],[-76.27,67.25]]]},"properties":{"NAME":null,"ABBREVN":null,"type":null,"weblinks":null,"SUBJECTO":null,"BORDERPRECISION":1,"PARTOF":null}},
{"type":"Feature","geometry":{"type":"Polygon","coordinates":[[[-153.23,57.37],[-154.19,57.63],[-154.59,57.14],[-153.88,56.94],[-153.23,57.37]]]},"properties":{"NAME":null,"ABBREVN":null,"type":null,"weblinks":null,"SUBJECTO":null,"BORDERPRECISION":1,"PARTOF":null}},
{"type":"Feature","geometry":{"type":"Polygon","coordinates":[[[-169.9,63.08],[-169.33,63.4],[-170.48,63.69],[-170.97,63.46],[-169.9,63.08]]]},"properties":{"NAME":null,"ABBREVN":null,"type":null,"weblinks":null,"SUBJECTO":null,"BORDERPRECISION":1,"PARTOF":null}},
{"type":"Feature","geometry":{"type":"Polygon","coordinates":[[[-93.94,76.4],[-94.2,76.9],[-96.81,76.92],[-95.87,76.51],[-93.94,76.4]]]},"properties":{"NAME":null,"ABBREVN":null,"type":null,"weblinks":null,"SUBJECTO":null,"BORDERPRECISION":1,"PARTOF":null}},
{"type":"Feature","geometry":{"type":"Polygon","coordinates":[[[-132.17,54.85],[-132.18,55.28],[-132.63,55.9],[-133.52,56.21],[-133.02,55.37],[-132.17,54.85]]]},"properties":{"NAME":null,"ABBREVN":null,"type":null,"weblinks":null,"SUBJECTO":null,"BORDERPRECISION":1,"PARTOF":null}},
{"type":"Feature","geometry":{"type":"Polygon","coordinates":[[[-109.66,77.95],[-113.01,77.92],[-113.02,77.6],[-110.62,77.54],[-109.66,77.95]]]},"properties":{"NAME":null,"ABBREVN":null,"type":null,"weblinks":null,"SUBJECTO":null,"BORDERPRECISION":1,"PARTOF":null}},
{"type":"Feature","geometry":{"type":"Polygon","coordinates":[[[-162.22,55.13],[-161.58,55.48],[-161.81,55.78],[-162.58,55.39],[-162.22,55.13]]]},"properties":{"NAME":null,"ABBREVN":null,"type":null,"weblinks":null,"SUBJECTO":null,"BORDERPRECISION":1,"PARTOF":null}},
{"type":"Feature","geometry":{"type":"Polygon","coordinates":[[[-155.78,18.95],[-154.95,19.48],[-155.93,20.28],[-156.16,19.81],[-155.78,18.95]]]},"properties":{"NAME":null,"ABBREVN":null,"type":null,"weblinks":null,"SUBJECTO":null,"BORDERPRECISION":1,"PARTOF":null}},
{"type":"Feature","geometry":{"type":"Polygon","coordinates":[[[-163.21,54.74],[-163.74,55.06],[-164.56,54.83],[-165.01,54.53],[-164.56,54.33],[-164.07,54.66],[-163.21,54.74]]]},"properties":{"NAME":null,"ABBREVN":null,"type":null,"weblinks":null,"SUBJECTO":null,"BORDERPRECISION":1,"PARTOF":null}},
{"type":"Feature","geometry":{"type":"Polygon","coordinates":[[[-135.32,58.09],[-136.3,58.18],[-136.6,57.9],[-135.11,57.67],[-135.32,58.09]]]},"properties":{"NAME":null,"ABBREVN":null,"type":null,"weblinks":null,"SUBJECTO":null,"BORDERPRECISION":1,"PARTOF":null}},
{"type":"Feature","geometry":{"type":"Polygon","coordinates":[[[-132.57,53.28],[-132,53.79],[-133.05,54.07],[-132.57,53.28]]]},"properties":{"NAME":null,"ABBREVN":null,"type":null,"weblinks":null,"SUBJECTO":null,"BORDERPRECISION":1,"PARTOF":null}},
{"type":"Feature","geometry":{"type":"Polygon","coordinates":[[[-134.82,56.92],[-135,57.33],[-135.47,57.23],[-134.82,56.92]]]},"properties":{"NAME":null,"ABBREVN":null,"type":null,"weblinks":null,"SUBJECTO":null,"BORDERPRECISION":1,"PARTOF":null}},
{"type":"Feature","geometry":{"type":"Polygon","coordinates":[[[-166.93,53.46],[-166.38,53.85],[-167.15,53.94],[-166.93,53.46]]]},"properties":{"NAME":null,"ABBREVN":null,"type":null,"weblinks":null,"SUBJECTO":null,"BORDERPRECISION":1,"PARTOF":null}},
{"type":"Feature","geometry":{"type":"Polygon","coordinates":[[[-156.51,20.6],[-156.12,20.79],[-156.72,21.07],[-156.51,20.6]]]},"properties":{"NAME":null,"ABBREVN":null,"type":null,"weblinks":null,"SUBJECTO":null,"BORDERPRECISION":1,"PARTOF":null}},
{"type":"Feature","geometry":{"type":"Polygon","coordinates":[[[-157.84,21.29],[-158.18,21.69],[-158.3,21.28],[-157.84,21.29]]]},"properties":{"NAME":null,"ABBREVN":null,"type":null,"weblinks":null,"SUBJECTO":null,"BORDERPRECISION":1,"PARTOF":null}},
{"type":"Feature","geometry":{"type":"Polygon","coordinates":[[[-167.87,53.32],[-168.22,53.59],[-168.37,53.24],[-167.87,53.32]]]},"properties":{"NAME":null,"ABBREVN":null,"type":null,"weblinks":null,"SUBJECTO":null,"BORDERPRECISION":1,"PARTOF":null}},
{"type":"Feature","geometry":{"type":"Polygon","coordinates":[[[-162.97,54.95],[-162.79,55.15],[-163.09,55.27],[-163.26,55.17],[-162.97,54.95]]]},"properties":{"NAME":null,"ABBREVN":null,"type":null,"weblinks":null,"SUBJECTO":null,"BORDERPRECISION":1,"PARTOF":null}},
{"type":"Feature","geometry":{"type":"Polygon","coordinates":[[[-50.22,-1.74],[-48.89,-1.42],[-48.4,-0.39],[-50.5,-0.26],[-50.22,-1.74]]]},"properties":{"NAME":null,"ABBREVN":null,"type":null,"weblinks":null,"SUBJECTO":null,"BORDERPRECISION":1,"PARTOF":null}},
{"type":"Feature","geometry":{"type":"Polygon","coordinates":[[[-61.11,10.82],[-61.81,10.72],[-61.21,10.12],[-61.11,10.82]]]},"properties":{"NAME":null,"ABBREVN":null,"type":null,"weblinks":null,"SUBJECTO":null,"BORDERPRECISION":1,"PARTOF":null}},
{"type":"Feature","geometry":{"type":"Polygon","coordinates":[[[24.44,37.1],[24.53,37.12],[24.43,37.21],[24.44,37.1]]]},"properties":{"NAME":null,"ABBREVN":null,"type":null,"weblinks":null,"SUBJECTO":null,"BORDERPRECISION":1,"PARTOF":null}},
{"type":"Feature","geometry":{"type":"Polygon","coordinates":[[[-14.51,28.05],[-13.88,28.2],[-14.15,28.39],[-14.51,28.05]]]},"properties":{"NAME":null,"ABBREVN":null,"type":null,"weblinks":null,"SUBJECTO":null,"BORDERPRECISION":1,"PARTOF":null}},
{"type":"Feature","geometry":{"type":"Polygon","coordinates":[[[24.4,37.67],[24.3,37.66],[24.26,37.54],[24.38,37.57],[24.4,37.67]]]},"properties":{"NAME":null,"ABBREVN":null,"type":null,"weblinks":null,"SUBJECTO":null,"BORDERPRECISION":1,"PARTOF":null}},
{"type":"Feature","geometry":{"type":"Polygon","coordinates":[[[24.49,37.4],[24.4,37.47],[24.36,37.31],[24.49,37.4]]]},"properties":{"NAME":null,"ABBREVN":null,"type":null,"weblinks":null,"SUBJECTO":null,"BORDERPRECISION":1,"PARTOF":null}},
{"type":"Feature","geometry":{"type":"Polygon","coordinates":[[[24.86,37.53],[24.85,37.37],[25.04,37.38],[24.86,37.53]]]},"properties":{"NAME":null,"ABBREVN":null,"type":null,"weblinks":null,"SUBJECTO":null,"BORDERPRECISION":1,"PARTOF":null}},
{"type":"Feature","geometry":{"type":"Polygon","coordinates":[[[25.47,37.44],[24.76,38],[24.66,37.9],[25.32,37.4],[25.47,37.44]]]},"properties":{"NAME":null,"ABBREVN":null,"type":null,"weblinks":null,"SUBJECTO":null,"BORDERPRECISION":1,"PARTOF":null}},
{"type":"Feature","geometry":{"type":"Polygon","coordinates":[[[24.79,36.95],[24.72,37.05],[24.65,37.01],[24.68,36.9],[24.79,36.95]]]},"properties":{"NAME":null,"ABBREVN":null,"type":null,"weblinks":null,"SUBJECTO":null,"BORDERPRECISION":1,"PARTOF":null}},
{"type":"Feature","geometry":{"type":"Polygon","coordinates":[[[25.11,36.94],[25.31,37],[25.31,37.2],[25.15,37.17],[25.11,36.94]]]},"properties":{"NAME":null,"ABBREVN":null,"type":null,"weblinks":null,"SUBJECTO":null,"BORDERPRECISION":1,"PARTOF":null}},
{"type":"Feature","geometry":{"type":"Polygon","coordinates":[[[25.55,36.96],[25.61,37.12],[25.54,37.22],[25.34,37.09],[25.55,36.96]]]},"properties":{"NAME":null,"ABBREVN":null,"type":null,"weblinks":null,"SUBJECTO":null,"BORDERPRECISION":1,"PARTOF":null}},
{"type":"Feature","geometry":{"type":"Polygon","coordinates":[[[12.78,38.12],[15.03,36.75],[15.39,38.21],[12.78,38.12]]]},"properties":{"NAME":null,"ABBREVN":null,"type":null,"weblinks":null,"SUBJECTO":null,"BORDERPRECISION":1,"PARTOF":null}},
{"type":"Feature","geometry":{"type":"Polygon","coordinates":[[[139.93,34.88],[142,39.67],[135.16,35.65],[137.25,34.48],[139.81,35.01],[139.93,34.88]]]},"properties":{"NAME":null,"ABBREVN":null,"type":null,"weblinks":null,"SUBJECTO":null,"BORDERPRECISION":1,"PARTOF":null}},
{"type":"Feature","geometry":{"type":"Polygon","coordinates":[[[132.97,32.77],[134,33.15],[134.54,34.01],[132.78,33.91],[132.97,32.77]]]},"properties":{"NAME":null,"ABBREVN":null,"type":null,"weblinks":null,"SUBJECTO":null,"BORDERPRECISION":1,"PARTOF":null}},
{"type":"Feature","geometry":{"type":"Polygon","coordinates":[[[129.53,33.3],[130.22,31.56],[131.32,31.51],[131.67,33.31],[129.53,33.3]]]},"properties":{"NAME":null,"ABBREVN":null,"type":null,"weblinks":null,"SUBJECTO":null,"BORDERPRECISION":1,"PARTOF":null}},
{"type":"Feature","geometry":{"type":"Polygon","coordinates":[[[140.5,43.32],[143.21,41.93],[143.51,44.16],[140.5,43.32]]]},"properties":{"NAME":null,"ABBREVN":null,"type":null,"weblinks":null,"SUBJECTO":null,"BORDERPRECISION":1,"PARTOF":null}},
{"type":"Feature","geometry":{"type":"Polygon","coordinates":[[[23.51,35.28],[24.32,35.21],[24.69,34.94],[25.51,35.29],[24.39,35.37],[23.53,35.57],[23.51,35.28]]]},"properties":{"NAME":null,"ABBREVN":null,"type":null,"weblinks":null,"SUBJECTO":null,"BORDERPRECISION":1,"PARTOF":null}},
{"type":"Feature","geometry":{"type":"MultiPolygon","coordinates":[[[[17,-29.63],[18.18,-31.81],[18.49,-34.4],[26.66,-33.85],[28.92,-32.3],[32.23,-28.74],[33.35,-25.3],[34.88,-24.72],[35.26,-22.27],[34.73,-19.86],[37.28,-17.71],[39.47,-16.72],[40.6,-14.4],[40.31,-11.34],[38.92,-6.34],[40.23,-3.19],[43.72,0.8],[46.36,2.67],[48.47,5.2],[50.78,9.37],[51.18,11.78],[44.28,10.4],[42.08,13.86],[39.52,15.46],[38.69,18],[37.4,18.92],[37.13,21.23],[35.19,24.4],[32.32,29.54],[32.65,29.85],[33.56,30.97],[31,31.47],[29.25,30.75],[23.15,32.14],[20.37,32.3],[18.92,30.2],[15.84,31.29],[15.01,32.36],[12.56,32.74],[10.02,34.08],[11.13,35.24],[10.13,37.1],[5.14,36.67],[1.06,36.46],[-2.04,35.05],[-5.93,35.73],[-7,33.87],[-9.22,32.58],[-9.66,29.95],[-11.72,28.17],[-11.12,25.03],[0.15,22.19],[10.43,19.06],[15.01,17.42],[21.33,16.23],[27.15,12.03],[31.49,5.05],[31.36,-1.63],[28.89,-8.05],[25.54,-14.36],[24.68,-22.69],[23.07,-26.18],[17,-29.63]]],[[[41.33,18.6],[42.76,16.65],[43.84,12.66],[46.6,13.4],[52.14,15.69],[52.89,16.61],[55.19,17.15],[57.84,19.03],[59.84,22.28],[57.15,23.98],[56.02,25.77],[54.83,24.79],[56.01,23.22],[56.63,20.17],[55.09,18.71],[50.63,16.59],[45.3,15.93],[43.94,17.89],[41.33,18.6]]]]},"properties":{"NAME":"Homo heidelbergensis","ABBREVN":"H. heidelbergensis","type":null,"weblinks":null,"SUBJECTO":"Homo heidelbergensis","BORDERPRECISION":1,"PARTOF":"Homo heidelbergensis"}},
{"type":"Feature","geometry":{"type":"Polygon","coordinates":[[[149.48,-6.3],[150.28,-6.34],[150.29,-5.71],[148.38,-5.66],[149.48,-6.3]]]},"properties":{"NAME":null,"ABBREVN":null,"type":null,"weblinks":null,"SUBJECTO":null,"BORDERPRECISION":1,"PARTOF":null}},
{"type":"Feature","geometry":{"type":"Polygon","coordinates":[[[123.6,-10.13],[124.15,-10.2],[125.21,-9.4],[125.08,-8.77],[123.67,-9.75],[123.6,-10.13]]]},"properties":{"NAME":null,"ABBREVN":null,"type":null,"weblinks":null,"SUBJECTO":null,"BORDERPRECISION":1,"PARTOF":null}},
{"type":"Feature","geometry":{"type":"Polygon","coordinates":[[[127.63,0.06],[128.63,1.02],[127.69,0.92],[127.63,0.06]]]},"properties":{"NAME":null,"ABBREVN":null,"type":null,"weblinks":null,"SUBJECTO":null,"BORDERPRECISION":1,"PARTOF":null}},
{"type":"Feature","geometry":{"type":"Polygon","coordinates":[[[122.7,-8.49],[121.28,-8.72],[120.57,-8.39],[119.94,-8.94],[121.69,-9],[122.7,-8.49]]]},"properties":{"NAME":null,"ABBREVN":null,"type":null,"weblinks":null,"SUBJECTO":null,"BORDERPRECISION":1,"PARTOF":null}},
{"type":"Feature","geometry":{"type":"Polygon","coordinates":[[[130.61,-3.85],[130.37,-3.13],[129.17,-3.14],[128.15,-2.97],[128.38,-3.55],[128.91,-3.25],[129.49,-3.6],[129.91,-3.39],[130.61,-3.85]]]},"properties":{"NAME":null,"ABBREVN":null,"type":null,"weblinks":null,"SUBJECTO":null,"BORDERPRECISION":1,"PARTOF":null}},
{"type":"Feature","geometry":{"type":"Polygon","coordinates":[[[126.47,-3.85],[127.11,-3.72],[126.73,-3.23],[126.11,-3.3],[126.47,-3.85]]]},"properties":{"NAME":null,"ABBREVN":null,"type":null,"weblinks":null,"SUBJECTO":null,"BORDERPRECISION":1,"PARTOF":null}},
{"type":"Feature","geometry":{"type":"Polygon","coordinates":[[[120.18,-10.35],[120.46,-9.93],[119.79,-9.46],[119.41,-9.87],[120.18,-10.35]]]},"properties":{"NAME":null,"ABBREVN":null,"type":null,"weblinks":null,"SUBJECTO":null,"BORDERPRECISION":1,"PARTOF":null}},
{"type":"Feature","geometry":{"type":"Polygon","coordinates":[[[120.56,0.78],[119.91,0.54],[118.68,-2.9],[122.26,-3.21],[119.87,-0.46],[120.56,0.78]]]},"properties":{"NAME":null,"ABBREVN":null,"type":null,"weblinks":null,"SUBJECTO":null,"BORDERPRECISION":1,"PARTOF":null}},
{"type":"Feature","geometry":{"type":"Polygon","coordinates":[[[64.27,26.49],[57.1,26.14],[57.9,25.54],[61.34,25.03],[63.89,25.38],[64.27,26.49]]]},"properties":{"NAME":null,"ABBREVN":null,"type":null,"weblinks":null,"SUBJECTO":null,"BORDERPRECISION":1,"PARTOF":null}},
{"type":"Feature","geometry":{"type":"Polygon","coordinates":[[[-59.53,13.05],[-59.43,13.16],[-59.66,13.29],[-59.64,13.15],[-59.53,13.05]]]},"properties":{"NAME":null,"ABBREVN":null,"type":null,"weblinks":null,"SUBJECTO":null,"BORDERPRECISION":1,"PARTOF":null}},
{"type":"Feature","geometry":{"type":"Polygon","coordinates":[[[-68.2,12.22],[-68.36,12.31],[-68.29,12.1],[-68.2,12.22]]]},"properties":{"NAME":null,"ABBREVN":null,"type":null,"weblinks":null,"SUBJECTO":null,"BORDERPRECISION":1,"PARTOF":null}},
{"type":"Feature","geometry":{"type":"Polygon","coordinates":[[[-61.67,17.08],[-61.79,17.16],[-61.89,17.03],[-61.74,16.99],[-61.67,17.08]]]},"properties":{"NAME":null,"ABBREVN":null,"type":null,"weblinks":null,"SUBJECTO":null,"BORDERPRECISION":1,"PARTOF":null}},
{"type":"Feature","geometry":{"type":"Polygon","coordinates":[[[-68.97,12.2],[-69.08,12.35],[-69.16,12.31],[-69.06,12.19],[-68.83,12.05],[-68.82,12.16],[-68.97,12.2]]]},"properties":{"NAME":null,"ABBREVN":null,"type":null,"weblinks":null,"SUBJECTO":null,"BORDERPRECISION":1,"PARTOF":null}},
{"type":"Feature","geometry":{"type":"Polygon","coordinates":[[[-61.47,15.62],[-61.39,15.35],[-61.26,15.29],[-61.3,15.57],[-61.47,15.62]]]},"properties":{"NAME":null,"ABBREVN":null,"type":null,"weblinks":null,"SUBJECTO":null,"BORDERPRECISION":1,"PARTOF":null}},
{"type":"Feature","geometry":{"type":"Polygon","coordinates":[[[-61.6,12.19],[-61.72,12.17],[-61.79,12.01],[-61.64,12.03],[-61.6,12.19]]]},"properties":{"NAME":null,"ABBREVN":null,"type":null,"weblinks":null,"SUBJECTO":null,"BORDERPRECISION":1,"PARTOF":null}},
{"type":"Feature","geometry":{"type":"Polygon","coordinates":[[[-61.03,14.83],[-61.23,14.81],[-61.03,14.47],[-60.83,14.57],[-61.03,14.83]]]},"properties":{"NAME":null,"ABBREVN":null,"type":null,"weblinks":null,"SUBJECTO":null,"BORDERPRECISION":1,"PARTOF":null}},
{"type":"Feature","geometry":{"type":"Polygon","coordinates":[[[-62.17,16.67],[-62.14,16.69],[-62.18,16.81],[-62.24,16.71],[-62.17,16.67]]]},"properties":{"NAME":null,"ABBREVN":null,"type":null,"weblinks":null,"SUBJECTO":null,"BORDERPRECISION":1,"PARTOF":null}},
{"type":"Feature","geometry":{"type":"Polygon","coordinates":[[[-63.15,18.17],[-62.99,18.23],[-63.06,18.26],[-63.15,18.17]]]},"properties":{"NAME":null,"ABBREVN":null,"type":null,"weblinks":null,"SUBJECTO":null,"BORDERPRECISION":1,"PARTOF":null}},
{"type":"Feature","geometry":{"type":"Polygon","coordinates":[[[-62.54,17.18],[-62.61,17.19],[-62.61,17.1],[-62.54,17.11],[-62.54,17.18]]]},"properties":{"NAME":null,"ABBREVN":null,"type":null,"weblinks":null,"SUBJECTO":null,"BORDERPRECISION":1,"PARTOF":null}},
{"type":"Feature","geometry":{"type":"Polygon","coordinates":[[[-61.04,13.97],[-61.07,13.79],[-60.9,13.78],[-60.88,13.96],[-61.04,13.97]]]},"properties":{"NAME":null,"ABBREVN":null,"type":null,"weblinks":null,"SUBJECTO":null,"BORDERPRECISION":1,"PARTOF":null}},
{"type":"Feature","geometry":{"type":"Polygon","coordinates":[[[-61.45,12.59],[-61.42,12.59],[-61.41,12.61],[-61.44,12.61],[-61.45,12.59]]]},"properties":{"NAME":null,"ABBREVN":null,"type":null,"weblinks":null,"SUBJECTO":null,"BORDERPRECISION":1,"PARTOF":null}},
{"type":"Feature","geometry":{"type":"Polygon","coordinates":[[[-64.64,17.77],[-64.87,17.77],[-64.89,17.69],[-64.67,17.71],[-64.64,17.77]]]},"properties":{"NAME":null,"ABBREVN":null,"type":null,"weblinks":null,"SUBJECTO":null,"BORDERPRECISION":1,"PARTOF":null}},
{"type":"Feature","geometry":{"type":"Polygon","coordinates":[[[-61.2,15.94],[-61.28,16.01],[-61.33,15.93],[-61.23,15.88],[-61.2,15.94]]]},"properties":{"NAME":null,"ABBREVN":null,"type":null,"weblinks":null,"SUBJECTO":null,"BORDERPRECISION":1,"PARTOF":null}},
{"type":"Feature","geometry":{"type":"Polygon","coordinates":[[[-63.01,18.04],[-63.05,18.12],[-63.15,18.07],[-63.01,18.04]]]},"properties":{"NAME":null,"ABBREVN":null,"type":null,"weblinks":null,"SUBJECTO":null,"BORDERPRECISION":1,"PARTOF":null}},
{"type":"Feature","geometry":{"type":"Polygon","coordinates":[[[-61.87,17.69],[-61.86,17.59],[-61.73,17.55],[-61.74,17.65],[-61.87,17.69]]]},"properties":{"NAME":null,"ABBREVN":null,"type":null,"weblinks":null,"SUBJECTO":null,"BORDERPRECISION":1,"PARTOF":null}},
{"type":"Feature","geometry":{"type":"Polygon","coordinates":[[[-61.58,12.3],[-61.57,12.32],[-61.58,12.32],[-61.59,12.3],[-61.58,12.3]]]},"properties":{"NAME":null,"ABBREVN":null,"type":null,"weblinks":null,"SUBJECTO":null,"BORDERPRECISION":1,"PARTOF":null}},
{"type":"Feature","geometry":{"type":"Polygon","coordinates":[[[-61.42,12.51],[-61.49,12.48],[-61.49,12.43],[-61.43,12.45],[-61.42,12.51]]]},"properties":{"NAME":null,"ABBREVN":null,"type":null,"weblinks":null,"SUBJECTO":null,"BORDERPRECISION":1,"PARTOF":null}},
{"type":"Feature","geometry":{"type":"Polygon","coordinates":[[[-62.69,17.28],[-62.73,17.37],[-62.81,17.41],[-62.86,17.37],[-62.78,17.29],[-62.69,17.28]]]},"properties":{"NAME":null,"ABBREVN":null,"type":null,"weblinks":null,"SUBJECTO":null,"BORDERPRECISION":1,"PARTOF":null}},
{"type":"Feature","geometry":{"type":"Polygon","coordinates":[[[-61.31,12.73],[-61.35,12.7],[-61.33,12.69],[-61.31,12.71],[-61.31,12.73]]]},"properties":{"NAME":null,"ABBREVN":null,"type":null,"weblinks":null,"SUBJECTO":null,"BORDERPRECISION":1,"PARTOF":null}},
{"type":"Feature","geometry":{"type":"Polygon","coordinates":[[[-61.2,13.03],[-61.23,13.02],[-61.25,12.99],[-61.24,12.97],[-61.2,13.03]]]},"properties":{"NAME":null,"ABBREVN":null,"type":null,"weblinks":null,"SUBJECTO":null,"BORDERPRECISION":1,"PARTOF":null}},
{"type":"Feature","geometry":{"type":"Polygon","coordinates":[[[-61.28,13.25],[-61.18,13.13],[-61.12,13.25],[-61.21,13.37],[-61.28,13.25]]]},"properties":{"NAME":null,"ABBREVN":null,"type":null,"weblinks":null,"SUBJECTO":null,"BORDERPRECISION":1,"PARTOF":null}},
{"type":"Feature","geometry":{"type":"Polygon","coordinates":[[[-64.79,18.33],[-64.7,18.31],[-64.71,18.37],[-64.79,18.33]]]},"properties":{"NAME":null,"ABBREVN":null,"type":null,"weblinks":null,"SUBJECTO":null,"BORDERPRECISION":1,"PARTOF":null}},
{"type":"Feature","geometry":{"type":"Polygon","coordinates":[[[-64.98,18.35],[-64.88,18.31],[-64.9,18.36],[-64.98,18.35]]]},"properties":{"NAME":null,"ABBREVN":null,"type":null,"weblinks":null,"SUBJECTO":null,"BORDERPRECISION":1,"PARTOF":null}},
{"type":"Feature","geometry":{"type":"Polygon","coordinates":[[[-61.09,16.3],[-61.04,16.31],[-60.99,16.34],[-61.02,16.35],[-61.09,16.3]]]},"properties":{"NAME":null,"ABBREVN":null,"type":null,"weblinks":null,"SUBJECTO":null,"BORDERPRECISION":1,"PARTOF":null}},
{"type":"Feature","geometry":{"type":"Polygon","coordinates":[[[-61.29,16.33],[-61.5,16.35],[-61.79,16.24],[-61.7,15.95],[-61.55,16.05],[-61.58,16.2],[-61.29,16.33]]]},"properties":{"NAME":null,"ABBREVN":null,"type":null,"weblinks":null,"SUBJECTO":null,"BORDERPRECISION":1,"PARTOF":null}},
{"type":"Feature","geometry":{"type":"Polygon","coordinates":[[[-62.84,17.88],[-62.79,17.91],[-62.86,17.93],[-62.84,17.88]]]},"properties":{"NAME":null,"ABBREVN":null,"type":null,"weblinks":null,"SUBJECTO":null,"BORDERPRECISION":1,"PARTOF":null}},
{"type":"Feature","geometry":{"type":"Polygon","coordinates":[[[-62.97,17.46],[-62.94,17.49],[-62.99,17.52],[-63,17.49],[-62.97,17.46]]]},"properties":{"NAME":null,"ABBREVN":null,"type":null,"weblinks":null,"SUBJECTO":null,"BORDERPRECISION":1,"PARTOF":null}},
{"type":"Feature","geometry":{"type":"Polygon","coordinates":[[[148.56,45.31],[147.89,45.23],[147.11,44.79],[147.29,44.67],[147.62,44.9],[148.56,45.31]]]},"properties":{"NAME":null,"ABBREVN":null,"type":null,"weblinks":null,"SUBJECTO":null,"BORDERPRECISION":1,"PARTOF":null}},
{"type":"Feature","geometry":{"type":"Polygon","coordinates":[[[117.8,-8.5],[116.96,-8.53],[116.98,-9.18],[118.66,-8.86],[117.8,-8.5]]]},"properties":{"NAME":null,"ABBREVN":null,"type":null,"weblinks":null,"SUBJECTO":null,"BORDERPRECISION":1,"PARTOF":null}},
{"type":"Feature","geometry":{"type":"Polygon","coordinates":[[[114.9,-8.65],[115.07,-8.78],[115.5,-8.47],[115.08,-8.23],[114.9,-8.65]]]},"properties":{"NAME":null,"ABBREVN":null,"type":null,"weblinks":null,"SUBJECTO":null,"BORDERPRECISION":1,"PARTOF":null}},
{"type":"Feature","geometry":{"type":"Polygon","coordinates":[[[120.31,14.58],[122.4,17.11],[120.39,18.04],[119.77,15.47],[120.31,14.58]]]},"properties":{"NAME":null,"ABBREVN":null,"type":null,"weblinks":null,"SUBJECTO":null,"BORDERPRECISION":1,"PARTOF":null}},
{"type":"Feature","geometry":{"type":"Polygon","coordinates":[[[120.89,12.37],[121.3,13.13],[120.55,13.15],[120.89,12.37]]]},"properties":{"NAME":null,"ABBREVN":null,"type":null,"weblinks":null,"SUBJECTO":null,"BORDERPRECISION":1,"PARTOF":null}},
{"type":"Feature","geometry":{"type":"Polygon","coordinates":[[[125.07,11.24],[125.45,11.21],[125.25,12.29],[124.95,12.53],[124.33,12.21],[124.88,11.83],[125.07,11.24]]]},"properties":{"NAME":null,"ABBREVN":null,"type":null,"weblinks":null,"SUBJECTO":null,"BORDERPRECISION":1,"PARTOF":null}},
{"type":"Feature","geometry":{"type":"Polygon","coordinates":[[[121.88,10.63],[122.9,11.15],[121.99,11.76],[121.88,10.63]]]},"properties":{"NAME":null,"ABBREVN":null,"type":null,"weblinks":null,"SUBJECTO":null,"BORDERPRECISION":1,"PARTOF":null}},
{"type":"Feature","geometry":{"type":"Polygon","coordinates":[[[122.77,9.21],[123.31,10.74],[122.92,10.85],[122.4,9.48],[122.77,9.21]]]},"properties":{"NAME":null,"ABBREVN":null,"type":null,"weblinks":null,"SUBJECTO":null,"BORDERPRECISION":1,"PARTOF":null}},
{"type":"Feature","geometry":{"type":"Polygon","coordinates":[[[125.95,6.65],[125.93,9.17],[123.46,7.79],[124.22,6.09],[125.95,6.65]]]},"properties":{"NAME":null,"ABBREVN":null,"type":null,"weblinks":null,"SUBJECTO":null,"BORDERPRECISION":1,"PARTOF":null}},
{"type":"Feature","geometry":{"type":"Polygon","coordinates":[[[-4.15,53.23],[-4.28,53.4],[-4.57,53.27],[-4.35,53.12],[-4.15,53.23]]]},"properties":{"NAME":null,"ABBREVN":null,"type":null,"weblinks":null,"SUBJECTO":null,"BORDERPRECISION":1,"PARTOF":null}},
{"type":"Feature","geometry":{"type":"Polygon","coordinates":[[[-5.1,55.44],[-5.15,55.67],[-5.4,55.6],[-5.1,55.44]]]},"properties":{"NAME":null,"ABBREVN":null,"type":null,"weblinks":null,"SUBJECTO":null,"BORDERPRECISION":1,"PARTOF":null}},
{"type":"Feature","geometry":{"type":"Polygon","coordinates":[[[-6.12,55.88],[-6.33,55.59],[-6.02,55.68],[-6.12,55.88]]]},"properties":{"NAME":null,"ABBREVN":null,"type":null,"weblinks":null,"SUBJECTO":null,"BORDERPRECISION":1,"PARTOF":null}},
{"type":"Feature","geometry":{"type":"Polygon","coordinates":[[[-5.95,55.83],[-5.75,56.06],[-5.97,56.02],[-6.08,55.91],[-5.95,55.83]]]},"properties":{"NAME":null,"ABBREVN":null,"type":null,"weblinks":null,"SUBJECTO":null,"BORDERPRECISION":1,"PARTOF":null}},
{"type":"Feature","geometry":{"type":"Polygon","coordinates":[[[-7.47,56.94],[-7.38,56.98],[-7.45,57.06],[-7.55,56.97],[-7.47,56.94]]]},"properties":{"NAME":null,"ABBREVN":null,"type":null,"weblinks":null,"SUBJECTO":null,"BORDERPRECISION":1,"PARTOF":null}},
{"type":"Feature","geometry":{"type":"Polygon","coordinates":[[[-7.22,57.34],[-7.42,57.38],[-7.38,57.11],[-7.23,57.09],[-7.22,57.34]]]},"properties":{"NAME":null,"ABBREVN":null,"type":null,"weblinks":null,"SUBJECTO":null,"BORDERPRECISION":1,"PARTOF":null}},
{"type":"Feature","geometry":{"type":"Polygon","coordinates":[[[-7.27,57.4],[-7.2,57.46],[-7.35,57.49],[-7.39,57.42],[-7.27,57.4]]]},"properties":{"NAME":null,"ABBREVN":null,"type":null,"weblinks":null,"SUBJECTO":null,"BORDERPRECISION":1,"PARTOF":null}},
{"type":"Feature","geometry":{"type":"Polygon","coordinates":[[[-7.19,57.69],[-7.48,57.56],[-7.15,57.51],[-7.19,57.69]]]},"properties":{"NAME":null,"ABBREVN":null,"type":null,"weblinks":null,"SUBJECTO":null,"BORDERPRECISION":1,"PARTOF":null}},
{"type":"Feature","geometry":{"type":"Polygon","coordinates":[[[-7.01,57.88],[-6.99,57.92],[-7.07,57.9],[-7.01,57.88]]]},"properties":{"NAME":null,"ABBREVN":null,"type":null,"weblinks":null,"SUBJECTO":null,"BORDERPRECISION":1,"PARTOF":null}},
{"type":"Feature","geometry":{"type":"Polygon","coordinates":[[[-6.2,58.36],[-7.03,58.24],[-6.47,57.94],[-6.2,58.36]]]},"properties":{"NAME":null,"ABBREVN":null,"type":null,"weblinks":null,"SUBJECTO":null,"BORDERPRECISION":1,"PARTOF":null}},
{"type":"Feature","geometry":{"type":"Polygon","coordinates":[[[-2.92,58.73],[-2.88,58.82],[-3.04,58.82],[-2.92,58.73]]]},"properties":{"NAME":null,"ABBREVN":null,"type":null,"weblinks":null,"SUBJECTO":null,"BORDERPRECISION":1,"PARTOF":null}},
{"type":"Feature","geometry":{"type":"Polygon","coordinates":[[[-3.23,58.78],[-3.14,58.8],[-3.34,58.93],[-3.43,58.87],[-3.23,58.78]]]},"properties":{"NAME":null,"ABBREVN":null,"type":null,"weblinks":null,"SUBJECTO":null,"BORDERPRECISION":1,"PARTOF":null}},
{"type":"Feature","geometry":{"type":"Polygon","coordinates":[[[-2.79,58.95],[-3.08,59.12],[-3.19,58.91],[-2.79,58.95]]]},"properties":{"NAME":null,"ABBREVN":null,"type":null,"weblinks":null,"SUBJECTO":null,"BORDERPRECISION":1,"PARTOF":null}},
{"type":"Feature","geometry":{"type":"Polygon","coordinates":[[[-2.68,59.2],[-2.62,59.24],[-2.5,59.24],[-2.41,59.31],[-2.59,59.29],[-2.68,59.2]]]},"properties":{"NAME":null,"ABBREVN":null,"type":null,"weblinks":null,"SUBJECTO":null,"BORDERPRECISION":1,"PARTOF":null}},
{"type":"Feature","geometry":{"type":"Polygon","coordinates":[[[-2.89,59.3],[-3.05,59.33],[-3,59.26],[-2.97,59.29],[-2.89,59.3]]]},"properties":{"NAME":null,"ABBREVN":null,"type":null,"weblinks":null,"SUBJECTO":null,"BORDERPRECISION":1,"PARTOF":null}},
{"type":"Feature","geometry":{"type":"Polygon","coordinates":[[[-1.3,60.49],[-1.32,60.36],[-1.65,60.23],[-1.13,60.15],[-1.04,60.45],[-1.3,60.49]]]},"properties":{"NAME":null,"ABBREVN":null,"type":null,"weblinks":null,"SUBJECTO":null,"BORDERPRECISION":1,"PARTOF":null}},
{"type":"Feature","geometry":{"type":"Polygon","coordinates":[[[-1.03,60.5],[-0.99,60.72],[-1.18,60.64],[-1.03,60.5]]]},"properties":{"NAME":null,"ABBREVN":null,"type":null,"weblinks":null,"SUBJECTO":null,"BORDERPRECISION":1,"PARTOF":null}},
{"type":"Feature","geometry":{"type":"Polygon","coordinates":[[[-0.82,60.69],[-0.77,60.83],[-0.94,60.79],[-0.97,60.69],[-0.82,60.69]]]},"properties":{"NAME":null,"ABBREVN":null,"type":null,"weblinks":null,"SUBJECTO":null,"BORDERPRECISION":1,"PARTOF":null}},
{"type":"Feature","geometry":{"type":"Polygon","coordinates":[[[-6.71,61.94],[-6.72,62.03],[-7.19,62.31],[-7.23,62.17],[-6.71,61.94]]]},"properties":{"NAME":null,"ABBREVN":null,"type":null,"weblinks":null,"SUBJECTO":null,"BORDERPRECISION":1,"PARTOF":null}},
{"type":"Feature","geometry":{"type":"Polygon","coordinates":[[[-4.78,54.06],[-4.39,54.19],[-4.53,54.37],[-4.78,54.06]]]},"properties":{"NAME":null,"ABBREVN":null,"type":null,"weblinks":null,"SUBJECTO":null,"BORDERPRECISION":1,"PARTOF":null}},
{"type":"Feature","geometry":{"type":"Polygon","coordinates":[[[18.21,56.91],[18.71,57.24],[18.81,57.7],[18.11,57.52],[18.21,56.91]]]},"properties":{"NAME":null,"ABBREVN":null,"type":null,"weblinks":null,"SUBJECTO":null,"BORDERPRECISION":1,"PARTOF":null}},
{"type":"Feature","geometry":{"type":"Polygon","coordinates":[[[1.54,50.63],[3.73,49.86],[11.62,50.5],[14.07,51.04],[19.83,49.9],[24.69,49.88],[27.42,47.39],[30.26,46.03],[33.64,45.93],[37.42,47.08],[37.47,44.69],[41.41,42.79],[41.65,42.11],[47.25,40.91],[48.7,43.42],[50.81,43.51],[52.92,40.63],[57.97,41.19],[63.35,40.54],[67.56,40.25],[69.79,38.29],[70.1,36.02],[66.02,34.5],[64.41,33.22],[68.99,32.9],[69.23,31.98],[73.17,34.07],[79.24,30.61],[85.56,27.36],[92.37,26.37],[95.84,27.8],[102.28,29.33],[104.01,32.41],[108.47,33.35],[116.89,33.96],[120.98,33.77],[120.99,35.07],[122.68,35.84],[123.54,37.83],[125.99,35.77],[126.08,33.3],[128.04,33.26],[129.59,34.55],[129.74,37.04],[128.82,37.99],[129.64,41.66],[132.18,43.19],[134.14,42.99],[137.72,46],[140.08,48.5],[143.9,50.72],[143.03,52.31],[137.23,55.98],[142.85,59.27],[148.42,59.1],[154.32,59.98],[157.1,61.63],[160.64,60.72],[158.33,58.03],[156.78,57.58],[155.47,54.92],[156.7,50.96],[161.5,55.29],[161.8,58.1],[163.39,59.81],[170.34,60.28],[179.29,62.82],[180,64.95],[180,65.05],[180,65.31],[180,65.38],[180,65.96],[180,66.96],[180,67.96],[180,68.92],[175.61,69.78],[167.32,69.66],[159.44,69.76],[158.41,70.81],[152.13,70.66],[141.29,72.79],[137.63,71.08],[126.22,72.38],[118.46,73.52],[108.34,73.69],[113.53,76.09],[103.39,77.56],[99.47,75.97],[89.28,75.47],[87.69,73.9],[80.46,73.31],[79.22,72.27],[73.22,71.46],[74.74,67.69],[72.84,67.65],[72.71,72.77],[62.28,69.71],[57.02,68.45],[53.89,68.79],[39.95,65.58],[37.41,63.75],[35.08,64.29],[35.77,66.26],[39.19,66.04],[40.83,67.66],[35.44,69.15],[29.73,69.7],[28.31,70.95],[20.16,69.75],[13.17,66.46],[9.83,63.68],[5.15,61.74],[5.62,58.46],[8.15,58.09],[10.55,59.38],[13.3,55.3],[15.77,56.03],[16.74,58.31],[19.04,59.86],[17.15,60.95],[20.7,63.82],[22.65,65.93],[25.25,65.42],[21.03,62.48],[21.56,60.51],[23.66,59.84],[24.35,57.16],[21.68,57.46],[21.14,54.85],[14.47,53.88],[8.85,53.75],[4.64,52.76],[1.54,50.63]]]},"properties":{"NAME":null,"ABBREVN":null,"type":null,"weblinks":null,"SUBJECTO":null,"BORDERPRECISION":1,"PARTOF":null}},
{"type":"Feature","geometry":{"type":"Polygon","coordinates":[[[175.64,-37.31],[174.65,-38.98],[176.01,-41.26],[178.41,-38.77],[175.64,-37.31]]]},"properties":{"NAME":null,"ABBREVN":null,"type":null,"weblinks":null,"SUBJECTO":null,"BORDERPRECISION":1,"PARTOF":null}},
{"type":"Feature","geometry":{"type":"Polygon","coordinates":[[[171.77,-44.05],[171.46,-41.99],[168.42,-44.22],[166.52,-46.23],[169.4,-46.71],[171.77,-44.05]]]},"properties":{"NAME":null,"ABBREVN":null,"type":null,"weblinks":null,"SUBJECTO":null,"BORDERPRECISION":1,"PARTOF":null}},
{"type":"Feature","geometry":{"type":"Polygon","coordinates":[[[142.75,-11.32],[142.61,-9.38],[144.38,-7.76],[145.82,-8.1],[147.87,-10.18],[148.59,-9.16],[146.91,-6.89],[147.38,-6.12],[143.45,-3.61],[138.63,-1.96],[138.35,-0.99],[135.25,-3.54],[133.91,-1.01],[131.21,-1.02],[134.04,-3.95],[134.36,-5.17],[132.6,-7.29],[134.58,-7.56],[135,-8.55],[133.55,-10.02],[130.16,-10.16],[128.5,-12.6],[125.51,-11.04],[124.21,-13.9],[126.1,-14.2],[122.74,-16.58],[120.87,-19.68],[116.42,-20.84],[113.63,-22.57],[113.43,-26.57],[114.63,-28.9],[115.75,-32.21],[115.05,-34.42],[118.21,-35.09],[119.77,-34.12],[123.62,-33.92],[126.06,-32.43],[128.61,-31.95],[133.73,-33.66],[136.79,-36.6],[143.17,-39.76],[145.85,-39.91],[144.05,-41.74],[145.56,-46.22],[147.08,-46.28],[148.59,-44.51],[150.61,-37.59],[150.34,-35.55],[152.97,-31.42],[153.49,-28.84],[153.07,-26.23],[150.75,-22.81],[149.1,-21.06],[146.32,-19.08],[145.18,-15.05],[143.74,-14.47],[142.75,-11.32]]]},"properties":{"NAME":null,"ABBREVN":null,"type":null,"weblinks":null,"SUBJECTO":null,"BORDERPRECISION":1,"PARTOF":null}},
{"type":"Feature","geometry":{"type":"Polygon","coordinates":[[[49.23,27.3],[47.91,29.89],[50.13,30.07],[51.35,28.04],[54.65,26.39],[57.1,26.14],[64.27,26.49],[68.46,31.57],[69.23,31.98],[68.99,32.9],[64.41,33.22],[66.02,34.5],[70.1,36.02],[69.79,38.29],[67.56,40.25],[63.35,40.54],[57.97,41.19],[52.92,40.63],[53.34,36.25],[50.22,37.72],[49.46,39.12],[50.19,40.57],[47.25,40.91],[41.65,42.11],[38.65,40.92],[33.56,41.98],[26.13,39.88],[27.16,37.36],[30.47,36.19],[35.71,36.21],[35.87,34.42],[33.89,31.06],[37.93,28.51],[45.24,27.86],[49.23,27.3]]]},"properties":{"NAME":"Neanderthal","ABBREVN":null,"type":null,"weblinks":null,"SUBJECTO":"Neanderthal","BORDERPRECISION":1,"PARTOF":"Neanderthal"}},
{"type":"Feature","geometry":{"type":"Polygon","coordinates":[[[-2.8,51.56],[-2.61,50.24],[-3.95,47.9],[-1.08,46.01],[-1.56,43.52],[-7.64,43.72],[-8.64,42.42],[-9.55,38.77],[-8.67,37.12],[-2.24,36.73],[0.17,38.74],[0.88,41.02],[3.13,41.86],[4.08,43.49],[6.52,43.15],[8.9,44.44],[12.64,41.53],[15.41,43.93],[19.61,41.76],[19.37,40.26],[21.23,37.9],[23.56,38.35],[23.17,38.67],[22.6,38.86],[22.87,39.02],[22.72,39.29],[22.6,40.4],[28.83,40.91],[27.5,42.52],[30.26,46.03],[27.42,47.39],[24.69,49.88],[19.83,49.9],[14.07,51.04],[11.62,50.5],[3.73,49.86],[1.54,50.63],[0.63,50.91],[-2.8,51.56]],[[5.93,45.12],[6.3,45.72],[11.93,47.39],[13.11,46.5],[5.93,45.12]]]},"properties":{"NAME":"Neanderthal","ABBREVN":null,"type":null,"weblinks":null,"SUBJECTO":"Neanderthal","BORDERPRECISION":1,"PARTOF":"Neanderthal"}},
{"type":"Feature","geometry":{"type":"Polygon","coordinates":[[[63.89,25.38],[66.7,24.75],[69.49,22.25],[73.48,14.8],[74.79,13.26],[76.7,8.71],[78.8,9.13],[79.95,8.35],[80.29,6.28],[82.13,7.06],[79.83,10.36],[80.14,14.49],[85.16,18.37],[87.08,19.42],[90.87,20.5],[92.75,19.84],[95.02,15.37],[97.51,15.33],[97.81,13.65],[97.52,9.38],[100.61,4.55],[100.27,3],[97.6,5.15],[96.19,5.15],[97.6,2.25],[98.6,1.71],[100.81,-2.34],[102.46,-4.18],[106.48,-7.5],[112.41,-8.49],[112.79,-6.24],[113.73,-4.81],[115.57,-3.8],[117.91,1.59],[117.59,4.05],[119.11,5.69],[115.68,6.7],[112.26,6.34],[111.1,5.22],[106.28,4.63],[105.23,6.15],[106.78,6.82],[107.84,9.84],[109.39,11.15],[108.79,15.09],[107.11,16.95],[110.45,18.2],[112.47,20.85],[116.77,22.3],[118.42,23.6],[120.53,22.1],[121.83,24.03],[122.5,29.41],[120.98,33.77],[116.89,33.96],[108.47,33.35],[104.01,32.41],[102.28,29.33],[95.84,27.8],[92.37,26.37],[85.56,27.36],[79.24,30.61],[73.17,34.07],[69.23,31.98],[68.46,31.57],[64.27,26.49],[63.89,25.38]]]},"properties":{"NAME":"Homo erectus","ABBREVN":"H. erectus","type":null,"weblinks":null,"SUBJECTO":"Homo erectus","BORDERPRECISION":1,"PARTOF":"Homo erectus"}}
]}