{"type":"FeatureCollection", "features": [
{"type":"Feature","geometry":{"type":"Polygon","coordinates":[[[98.24,8.9],[100.14,6.18],[101.34,2.78],[103.43,1.38],[103.34,4.81],[101.56,6.74],[100.61,6.98],[99.47,9.18],[98.24,8.9]]]},"properties":{"NAME":null,"ABBREVN":"Austronesian","SUBJECTO":null,"BORDERPRECISION":1,"PARTOF":null}},
{"type":"Feature","geometry":{"type":"MultiPolygon","coordinates":[[[[175.31,-37.32],[174.65,-38.98],[176.01,-41.26],[178.41,-38.77],[175.31,-37.32]]],[[[172.06,-43.92],[174.23,-42.01],[171.46,-41.99],[171.02,-42.89],[168.42,-44.22],[166.52,-46.23],[169.4,-46.71],[172.06,-43.92]]]]},"properties":{"NAME":null,"ABBREVN":"New Zealand","SUBJECTO":null,"BORDERPRECISION":1,"PARTOF":null}},
{"type":"Feature","geometry":{"type":"Polygon","coordinates":[[[-24.22,65.53],[-22.37,63.77],[-18.64,63.32],[-14.82,64.2],[-13.65,65.5],[-16.92,65.98],[-24.22,65.53]]]},"properties":{"NAME":null,"ABBREVN":"Iceland","SUBJECTO":null,"BORDERPRECISION":1,"PARTOF":null}},
{"type":"Feature","geometry":{"type":"Polygon","coordinates":[[[-39.69,65.19],[-34.43,66.38],[-32.96,67.64],[-26.96,68.5],[-22.73,69.77],[-25.29,71.57],[-24.08,73.76],[-20.33,73.42],[-18.25,77.3],[-20.88,78.82],[-14.2,81.21],[-32.51,83.58],[-62.81,81.16],[-62.45,76.34],[-58.64,75.79],[-54.73,73.04],[-51.72,71.59],[-50.54,67.49],[-49.47,67.03],[-49.06,64.79],[-46.16,60.94],[-43.58,59.94],[-44.26,61.87],[-42.79,65.4],[-39.69,65.19]]]},"properties":{"NAME":null,"ABBREVN":"Greenland","SUBJECTO":null,"BORDERPRECISION":1,"PARTOF":null}},
{"type":"Feature","geometry":{"type":"MultiPolygon","coordinates":[[[[-73.11,-72.75],[-70.02,-72.67],[-68.4,-71.13],[-75.28,-71.67],[-73.11,-72.75]]],[[[-55.18,-80.94],[-44.83,-80.32],[-44.21,-78.39],[-48.85,-78.08],[-55.18,-80.94]]],[[[169.77,-83.42],[159.32,-80.03],[163.64,-78.66],[162.35,-75.11],[168.97,-73.24],[170.73,-71.9],[167.63,-70.87],[160.6,-70.22],[157.31,-69.16],[151.09,-68.89],[145.59,-67.22],[134.21,-66.18],[130.27,-66.25],[129.01,-67.03],[122.46,-66.65],[118.29,-67.07],[113.01,-65.76],[109.4,-66.71],[102.63,-65.93],[99.65,-66.55],[90,-66.61],[81.81,-67.3],[72.54,-70.24],[70.3,-72.02],[67.36,-71.71],[69.37,-67.84],[56.63,-66.94],[52.45,-65.99],[47.31,-67.77],[44.8,-67.75],[39.65,-68.93],[38.33,-70.03],[32.75,-69.35],[23.71,-70.59],[17.6,-70.08],[8.49,-70.08],[0.68,-71.32],[-7.2,-70.89],[-11.14,-71.59],[-16.4,-73.44],[-14.45,-74.06],[-18.4,-75.69],[-23.58,-75.92],[-33.16,-77.39],[-36.41,-79.16],[-29.57,-79.22],[-28.91,-80.48],[-38.03,-80.94],[-60.21,-82.33],[-74.89,-80.71],[-74.5,-78.08],[-70.56,-76.69],[-64.46,-75.69],[-60.83,-72.75],[-61.68,-70.82],[-65.38,-67.34],[-68.78,-69.81],[-67.63,-72.75],[-81.77,-74.02],[-88.57,-73.25],[-99.79,-73],[-105.64,-75.07],[-110.56,-75.3],[-113.24,-74.32],[-134.77,-74.64],[-146.67,-76.11],[-146.15,-77.46],[-154.17,-77.12],[-158.19,-77.81],[-145.67,-80.52],[-152.08,-82.6],[-148.76,-85.07],[-180,-84.32],[-180,-85.32],[-180,-86.32],[-180,-87.32],[-180,-88.32],[-180,-89.32],[-180,-90],[-179.2,-90],[-178.2,-90],[-177.2,-90],[-176.2,-90],[-175.2,-90],[-174.2,-90],[-173.2,-90],[-172.2,-90],[-171.2,-90],[-170.2,-90],[-169.2,-90],[-168.2,-90],[-167.2,-90],[-166.2,-90],[-165.2,-90],[-164.2,-90],[-163.2,-90],[-162.2,-90],[-161.2,-90],[-160.2,-90],[-159.2,-90],[-158.2,-90],[-157.2,-90],[-156.2,-90],[-155.2,-90],[-154.2,-90],[-153.2,-90],[-152.2,-90],[-151.2,-90],[-150.2,-90],[-149.2,-90],[-148.2,-90],[-147.2,-90],[-146.2,-90],[-145.2,-90],[-144.2,-90],[-143.2,-90],[-142.2,-90],[-141.2,-90],[-140.2,-90],[-139.2,-90],[-138.2,-90],[-137.2,-90],[-136.2,-90],[-135.2,-90],[-134.2,-90],[-133.2,-90],[-132.2,-90],[-131.2,-90],[-130.2,-90],[-129.2,-90],[-128.2,-90],[-127.2,-90],[-126.2,-90],[-125.2,-90],[-124.2,-90],[-123.2,-90],[-122.2,-90],[-121.2,-90],[-120.2,-90],[-119.2,-90],[-118.2,-90],[-117.2,-90],[-116.2,-90],[-115.2,-90],[-114.2,-90],[-113.2,-90],[-112.2,-90],[-111.2,-90],[-110.2,-90],[-109.2,-90],[-108.2,-90],[-107.2,-90],[-106.2,-90],[-105.2,-90],[-104.2,-90],[-103.2,-90],[-102.2,-90],[-101.2,-90],[-100.2,-90],[-99.2,-90],[-98.2,-90],[-97.2,-90],[-96.2,-90],[-95.2,-90],[-94.2,-90],[-93.2,-90],[-92.2,-90],[-91.2,-90],[-90,-90],[-89.2,-90],[-88.2,-90],[-87.2,-90],[-86.2,-90],[-85.2,-90],[-84.2,-90],[-83.2,-90],[-82.2,-90],[-81.2,-90],[-80.2,-90],[-79.2,-90],[-78.2,-90],[-77.2,-90],[-76.2,-90],[-75.2,-90],[-74.2,-90],[-73.2,-90],[-72.2,-90],[-71.2,-90],[-70.2,-90],[-69.2,-90],[-68.2,-90],[-67.2,-90],[-66.2,-90],[-65.2,-90],[-64.2,-90],[-63.2,-90],[-62.2,-90],[-61.2,-90],[-60.2,-90],[-59.2,-90],[-58.2,-90],[-57.2,-90],[-56.2,-90],[-55.2,-90],[-54.2,-90],[-53.2,-90],[-52.2,-90],[-51.2,-90],[-50.2,-90],[-49.2,-90],[-48.2,-90],[-47.2,-90],[-46.2,-90],[-45.2,-90],[-44.2,-90],[-43.2,-90],[-42.2,-90],[-41.2,-90],[-40.2,-90],[-39.2,-90],[-38.2,-90],[-37.2,-90],[-36.2,-90],[-35.2,-90],[-34.2,-90],[-33.2,-90],[-32.2,-90],[-31.2,-90],[-30.2,-90],[-29.2,-90],[-28.2,-90],[-27.2,-90],[-26.2,-90],[-25.2,-90],[-24.2,-90],[-23.2,-90],[-22.2,-90],[-21.2,-90],[-20.2,-90],[-19.2,-90],[-18.2,-90],[-17.2,-90],[-16.2,-90],[-15.2,-90],[-14.2,-90],[-13.2,-90],[-12.2,-90],[-11.2,-90],[-10.2,-90],[-9.2,-90],[-8.2,-90],[-7.2,-90],[-6.2,-90],[-5.2,-90],[-4.2,-90],[-3.2,-90],[-2.2,-90],[-1.2,-90],[-0.2,-90],[0.78,-90],[1.78,-90],[2.78,-90],[3.78,-90],[4.78,-90],[5.78,-90],[6.78,-90],[7.78,-90],[8.78,-90],[9.78,-90],[10.78,-90],[11.78,-90],[12.78,-90],[13.78,-90],[14.78,-90],[15.78,-90],[16.78,-90],[17.78,-90],[18.78,-90],[19.78,-90],[20.78,-90],[21.78,-90],[22.78,-90],[23.78,-90],[24.78,-90],[25.78,-90],[26.78,-90],[27.78,-90],[28.78,-90],[29.78,-90],[30.78,-90],[31.78,-90],[32.78,-90],[33.78,-90],[34.78,-90],[35.78,-90],[36.78,-90],[37.78,-90],[38.78,-90],[39.78,-90],[40.78,-90],[41.78,-90],[42.78,-90],[43.78,-90],[44.78,-90],[45.78,-90],[46.78,-90],[47.78,-90],[48.78,-90],[49.78,-90],[50.78,-90],[51.78,-90],[52.78,-90],[53.78,-90],[54.78,-90],[55.78,-90],[56.78,-90],[57.78,-90],[58.78,-90],[59.78,-90],[60.78,-90],[61.78,-90],[62.78,-90],[63.78,-90],[64.78,-90],[65.78,-90],[66.78,-90],[67.78,-90],[68.78,-90],[69.78,-90],[70.78,-90],[71.78,-90],[72.78,-90],[73.78,-90],[74.78,-90],[75.78,-90],[76.78,-90],[77.78,-90],[78.78,-90],[79.78,-90],[80.78,-90],[81.78,-90],[82.78,-90],[83.78,-90],[84.78,-90],[85.78,-90],[86.78,-90],[87.78,-90],[88.78,-90],[89.78,-90],[89.8,-90],[90,-90],[91.78,-90],[92.78,-90],[93.78,-90],[94.78,-90],[95.78,-90],[96.78,-90],[97.78,-90],[98.78,-90],[99.78,-90],[100.78,-90],[101.78,-90],[102.78,-90],[103.78,-90],[104.78,-90],[105.78,-90],[106.78,-90],[107.78,-90],[108.78,-90],[109.78,-90],[110.78,-90],[111.78,-90],[112.78,-90],[113.78,-90],[114.78,-90],[115.78,-90],[116.78,-90],[117.78,-90],[118.78,-90],[119.78,-90],[120.78,-90],[121.78,-90],[122.78,-90],[123.78,-90],[124.78,-90],[125.78,-90],[126.78,-90],[127.78,-90],[128.78,-90],[129.78,-90],[130.78,-90],[131.78,-90],[132.78,-90],[133.78,-90],[134.78,-90],[135.78,-90],[136.78,-90],[137.78,-90],[138.78,-90],[139.78,-90],[140.78,-90],[141.78,-90],[142.78,-90],[143.78,-90],[144.78,-90],[145.78,-90],[146.78,-90],[147.78,-90],[148.78,-90],[149.78,-90],[150.78,-90],[151.78,-90],[152.78,-90],[153.78,-90],[154.78,-90],[155.78,-90],[156.78,-90],[157.78,-90],[158.78,-90],[159.78,-90],[160.78,-90],[161.78,-90],[162.78,-90],[163.78,-90],[164.78,-90],[165.78,-90],[166.78,-90],[167.78,-90],[168.78,-90],[169.78,-90],[170.78,-90],[171.78,-90],[172.78,-90],[173.78,-90],[174.78,-90],[175.78,-90],[176.78,-90],[177.78,-90],[178.78,-90],[180,-90],[180,-89.32],[180,-88.32],[180,-87.32],[180,-86.32],[180,-85.32],[180,-84.34],[169.77,-83.42]]]]},"properties":{"NAME":null,"ABBREVN":null,"SUBJECTO":null,"BORDERPRECISION":1,"PARTOF":null}},
{"type":"Feature","geometry":{"type":"MultiPolygon","coordinates":[[[[140.87,-2.79],[137.85,-1.61],[135.25,-3.54],[134.28,-2.85],[133.91,-1.01],[132.25,-0.53],[131.21,-1.02],[134.04,-3.95],[137.82,-5.43],[139.16,-7.73],[140.95,-9.27],[142.61,-9.38],[144.38,-7.76],[145.82,-8.1],[147.87,-10.18],[148.59,-9.16],[146.91,-6.89],[147.38,-6.12],[143.45,-3.61],[140.87,-2.79]]],[[[120.43,0.64],[119.91,0.54],[118.68,-2.9],[120.14,-3.08],[121.87,-4.96],[122.26,-3.21],[119.87,-0.46],[120.43,0.64]]]]},"properties":{"NAME":null,"ABBREVN":"unclaimed","SUBJECTO":null,"BORDERPRECISION":1,"PARTOF":null}},
{"type":"Feature","geometry":{"type":"Polygon","coordinates":[[[13.25,79.8],[11.76,78.88],[15.1,77.12],[19.12,78.45],[13.25,79.8]]]},"properties":{"NAME":null,"ABBREVN":null,"SUBJECTO":null,"BORDERPRECISION":1,"PARTOF":null}},
{"type":"Feature","geometry":{"type":"Polygon","coordinates":[[[80.56,5.93],[81.87,7.08],[80.66,9.3],[79.67,8.8],[80.56,5.93]]]},"properties":{"NAME":"Simhala","ABBREVN":"Simhala","SUBJECTO":"Simhala","BORDERPRECISION":1,"PARTOF":"Simhala"}},
{"type":"Feature","geometry":{"type":"Polygon","coordinates":[[[-100.49,20.9],[-100.75,19.59],[-99.14,18.92],[-99.11,20.59],[-100.49,20.9]]]},"properties":{"NAME":"Teotihuacàn","ABBREVN":"Teotihuacàn","SUBJECTO":"Teotihuacàn","BORDERPRECISION":1,"PARTOF":"Teotihuacàn"}},
{"type":"Feature","geometry":{"type":"Polygon","coordinates":[[[-96.21,17.89],[-98.59,17.99],[-99.02,16.82],[-96.44,16.22],[-96.19,17.88],[-96.21,17.89]]]},"properties":{"NAME":"Monte Albàn","ABBREVN":"Monte Albàn","SUBJECTO":"Monte Albàn","BORDERPRECISION":1,"PARTOF":"Monte Albàn"}},
{"type":"Feature","geometry":{"type":"Polygon","coordinates":[[[-87.57,15.91],[-88.66,15.73],[-87.2,21.53],[-90,21.16],[-90,19.38],[-92.94,18.59],[-93.14,16.98],[-93.59,15.74],[-91.24,13.95],[-90,13.75],[-88.24,14.84],[-87.57,15.91]]]},"properties":{"NAME":"Maya states","ABBREVN":"Maya","SUBJECTO":"Maya states","BORDERPRECISION":1,"PARTOF":"Maya states"}},
{"type":"Feature","geometry":{"type":"Polygon","coordinates":[[[-155.77,20.21],[-156.03,19.11],[-154.95,19.48],[-155.77,20.21]]]},"properties":{"NAME":null,"ABBREVN":null,"SUBJECTO":null,"BORDERPRECISION":1,"PARTOF":null}},
{"type":"Feature","geometry":{"type":"Polygon","coordinates":[[[-58.14,48.6],[-56.08,47.87],[-54.13,48.84],[-57.36,50.6],[-58.14,48.6]]]},"properties":{"NAME":"Dorset","ABBREVN":"Dorset","SUBJECTO":"Dorset","BORDERPRECISION":1,"PARTOF":"Dorset"}},
{"type":"Feature","geometry":{"type":"Polygon","coordinates":[[[-96.19,17.88],[-93.14,16.98],[-92.94,18.59],[-94.24,18.24],[-96.01,18.93],[-97.53,21.25],[-98.45,19.79],[-97.23,18.23],[-96.21,17.89],[-96.19,17.88]]]},"properties":{"NAME":"Veracruz civilization","ABBREVN":"Veracruz","SUBJECTO":"Veracruz civilization","BORDERPRECISION":1,"PARTOF":"Veracruz civilization"}},
{"type":"Feature","geometry":{"type":"Polygon","coordinates":[[[-7.23,55.1],[-8.59,54.2],[-9.82,51.43],[-6.41,52.21],[-7.23,55.1]]]},"properties":{"NAME":null,"ABBREVN":null,"SUBJECTO":null,"BORDERPRECISION":1,"PARTOF":null}},
{"type":"Feature","geometry":{"type":"MultiPolygon","coordinates":[[[[127.23,34.71],[127.22,34.71],[127.01,34.6],[126.99,34.55],[127.23,34.71]]],[[[126.83,34.44],[126.82,34.44],[126.8,34.46],[126.77,34.58],[126.68,34.43],[126.67,34.41],[126.82,34.43],[126.83,34.44]]],[[[126.5,34.33],[126.48,34.35],[126.46,34.48],[126.62,34.62],[126.37,34.79],[126.5,36.72],[126.77,37.23],[126.66,37.41],[126.67,37.49],[126.67,37.53],[126.39,37.61],[126.23,35.16],[126.41,34.27],[126.5,34.33]]]]},"properties":{"NAME":"Paekche","ABBREVN":"Paekche","SUBJECTO":"Paekche","BORDERPRECISION":1,"PARTOF":"Paekche"}},
{"type":"Feature","geometry":{"type":"Polygon","coordinates":[[[126.67,37.53],[126.66,37.54],[126.66,37.55],[126.55,37.65],[127.13,38.3],[128.01,38.31],[128.15,38.34],[128.24,38.4],[128.26,38.41],[128.27,38.42],[128.14,38.53],[127.96,38.69],[127.4,39.08],[125.29,38.69],[126.39,37.61],[126.67,37.53]]]},"properties":{"NAME":"Silla","ABBREVN":"Silla","SUBJECTO":"Silla","BORDERPRECISION":1,"PARTOF":"Silla"}},
{"type":"Feature","geometry":{"type":"Polygon","coordinates":[[[-80.89,-5.9],[-79.06,-8.22],[-76.65,-12.84],[-75.99,-12.19],[-78.57,-7.1],[-80.35,-5.31],[-80.89,-5.9]]]},"properties":{"NAME":"Moche","ABBREVN":"Moche","SUBJECTO":"Moche","BORDERPRECISION":1,"PARTOF":"Moche"}},
{"type":"Feature","geometry":{"type":"Polygon","coordinates":[[[-90,13.75],[-87.95,13.17],[-86.01,11.37],[-85.78,10.14],[-81.66,8.16],[-80.81,7.27],[-79.07,9.03],[-77.4,6.67],[-77.11,3.79],[-78.98,1.3],[-80.09,0.82],[-80.97,-1.03],[-80.14,-3.41],[-81.42,-4.68],[-80.89,-5.9],[-80.35,-5.31],[-78.57,-7.1],[-75.99,-12.19],[-76.65,-12.84],[-76.24,-13.91],[-75.56,-12.87],[-73.89,-14.85],[-74.62,-15.67],[-71.61,-17.22],[-70.58,-18.08],[-70.11,-20.69],[-65.91,-18.31],[-64.66,-16.8],[-64.19,-14.69],[-69.05,-8.24],[-70.16,-5.74],[-66.41,3.04],[-62.66,4.15],[-58.56,3.98],[-55.86,1.7],[-55.8,0.88],[-57.97,-0.59],[-58.44,-2.29],[-56.33,-4.33],[-54.16,-4.63],[-49.07,-4.74],[-45.37,-3.17],[-44.55,-3.1],[-44.8,-1.74],[-47.24,-0.68],[-49.22,-2.11],[-50.64,-1.88],[-51.53,-0.43],[-49.88,1.21],[-51.21,4.07],[-54.29,5.88],[-56.75,6],[-58.58,6.98],[-59.83,8.44],[-61.7,8.61],[-65.97,8.18],[-70.68,8.56],[-71.1,9.33],[-72.38,11.81],[-75.45,10.63],[-76.76,8.69],[-79.5,9.64],[-80.96,8.86],[-82.23,9.05],[-83.91,11.25],[-83.31,14.77],[-84.65,15.93],[-87.57,15.91],[-88.24,14.84],[-90,13.75]]]},"properties":{"NAME":null,"ABBREVN":null,"SUBJECTO":null,"BORDERPRECISION":1,"PARTOF":null}},
{"type":"Feature","geometry":{"type":"Polygon","coordinates":[[[30.81,23.86],[29.49,20.28],[30.35,16.93],[30.79,17.32],[35.19,17.58],[34.42,20.51],[33.35,23.35],[33.66,24.02],[30.81,23.86]]]},"properties":{"NAME":"Makkura","ABBREVN":"Makkura","SUBJECTO":"Makkura","BORDERPRECISION":1,"PARTOF":"Makkura"}},
{"type":"Feature","geometry":{"type":"Polygon","coordinates":[[[30.35,16.93],[30.74,11.2],[32.04,8.8],[34.3,8.05],[36.15,8],[38.64,9.7],[42.64,13.09],[42.41,13.18],[40.74,14.92],[39.52,15.46],[38.64,18.06],[35.19,17.58],[30.79,17.32],[30.35,16.93]]]},"properties":{"NAME":"Axum","ABBREVN":"Axum","SUBJECTO":"Axum","BORDERPRECISION":1,"PARTOF":"Axum"}},
{"type":"Feature","geometry":{"type":"Polygon","coordinates":[[[35.07,29.21],[34.89,28.36],[39.1,22.4],[39.53,20.69],[41.41,21.28],[42.34,20.72],[45.48,16],[46.68,15.8],[50.77,16.79],[52.36,16.23],[55.19,17.15],[55.56,17.94],[57.84,19.03],[59.84,22.28],[57.15,23.98],[56.02,25.77],[54.35,24.15],[51.59,24],[49.94,25.96],[47.61,29.27],[39.49,33.36],[38.38,33.53],[36.47,29.57],[35.07,29.21]]]},"properties":{"NAME":null,"ABBREVN":null,"SUBJECTO":null,"BORDERPRECISION":1,"PARTOF":null}},
{"type":"Feature","geometry":{"type":"Polygon","coordinates":[[[39.53,20.69],[40.69,19.87],[42.76,16.65],[42.8,15.47],[43.84,12.66],[46.6,13.4],[51.31,15.25],[52.36,16.23],[50.77,16.79],[46.68,15.8],[45.48,16],[42.34,20.72],[41.41,21.28],[39.53,20.69]]]},"properties":{"NAME":"Himyarite Kingdom","ABBREVN":"Himyarite K.","SUBJECTO":"Himyarite Kingdom","BORDERPRECISION":1,"PARTOF":"Himyarite Kingdom"}},
{"type":"Feature","geometry":{"type":"MultiPolygon","coordinates":[[[[33.66,24.02],[35.19,24.4],[33.93,26.56],[35.07,29.21],[36.47,29.57],[38.38,33.53],[39.97,35.77],[40.39,39.72],[41.68,41.79],[40.36,40.96],[36.38,41.24],[33.56,41.98],[30.74,41.04],[26.13,39.88],[27.16,37.36],[30.47,36.19],[31.37,36.71],[33.17,35.97],[35.71,36.21],[35.87,34.42],[34.5,31.62],[33.56,30.97],[31,31.47],[29.25,30.75],[23.15,32.14],[21.67,32.82],[20.37,32.3],[19.66,30.44],[18.61,30.37],[18.61,29.41],[22.31,29.96],[26.74,28.57],[28.41,27.74],[30.81,23.86],[33.66,24.02]]],[[[29.62,45.41],[28.04,44.38],[25.26,43.82],[19.07,45.54],[18.84,42.24],[19.37,40.26],[21.23,37.9],[23.56,38.35],[23.17,38.67],[22.6,38.86],[22.87,39.02],[22.72,39.29],[22.6,40.4],[28.83,40.91],[27.5,42.52],[29.62,45.41]]]]},"properties":{"NAME":"Eastern Roman Empire","ABBREVN":"E. Roman Emp","SUBJECTO":"Eastern Roman Empire","BORDERPRECISION":1,"PARTOF":"Eastern Roman Empire"}},
{"type":"Feature","geometry":{"type":"Polygon","coordinates":[[[107.33,15.3],[107.64,13.74],[107.1,10.41],[108.7,11.15],[109.31,12.91],[108.79,15.09],[107.69,16.37],[107.33,15.3]]]},"properties":{"NAME":"Champa","ABBREVN":"Champa","SUBJECTO":"Champa","BORDERPRECISION":1,"PARTOF":"Champa"}},
{"type":"Feature","geometry":{"type":"MultiPolygon","coordinates":[[[[136.73,34.87],[136.19,36.2],[134.43,34.63],[135.76,33.34],[136.73,34.87]]],[[[130.74,30.89],[131.83,32.69],[130.43,33.67],[129.34,33.15],[130.74,30.89]]]]},"properties":{"NAME":"Yamato","ABBREVN":"Yamato","SUBJECTO":"Yamato","BORDERPRECISION":1,"PARTOF":"Yamato"}},
{"type":"Feature","geometry":{"type":"Polygon","coordinates":[[[136.73,34.87],[138.15,34.53],[140.32,35.03],[140.87,37.92],[142,39.67],[141.15,40.87],[139.2,37.92],[136.19,36.2],[136.73,34.87]]]},"properties":{"NAME":null,"ABBREVN":null,"SUBJECTO":null,"BORDERPRECISION":1,"PARTOF":null}},
{"type":"Feature","geometry":{"type":"Polygon","coordinates":[[[127.4,39.08],[129.48,40.68],[129.64,41.66],[127.3,43.24],[124.7,42.31],[124.11,39.88],[125.29,38.69],[127.4,39.08]]]},"properties":{"NAME":"Koguryo","ABBREVN":"Koguryo","SUBJECTO":"Koguryo","BORDERPRECISION":1,"PARTOF":"Koguryo"}},
{"type":"Feature","geometry":{"type":"Polygon","coordinates":[[[124.7,42.31],[123.87,43.05],[119.04,42.31],[118.21,40.83],[116.17,40.64],[111.1,40.87],[106.18,41.37],[102.98,40.18],[97.02,40.85],[96.27,39.73],[96.94,38.39],[99.85,37.35],[102.83,35.49],[103.35,33.18],[107.6,33.77],[109.69,33.1],[111.77,33.85],[114.83,33.62],[116.91,34.29],[116.91,36.75],[118.88,37.95],[117.59,38.28],[121.01,40.85],[124.11,39.88],[124.7,42.31]]]},"properties":{"NAME":"Toba Wei","ABBREVN":"Toba Wei","SUBJECTO":"Toba Wei","BORDERPRECISION":1,"PARTOF":"Toba Wei"}},
{"type":"Feature","geometry":{"type":"Polygon","coordinates":[[[56.96,73.36],[60.89,75.25],[59.02,75.8],[54.02,73.73],[56.96,73.36]]]},"properties":{"NAME":null,"ABBREVN":null,"SUBJECTO":null,"BORDERPRECISION":1,"PARTOF":null}},
{"type":"Feature","geometry":{"type":"Polygon","coordinates":[[[71.63,35.84],[70.29,31.29],[75.59,33.65],[76,34.68],[77.22,36.28],[74.2,37.49],[71.63,35.84]]]},"properties":{"NAME":"Kushan Principalities","ABBREVN":"Kushan Prin.","SUBJECTO":"Kushan Principalities","BORDERPRECISION":1,"PARTOF":"Kushan Principalities"}},
{"type":"Feature","geometry":{"type":"Polygon","coordinates":[[[47.61,29.27],[50.13,30.07],[51.35,28.04],[54.65,26.39],[56.79,26.97],[57.25,25.79],[61.34,25.03],[66.43,25.49],[67.39,28.23],[70.29,31.29],[71.63,35.84],[71.23,38.21],[69.65,37.09],[67.06,37.12],[62.7,39.99],[54.07,36.94],[51.8,36.43],[48.84,37.51],[49.81,40.58],[48.25,42.25],[41.68,41.79],[40.39,39.72],[39.97,35.77],[38.38,33.53],[39.49,33.36],[47.61,29.27]]]},"properties":{"NAME":"Sasanian Empire","ABBREVN":"Sasanian E","SUBJECTO":"Sasanian Empire","BORDERPRECISION":1,"PARTOF":"Sasanian Empire"}},
{"type":"Feature","geometry":{"type":"Polygon","coordinates":[[[70.29,31.29],[67.39,28.23],[66.43,25.49],[67.32,24.09],[68.79,23.03],[69.13,21.97],[71.02,20.66],[72.93,20.95],[74.92,22.15],[76.78,21.84],[80.09,22.09],[79.87,19.67],[80.18,16.68],[79.58,15.47],[79.71,12.93],[79.92,12.11],[80.09,15.18],[81.37,16.35],[86.12,19.81],[87.64,21.56],[90,21.93],[91.41,22.72],[92.92,20.37],[91.88,23.64],[90,24.31],[94.19,25.72],[92.63,27.09],[88,25.87],[86.51,25.87],[83.61,26.92],[78.76,30.79],[76,34.68],[75.59,33.65],[70.29,31.29]]]},"properties":{"NAME":"Gupta Empire","ABBREVN":"Gupta Empire","SUBJECTO":"Gupta Empire","BORDERPRECISION":1,"PARTOF":"Gupta Empire"}},
{"type":"Feature","geometry":{"type":"Polygon","coordinates":[[[72.93,20.95],[72.76,20.06],[73.41,16.56],[74.15,14.85],[77,14.97],[79.58,15.47],[80.18,16.68],[79.87,19.67],[80.09,22.09],[76.78,21.84],[74.92,22.15],[72.93,20.95]]]},"properties":{"NAME":"Vakataka","ABBREVN":"Vakataka","SUBJECTO":"Vakataka","BORDERPRECISION":1,"PARTOF":"Vakataka"}},
{"type":"Feature","geometry":{"type":"Polygon","coordinates":[[[76.65,8.9],[78.24,8.9],[77.63,9.12],[76.65,8.9]]]},"properties":{"NAME":"Pandyas","ABBREVN":"Pandyas","SUBJECTO":"Pandyas","BORDERPRECISION":1,"PARTOF":"Hindu kingdoms"}},
{"type":"Feature","geometry":{"type":"Polygon","coordinates":[[[8.58,3.07],[8.83,3.61],[8.48,3.56],[8.58,3.07]]]},"properties":{"NAME":null,"ABBREVN":null,"SUBJECTO":null,"BORDERPRECISION":1,"PARTOF":null}},
{"type":"Feature","geometry":{"type":"Polygon","coordinates":[[[22.87,38.84],[23.12,38.87],[23.64,38.52],[23.79,38.72],[23.24,39.04],[22.87,38.84]]]},"properties":{"NAME":null,"ABBREVN":null,"SUBJECTO":null,"BORDERPRECISION":1,"PARTOF":null}},
{"type":"Feature","geometry":{"type":"Polygon","coordinates":[[[24.66,37.9],[25.32,37.4],[25.27,37.56],[24.76,38],[24.66,37.9]]]},"properties":{"NAME":null,"ABBREVN":null,"SUBJECTO":null,"BORDERPRECISION":1,"PARTOF":null}},
{"type":"Feature","geometry":{"type":"Polygon","coordinates":[[[-68.2,12.22],[-68.36,12.31],[-68.29,12.1],[-68.2,12.22]]]},"properties":{"NAME":null,"ABBREVN":null,"SUBJECTO":null,"BORDERPRECISION":1,"PARTOF":null}},
{"type":"Feature","geometry":{"type":"Polygon","coordinates":[[[-61.67,17.08],[-61.79,17.16],[-61.89,17.03],[-61.74,16.99],[-61.67,17.08]]]},"properties":{"NAME":null,"ABBREVN":null,"SUBJECTO":null,"BORDERPRECISION":1,"PARTOF":null}},
{"type":"Feature","geometry":{"type":"Polygon","coordinates":[[[-68.97,12.2],[-69.08,12.35],[-69.16,12.31],[-69.06,12.19],[-68.83,12.05],[-68.82,12.16],[-68.97,12.2]]]},"properties":{"NAME":null,"ABBREVN":null,"SUBJECTO":null,"BORDERPRECISION":1,"PARTOF":null}},
{"type":"Feature","geometry":{"type":"Polygon","coordinates":[[[-61.6,12.19],[-61.72,12.17],[-61.79,12.01],[-61.64,12.03],[-61.6,12.19]]]},"properties":{"NAME":null,"ABBREVN":null,"SUBJECTO":null,"BORDERPRECISION":1,"PARTOF":null}},
{"type":"Feature","geometry":{"type":"Polygon","coordinates":[[[-62.17,16.67],[-62.14,16.69],[-62.18,16.81],[-62.24,16.71],[-62.17,16.67]]]},"properties":{"NAME":null,"ABBREVN":null,"SUBJECTO":null,"BORDERPRECISION":1,"PARTOF":null}},
{"type":"Feature","geometry":{"type":"Polygon","coordinates":[[[-62.54,17.18],[-62.61,17.19],[-62.61,17.1],[-62.54,17.11],[-62.54,17.18]]]},"properties":{"NAME":null,"ABBREVN":null,"SUBJECTO":null,"BORDERPRECISION":1,"PARTOF":null}},
{"type":"Feature","geometry":{"type":"Polygon","coordinates":[[[-62.69,17.28],[-62.73,17.37],[-62.81,17.41],[-62.86,17.37],[-62.78,17.29],[-62.69,17.28]]]},"properties":{"NAME":null,"ABBREVN":null,"SUBJECTO":null,"BORDERPRECISION":1,"PARTOF":null}},
{"type":"Feature","geometry":{"type":"Polygon","coordinates":[[[-61.09,16.3],[-61.04,16.31],[-60.99,16.34],[-61.02,16.35],[-61.09,16.3]]]},"properties":{"NAME":null,"ABBREVN":null,"SUBJECTO":null,"BORDERPRECISION":1,"PARTOF":null}},
{"type":"Feature","geometry":{"type":"Polygon","coordinates":[[[-62.97,17.46],[-62.94,17.49],[-62.99,17.52],[-63,17.49],[-62.97,17.46]]]},"properties":{"NAME":null,"ABBREVN":null,"SUBJECTO":null,"BORDERPRECISION":1,"PARTOF":null}},
{"type":"Feature","geometry":{"type":"Polygon","coordinates":[[[-1.58,54.97],[-2.74,55.96],[-2.15,57.57],[-5.76,57.62],[-5.63,55.94],[-3.15,54.84],[-2.06,54.93],[-1.58,54.97]]]},"properties":{"NAME":null,"ABBREVN":null,"SUBJECTO":null,"BORDERPRECISION":1,"PARTOF":null}},
{"type":"Feature","geometry":{"type":"Polygon","coordinates":[[[-5.76,55.48],[-5.48,55.44],[-5.52,55.67],[-5.69,55.63],[-5.76,55.48]]]},"properties":{"NAME":null,"ABBREVN":null,"SUBJECTO":null,"BORDERPRECISION":1,"PARTOF":null}},
{"type":"Feature","geometry":{"type":"Polygon","coordinates":[[[-71.1,47.13],[-66.37,50.31],[-60.14,50.41],[-55.66,52.19],[-56.13,53.47],[-58.79,52.57],[-60.17,53.3],[-60.22,53.32],[-62.89,54.73],[-65.64,55.26],[-71.03,55.2],[-74.2,52.93],[-78.74,52.74],[-79.59,51.27],[-82.34,52.98],[-82.2,54.97],[-87.47,55.91],[-90.44,57.14],[-92.4,56.98],[-93.82,56.86],[-102.14,57.21],[-111.28,58.55],[-118.2,62.71],[-124.94,64.83],[-132.43,62.5],[-139.52,62.42],[-144.68,63.19],[-150.13,63.32],[-160.94,63.98],[-165.43,62.43],[-165.9,61.27],[-162,58.83],[-158.29,58.73],[-156.68,57.4],[-154.28,59.25],[-149.33,60.03],[-148.49,61.06],[-144.41,60.09],[-139.57,59.9],[-137.58,58.6],[-134.12,58.24],[-130.66,54.96],[-130.48,54.97],[-129.85,55],[-128.59,55.06],[-125.7,55.19],[-115.03,52.03],[-114.47,52],[-105.19,51.45],[-98.92,50.23],[-97.2,50.11],[-97.15,50.41],[-98.72,52.23],[-101.21,53.27],[-101.05,54.62],[-97.09,55.07],[-95.27,53.86],[-96.2,52.38],[-93.99,50.64],[-90.71,50.27],[-91.08,49.95],[-87.79,49.93],[-85.04,49.09],[-81.93,48.9],[-76.06,47.31],[-74.19,47.97],[-71.1,47.13]]]},"properties":{"NAME":"Subarctic forest hunter-gatherers","ABBREVN":"Subarctic forest hunter-gatherers","SUBJECTO":"Subarctic forest hunter-gatherers","BORDERPRECISION":1,"PARTOF":"Subarctic forest hunter-gatherers"}},
{"type":"Feature","geometry":{"type":"Polygon","coordinates":[[[142.34,-10.92],[141.68,-12.47],[141.71,-15.23],[140.8,-17.56],[139.25,-17.43],[135.39,-14.9],[136.66,-12.62],[133.56,-11.95],[130.46,-12.76],[129.2,-14.99],[126.85,-13.78],[122.74,-16.58],[122.2,-18.24],[120.87,-19.68],[116.42,-20.84],[113.63,-22.57],[113.43,-26.57],[114.63,-28.9],[115.75,-32.21],[115.05,-34.42],[116.56,-35.19],[118.21,-35.09],[119.77,-34.12],[123.62,-33.92],[126.06,-32.43],[131.28,-31.63],[133.84,-32.34],[135.53,-35.05],[137.46,-33.31],[139.37,-35.61],[140.01,-37.64],[143.36,-38.97],[144.97,-38.07],[145.93,-38.88],[149.5,-37.93],[151.36,-33.52],[152.97,-31.42],[153.49,-28.84],[153.07,-26.23],[150.75,-22.81],[149.56,-22.43],[149.1,-21.06],[146.32,-19.08],[145.18,-15.05],[143.74,-14.47],[143.17,-12.12],[142.34,-10.92]]]},"properties":{"NAME":"Australian aboriginal hunter-gatherers","ABBREVN":"Australian aboriginal hunter-gatherers","SUBJECTO":"Australian aboriginal hunter-gatherers","BORDERPRECISION":1,"PARTOF":"Australian aboriginal hunter-gatherers"}},
{"type":"Feature","geometry":{"type":"Polygon","coordinates":[[[146.71,-43.72],[147.82,-42.97],[148.27,-41.09],[144.78,-40.84],[145.72,-43.24],[146.71,-43.72]]]},"properties":{"NAME":"Tasmanian hunter-gatherers","ABBREVN":"Tasmanian hunter-gatherers","SUBJECTO":"Tasmanian hunter-gatherers","BORDERPRECISION":1,"PARTOF":"Tasmanian hunter-gatherers"}},
{"type":"Feature","geometry":{"type":"MultiPolygon","coordinates":[[[[143.06,53.06],[141.77,53.27],[142.49,47.9],[143.63,50.23],[143.06,53.06]]],[[[140.01,41.38],[141.93,42.5],[143.21,41.93],[145.06,43.79],[141.88,45.44],[141.3,43.19],[139.71,42.48],[140.01,41.38]]]]},"properties":{"NAME":"Ainu","ABBREVN":"Ainu","SUBJECTO":"Ainu","BORDERPRECISION":1,"PARTOF":"Ainu"}},
{"type":"Feature","geometry":{"type":"Polygon","coordinates":[[[105.4,72.75],[98.46,69.79],[75.86,61.43],[62.81,56.96],[59.09,56.43],[65.31,55.05],[78.36,56.41],[93.7,56.48],[99.49,55.66],[107.96,59.82],[114.02,59.55],[116.71,54.66],[119.94,51.26],[127.34,49.98],[134.87,52.01],[141.05,52.69],[140.1,53.8],[134.99,54.85],[137.23,55.98],[142.85,59.27],[148.42,59.1],[154.32,59.98],[157.1,61.63],[160.64,60.72],[163.33,60.69],[158.33,58.03],[156.78,57.58],[155.47,54.92],[156.7,50.96],[161.5,55.29],[162.51,57.03],[161.8,58.1],[163.39,59.81],[165.78,60.35],[170.34,60.28],[169.48,61.19],[172.44,63.08],[171.77,65.86],[168.14,67.46],[155.89,68.17],[130.87,69.9],[124.54,71.59],[123.5,73.5],[123.41,73.48],[111.76,73.66],[105.6,72.74],[105.4,72.75]]]},"properties":{"NAME":"Paleo-Siberian hunter-gatherers","ABBREVN":"Paleo-Siberian hunter-gatherers","SUBJECTO":"Paleo-Siberian hunter-gatherers","BORDERPRECISION":1,"PARTOF":"Paleo-Siberian hunter-gatherers"}},
{"type":"Feature","geometry":{"type":"Polygon","coordinates":[[[25.2,65.27],[34.73,65.78],[34.73,65.8],[39.19,66.04],[40.83,67.66],[35.44,69.15],[29.73,69.7],[28.31,70.95],[20.16,69.75],[13.17,66.46],[10.16,64.1],[11.53,61.9],[15.43,61.87],[17.94,62.55],[20.7,63.82],[22.65,65.93],[25.25,65.42],[25.2,65.27]]]},"properties":{"NAME":"Saami","ABBREVN":"Saami","SUBJECTO":"Saami","BORDERPRECISION":1,"PARTOF":"Saami"}},
{"type":"Feature","geometry":{"type":"MultiPolygon","coordinates":[[[[-91.08,49.95],[-91.44,49.63],[-88.16,48.99],[-86.46,48.95],[-83.49,47.46],[-83.09,46.19],[-80.53,45.65],[-76.06,47.31],[-81.93,48.9],[-85.04,49.09],[-87.79,49.93],[-91.08,49.95]]],[[[-80.9,32.04],[-75.73,35.88],[-75.67,37.9],[-73.74,40.98],[-70.3,41.76],[-70.22,43.8],[-67.17,44.71],[-65.71,43.56],[-61.03,45.38],[-64.53,46.27],[-64.95,49.21],[-68.34,48.55],[-70.36,46.88],[-70.56,45.31],[-75.59,43.68],[-78.29,41.02],[-79.98,37.58],[-82.14,36.96],[-85.56,37.55],[-88.51,36.06],[-90.81,38.01],[-93.43,38.34],[-94.12,36.33],[-94.12,35.88],[-92.22,33.32],[-90.66,33.45],[-89.79,30.69],[-87.97,30.58],[-88.16,31],[-89.67,31.78],[-88.54,32.82],[-88.38,33.19],[-90.62,34.17],[-88.41,35.47],[-88.06,35.17],[-85.85,34.43],[-85.77,34.16],[-82.39,34.14],[-80.9,32.04]]],[[[-76.21,43.56],[-75.59,43.68],[-76.18,43.61],[-76.21,43.56]]],[[[-78.82,43.31],[-79.27,43.67],[-80.29,44.52],[-80.5,44.59],[-80.02,42.81],[-79.19,42.85],[-78.82,43.31]]],[[[-82.77,42.27],[-81.86,42.26],[-82.17,43.08],[-82.46,43.2],[-82.77,42.27]]],[[[-79.56,42.39],[-81.95,41.51],[-81.96,41.15],[-82.28,40.91],[-80.29,41.34],[-79.56,42.39]]],[[[-87.35,41.17],[-89.19,39.42],[-86.55,39.41],[-83.66,40.61],[-84.05,40.74],[-84.75,41.69],[-84.74,41.72],[-87.35,41.17]]],[[[-86.45,44.13],[-83.74,43.62],[-84.17,45.59],[-86.1,44.76],[-86.45,44.13]]],[[[-94.51,47.39],[-94.23,46.72],[-94.12,40.14],[-92.57,40.87],[-94.11,42.03],[-91.95,43.69],[-93.49,45.19],[-92.21,45.76],[-89.32,44.49],[-87.79,42.84],[-87.2,45.57],[-89.29,46.89],[-91.2,47.33],[-93.64,47.13],[-94.51,47.39]]],[[[-87.51,32.81],[-87.51,32.82],[-88.54,32.82],[-87.51,32.81]]],[[[-83.7,29.87],[-82.43,27.83],[-80.59,28.49],[-81.38,30],[-83.7,29.87]]]]},"properties":{"NAME":"Eastern North Amercian hunter-gatherers","ABBREVN":"Eastern North Amercian hunter-gatherers","SUBJECTO":"Eastern North Amercian hunter-gatherers","BORDERPRECISION":1,"PARTOF":"Eastern North Amercian hunter-gatherers"}},
{"type":"Feature","geometry":{"type":"Polygon","coordinates":[[[105.4,72.75],[105.28,72.75],[113.63,75.27],[113.53,76.09],[103.39,77.56],[99.47,75.97],[91.63,75.65],[89.8,75.52],[87.69,73.9],[80.46,73.31],[79.22,72.27],[73.22,71.46],[74.74,67.69],[72.84,67.65],[72.71,72.77],[69.34,72.83],[66.82,71.11],[66.58,68.89],[62.28,69.71],[57.02,68.45],[53.89,68.79],[44.38,66.61],[39.95,65.58],[37.41,63.75],[35.08,64.29],[34.73,65.61],[34.73,65.78],[25.2,65.27],[25.19,65.24],[21.2,62.44],[29.02,61.77],[32.52,60.93],[46.11,57.71],[53.98,57.71],[59.09,56.43],[62.81,56.96],[75.86,61.43],[98.46,69.79],[105.4,72.75]]]},"properties":{"NAME":"Finno-Ugric taiga hunter-gatherers","ABBREVN":"Finno-Ugric taiga hunter-gatherers","SUBJECTO":"Finno-Ugric taiga hunter-gatherers","BORDERPRECISION":1,"PARTOF":"Finno-Ugric taiga hunter-gatherers"}},
{"type":"Feature","geometry":{"type":"MultiPolygon","coordinates":[[[[-43.58,59.94],[-39.69,65.19],[-42.79,65.4],[-44.26,61.87],[-43.58,59.94]]],[[[-50.54,67.49],[-50.94,67.53],[-53.1,65.87],[-48.92,61.42],[-46.16,60.94],[-49.06,64.79],[-49.47,67.03],[-50.54,67.49]]],[[[-62.81,81.16],[-65.48,79.16],[-72.38,78.53],[-67.04,75.94],[-62.45,76.34],[-62.81,81.16]]],[[[-92.4,56.98],[-94.75,59.95],[-93.42,61.86],[-89.87,63.58],[-89.86,63.65],[-90.01,63.9],[-89.99,64.03],[-88.38,64.06],[-85.99,66.16],[-83.14,66.37],[-81.29,67.5],[-84.31,69.83],[-86.49,67.38],[-89.74,68.53],[-93.27,71.56],[-96.7,70.84],[-92.96,69.08],[-96.21,68.07],[-101.91,67.71],[-105.64,68.35],[-112.5,67.69],[-115.29,68.89],[-127.35,70.38],[-131.67,69.28],[-137.73,69.02],[-145.27,70.12],[-156.9,71.35],[-160.24,70.86],[-164.07,69.06],[-163.74,67.22],[-168.18,65.69],[-166.59,64.73],[-160.94,63.98],[-150.13,63.32],[-144.68,63.19],[-139.52,62.42],[-132.43,62.5],[-124.94,64.83],[-118.2,62.71],[-111.28,58.55],[-102.14,57.21],[-93.82,56.86],[-92.4,56.98]]],[[[-60.22,53.32],[-57.52,54.47],[-61.93,56.27],[-62.89,58.66],[-69.21,58.75],[-70.03,60.88],[-73.39,62.35],[-77.36,62.52],[-78.34,58.55],[-76.44,56.81],[-77.23,55.61],[-79.55,54.69],[-78.74,52.74],[-74.2,52.93],[-71.03,55.2],[-65.64,55.26],[-62.89,54.73],[-60.22,53.32]]],[[[-56.13,53.47],[-57.56,54.13],[-60.17,53.3],[-58.79,52.57],[-56.13,53.47]]],[[[170.34,60.28],[170.52,60.34],[173.48,61.6],[179.29,62.82],[178.15,64.16],[180,64.95],[180,65.05],[180,65.31],[180,65.38],[180,65.96],[180,66.96],[180,67.96],[180,68.92],[175.61,69.78],[167.32,69.66],[159.44,69.76],[158.41,70.81],[152.13,70.66],[146.92,72.2],[141.29,72.79],[137.63,71.08],[126.22,72.38],[124.22,73.7],[123.5,73.5],[124.54,71.59],[130.87,69.9],[155.89,68.17],[168.14,67.46],[171.77,65.86],[172.44,63.08],[169.48,61.19],[170.34,60.28]]],[[[-75.62,69.1],[-72.3,67.26],[-75.79,65.2],[-73.16,64.57],[-71.32,63.06],[-66.5,63.08],[-64.47,63.74],[-67.61,65.91],[-62.84,65.61],[-61.21,66.64],[-68.67,68.72],[-71.25,71.35],[-81.53,73.69],[-88.1,73.64],[-90,71.54],[-87.95,70.38],[-82.27,69.86],[-78.71,70.01],[-75.62,69.1]]],[[[-81.91,64.52],[-85.56,65.86],[-85.46,63.21],[-81.91,64.52]]],[[[-123.49,74.45],[-125.62,71.99],[-120.84,71.53],[-117.69,73.22],[-123.49,74.45]]],[[[-117.22,72.86],[-117.57,69.99],[-113.15,68.6],[-106.85,69.45],[-104.19,68.9],[-101.06,70.03],[-104.62,71.09],[-110.35,71.2],[-117.22,72.86]]],[[[-88.33,74.68],[-80.35,74.62],[-81.7,75.87],[-88.33,74.68]]],[[[-75.92,82.52],[-78.32,80.97],[-83.62,80.21],[-87.27,76.5],[-78.21,76.55],[-78.37,78.03],[-71.45,79.85],[-62.43,82.63],[-75.92,82.52]]],[[[-170.47,66.29],[-180,68.92],[-180,67.96],[-180,66.96],[-180,65.96],[-180,65.38],[-180,65.31],[-180,65.26],[-178.12,65.48],[-173.08,64.38],[-170.47,66.29]]]]},"properties":{"NAME":"Arctic marine mammal hunters","ABBREVN":"Arctic marine mammal hunters","SUBJECTO":"Arctic marine mammal hunters","BORDERPRECISION":1,"PARTOF":"Arctic marine mammal hunters"}},
{"type":"Feature","geometry":{"type":"Polygon","coordinates":[[[-70.11,-20.69],[-70.4,-25.25],[-71.43,-29.1],[-71.62,-33.71],[-73.67,-37.5],[-73.19,-39.57],[-73.91,-40.84],[-72.73,-41.55],[-72.07,-40.55],[-69.44,-37.16],[-67.65,-33.58],[-67.48,-31.66],[-69.32,-29.3],[-68.62,-26.67],[-67.12,-25.03],[-65.91,-18.31],[-70.11,-20.69]]]},"properties":{"NAME":"Andean hunter-gatherers","ABBREVN":"Andean hunter-gatherers","SUBJECTO":"Andean hunter-gatherers","BORDERPRECISION":1,"PARTOF":"Andean hunter-gatherers"}},
{"type":"Feature","geometry":{"type":"Polygon","coordinates":[[[-52.14,-31.74],[-54.36,-30.59],[-57.35,-29.68],[-63.56,-30.04],[-67.48,-31.66],[-67.65,-33.58],[-69.44,-37.16],[-72.07,-40.55],[-70.58,-40.58],[-71.63,-43.2],[-72.19,-45.99],[-72.04,-48.77],[-71.17,-51.56],[-69.11,-51.35],[-69.17,-51.15],[-65.78,-47.23],[-67.33,-46.53],[-65.44,-44.89],[-64.94,-40.83],[-62.96,-41.14],[-61.36,-39.03],[-57.81,-38.39],[-56.7,-36.94],[-57.42,-36],[-56.34,-35],[-54.07,-34.65],[-52.14,-31.75],[-52.14,-31.74]]]},"properties":{"NAME":"Pampas cultures","ABBREVN":"Pampas cultures","SUBJECTO":"Pampas cultures","BORDERPRECISION":1,"PARTOF":"Pampas cultures"}},
{"type":"Feature","geometry":{"type":"MultiPolygon","coordinates":[[[[-61.7,8.61],[-61.53,9.85],[-64.07,10.63],[-64.88,10.14],[-67.98,10.54],[-69.75,11.53],[-71.5,10.65],[-71.1,9.33],[-70.68,8.56],[-65.97,8.18],[-61.7,8.61]]],[[[-48.64,-1.06],[-50.5,-0.26],[-50.48,-1.68],[-48.64,-1.06]]]]},"properties":{"NAME":"Caribbean hunter-gatherers","ABBREVN":"Caribbean hunter-gatherers","SUBJECTO":"Caribbean hunter-gatherers","BORDERPRECISION":1,"PARTOF":"Caribbean hunter-gatherers"}},
{"type":"Feature","geometry":{"type":"MultiPolygon","coordinates":[[[[-69.11,-51.35],[-71.17,-51.56],[-72.04,-48.77],[-72.19,-45.99],[-71.63,-43.2],[-70.58,-40.58],[-72.07,-40.55],[-72.73,-41.55],[-73.57,-46.26],[-74.31,-48.75],[-73.41,-52.02],[-71.87,-53.7],[-69.08,-51.5],[-69.11,-51.35]]],[[[-69.21,-54.93],[-66.98,-54.34],[-68.31,-52.94],[-70.33,-53.47],[-69.21,-54.93]]]]},"properties":{"NAME":"Patagonian shellfish and marine mammal hunters","ABBREVN":"Patagonian shellfish and marine mammal hunters","SUBJECTO":"Patagonian shellfish and marine mammal hunters","BORDERPRECISION":1,"PARTOF":"Patagonian shellfish and marine mammal hunters"}},
{"type":"Feature","geometry":{"type":"Polygon","coordinates":[[[-48.73,-28.37],[-48.72,-25.43],[-44.56,-22.99],[-43.24,-23.03],[-43.28,-21.59],[-45.94,-21.75],[-49.49,-24.55],[-49.84,-26.8],[-48.8,-28.48],[-48.73,-28.37]]]},"properties":{"NAME":"Shellfish gatherers","ABBREVN":"Shellfish gatherers","SUBJECTO":"Shellfish gatherers","BORDERPRECISION":1,"PARTOF":"Shellfish gatherers"}},
{"type":"Feature","geometry":{"type":"Polygon","coordinates":[[[-65.91,-18.31],[-67.12,-25.03],[-68.62,-26.67],[-69.32,-29.3],[-67.48,-31.66],[-63.56,-30.04],[-57.35,-29.68],[-54.36,-30.59],[-52.14,-31.74],[-52.04,-31.56],[-48.85,-28.56],[-48.8,-28.48],[-49.84,-26.8],[-49.49,-24.55],[-45.94,-21.75],[-43.28,-21.59],[-43.24,-23.03],[-41.96,-22.92],[-39.69,-19.41],[-38.95,-16],[-39.13,-14.32],[-37.19,-10.84],[-35.6,-9.63],[-34.89,-7.61],[-35.46,-5.27],[-37.89,-4.39],[-39.94,-8.29],[-48.32,-13.92],[-51.54,-14.38],[-60.27,-13.81],[-64.19,-14.69],[-64.66,-16.8],[-65.91,-18.31]]]},"properties":{"NAME":"Savanna hunter-gatherers","ABBREVN":"Savanna hunter-gatherers","SUBJECTO":"Savanna hunter-gatherers","BORDERPRECISION":1,"PARTOF":"Savanna hunter-gatherers"}},
{"type":"Feature","geometry":{"type":"Polygon","coordinates":[[[-64.19,-14.69],[-60.27,-13.81],[-51.54,-14.38],[-48.32,-13.92],[-39.94,-8.29],[-37.89,-4.39],[-40.23,-2.85],[-43.33,-2.43],[-44.55,-3.1],[-45.37,-3.17],[-49.07,-4.74],[-54.16,-4.63],[-56.33,-4.33],[-58.44,-2.29],[-57.97,-0.59],[-55.8,0.88],[-55.86,1.7],[-58.56,3.98],[-62.66,4.15],[-66.41,3.04],[-70.16,-5.74],[-69.05,-8.24],[-64.19,-14.69]]]},"properties":{"NAME":"Amazon hunter-gatherers","ABBREVN":"Amazon hunter-gatherers","SUBJECTO":"Amazon hunter-gatherers","BORDERPRECISION":1,"PARTOF":"Amazon hunter-gatherers"}},
{"type":"Feature","geometry":{"type":"Polygon","coordinates":[[[-120.13,34.52],[-119.78,34.46],[-117.5,33.33],[-115.6,29.69],[-114.07,28.42],[-114.48,27.24],[-112.41,26.19],[-112.17,25.01],[-110.8,24.88],[-112.87,28.33],[-114.68,30.14],[-113.05,31.14],[-111.69,28.5],[-110.6,27.86],[-107.56,27.76],[-104.22,25.12],[-100.36,23.97],[-97.82,24.14],[-97.26,25.81],[-97.45,27.99],[-97.21,28.07],[-98.19,29.18],[-104.52,33.87],[-111.55,41.64],[-111.67,41.94],[-119.02,43.11],[-120.47,43.57],[-121.36,39.69],[-120.13,34.52]]]},"properties":{"NAME":"Desert hunter-gatherers","ABBREVN":"Desert hunter-gatherers","SUBJECTO":"Desert hunter-gatherers","BORDERPRECISION":1,"PARTOF":"Desert hunter-gatherers"}},
{"type":"Feature","geometry":{"type":"Polygon","coordinates":[[[-128.59,55.06],[-124.76,52.45],[-120.48,48.96],[-120.47,43.57],[-119.02,43.11],[-111.67,41.94],[-114.13,47.95],[-114.47,52],[-115.03,52.03],[-125.7,55.19],[-128.59,55.06]]]},"properties":{"NAME":"Plateau fichers and hunter gatherers","ABBREVN":"Plateau fichers and hunter gatherers","SUBJECTO":"Plateau fichers and hunter gatherers","BORDERPRECISION":1,"PARTOF":"Plateau fichers and hunter gatherers"}},
{"type":"Feature","geometry":{"type":"Polygon","coordinates":[[[-129.85,55],[-130,53.94],[-127.56,52.17],[-127.25,50.97],[-122.61,48.83],[-124.68,48.39],[-124.14,44.79],[-124.16,44.73],[-124.23,44.45],[-124.63,43.01],[-123.8,39.03],[-120.2,34.53],[-120.13,34.52],[-121.36,39.69],[-120.47,43.57],[-120.48,48.96],[-124.76,52.45],[-128.59,55.06],[-129.85,55]]]},"properties":{"NAME":"North American Pacifi foraging, hunting and fishing peoples","ABBREVN":"North American Pacifi foraging, hunting and fishing peoples","SUBJECTO":"North American Pacifi foraging, hunting and fishing peoples","BORDERPRECISION":1,"PARTOF":"North American Pacifi foraging, hunting and fishing peoples"}},
{"type":"Feature","geometry":{"type":"Polygon","coordinates":[[[30.74,11.2],[24.07,11.18],[23.2,11.78],[20.44,11.97],[17.75,12.83],[8.27,12.37],[2.35,13.29],[-6.26,13.35],[-8.91,12.64],[-10.18,14.21],[-13.4,14.92],[-16.87,14.36],[-16.77,12.6],[-13.68,9.92],[-12.26,7.35],[-9.25,5.17],[-7.53,4.34],[-5,5.24],[-2.03,4.7],[1.56,6.24],[3.95,6.58],[5.45,5.48],[5.36,5.37],[12.6,7.73],[22.22,6.2],[33.93,2.84],[36.02,1.3],[38.77,-2.27],[40.45,-1.36],[40.86,0.32],[42.54,1.26],[44.14,1.15],[44.3,1.29],[46.36,2.67],[48.47,5.2],[50.78,9.37],[51.18,11.78],[47.39,11.16],[44.28,10.4],[42.64,13.09],[38.64,9.7],[39.14,9.06],[38.61,6.6],[35.58,5.53],[33.02,6.86],[32.04,8.8],[30.74,11.2]]]},"properties":{"NAME":"West African cereal farmers","ABBREVN":"West African cereal farmers","SUBJECTO":"West African cereal farmers","BORDERPRECISION":1,"PARTOF":"West African cereal farmers"}},
{"type":"Feature","geometry":{"type":"Polygon","coordinates":[[[101.66,52.6],[81.78,51.11],[75.3,47.41],[73.44,44.51],[76.36,43.62],[89.16,42.27],[107.36,44.03],[116.32,45.45],[113.33,53.47],[111.18,53.31],[112.36,52.14],[109.65,50.76],[105.59,50.35],[101.53,50.38],[101.66,52.6]]]},"properties":{"NAME":"Ruanruan","ABBREVN":"Ruanruan","SUBJECTO":"Ruanruan","BORDERPRECISION":1,"PARTOF":"Ruanruan"}},
{"type":"Feature","geometry":{"type":"Polygon","coordinates":[[[32.04,8.8],[33.02,6.86],[35.58,5.53],[38.61,6.6],[39.14,9.06],[38.64,9.7],[36.15,8],[34.3,8.05],[32.04,8.8]]]},"properties":{"NAME":null,"ABBREVN":null,"SUBJECTO":null,"BORDERPRECISION":1,"PARTOF":null}},
{"type":"Feature","geometry":{"type":"Polygon","coordinates":[[[35.19,17.58],[38.64,18.06],[37.4,18.92],[37.13,21.23],[34.42,20.51],[35.19,17.58]]]},"properties":{"NAME":null,"ABBREVN":null,"SUBJECTO":null,"BORDERPRECISION":1,"PARTOF":null}},
{"type":"Feature","geometry":{"type":"Polygon","coordinates":[[[34.42,20.51],[37.13,21.23],[35.75,22.91],[35.19,24.4],[33.66,24.02],[33.35,23.35],[34.42,20.51]]]},"properties":{"NAME":"Blemmyes","ABBREVN":"Blemmyes","SUBJECTO":"Blemmyes","BORDERPRECISION":1,"PARTOF":"Blemmyes"}},
{"type":"Feature","geometry":{"type":"Polygon","coordinates":[[[-94.12,35.88],[-94.28,35.13],[-92.22,33.32],[-94.12,35.88]]]},"properties":{"NAME":"Poverty point culture","ABBREVN":"Poverty point culture","SUBJECTO":"Poverty point culture","BORDERPRECISION":1,"PARTOF":"Poverty point culture"}},
{"type":"Feature","geometry":{"type":"Polygon","coordinates":[[[-92.22,33.32],[-93.81,31.94],[-94.12,31.64],[-94.12,29.69],[-90.78,29.11],[-89.79,30.69],[-90.66,33.45],[-92.22,33.32]]]},"properties":{"NAME":"Marksville Culture","ABBREVN":"Marksville Culture","SUBJECTO":"Marksville Culture","BORDERPRECISION":1,"PARTOF":"Marksville Culture"}},
{"type":"Feature","geometry":{"type":"Polygon","coordinates":[[[-93.81,31.94],[-96.04,32.99],[-95.47,31.69],[-94.12,31.64],[-93.81,31.94]]]},"properties":{"NAME":"Mill Creek Culture","ABBREVN":"Mill Creek Culture","SUBJECTO":"Mill Creek Culture","BORDERPRECISION":1,"PARTOF":"Mill Creek Culture"}},
{"type":"Feature","geometry":{"type":"Polygon","coordinates":[[[-85.77,34.16],[-85.77,34.15],[-86.99,32.82],[-87.3,31.3],[-85.3,29.66],[-83.7,29.87],[-81.38,30],[-80.9,32.04],[-82.39,34.14],[-85.77,34.16]]]},"properties":{"NAME":"Swift Creek Culture","ABBREVN":"Swift Creek Culture","SUBJECTO":"Swift Creek Culture","BORDERPRECISION":1,"PARTOF":"Swift Creek Culture"}},
{"type":"Feature","geometry":{"type":"Polygon","coordinates":[[[-88.38,33.19],[-87.9,34.41],[-88.13,34.93],[-88.06,35.17],[-88.41,35.47],[-90.62,34.17],[-88.38,33.19]]]},"properties":{"NAME":"Miller","ABBREVN":"Miller","SUBJECTO":"Miller","BORDERPRECISION":1,"PARTOF":"Miller"}},
{"type":"Feature","geometry":{"type":"MultiPolygon","coordinates":[[[[-97.2,50.11],[-97.28,49.57],[-95.62,47.72],[-94.51,47.39],[-93.64,47.13],[-91.2,47.33],[-88.16,48.99],[-91.44,49.63],[-91.08,49.95],[-90.71,50.27],[-93.99,50.64],[-96.2,52.38],[-95.27,53.86],[-97.09,55.07],[-101.05,54.62],[-101.21,53.27],[-98.72,52.23],[-97.15,50.41],[-97.2,50.11]]],[[[-86.46,48.95],[-84.44,46.82],[-87.27,46.51],[-89.29,46.89],[-87.2,45.57],[-86.1,44.76],[-84.17,45.59],[-83.49,47.46],[-86.46,48.95]]]]},"properties":{"NAME":"Laurel complex","ABBREVN":"Laurel complex","SUBJECTO":"Laurel complex","BORDERPRECISION":1,"PARTOF":"Laurel complex"}},
{"type":"Feature","geometry":{"type":"Polygon","coordinates":[[[-88.06,35.17],[-88.13,34.93],[-87.9,34.41],[-88.38,33.19],[-88.54,32.82],[-87.51,32.82],[-86.99,32.82],[-85.77,34.15],[-85.77,34.16],[-85.85,34.43],[-88.06,35.17]]]},"properties":{"NAME":"Copena","ABBREVN":"Copena","SUBJECTO":"Copena","BORDERPRECISION":1,"PARTOF":"Copena"}},
{"type":"Feature","geometry":{"type":"Polygon","coordinates":[[[-88.16,31],[-87.3,31.3],[-86.99,32.82],[-87.47,32.81],[-87.51,32.81],[-88.54,32.82],[-89.67,31.78],[-88.16,31]]]},"properties":{"NAME":"Porter","ABBREVN":"Porter","SUBJECTO":"Porter","BORDERPRECISION":1,"PARTOF":"Porter"}},
{"type":"Feature","geometry":{"type":"MultiPolygon","coordinates":[[[[-84.74,41.72],[-84.45,42.89],[-83.74,43.62],[-86.45,44.13],[-86.49,44],[-86.51,43.68],[-87.03,41.69],[-87.22,41.63],[-87.38,41.63],[-87.35,41.17],[-84.74,41.72]]],[[[-87.48,41.69],[-88.16,41.94],[-87.38,41.63],[-87.48,41.69]]]]},"properties":{"NAME":"Goodall Focus","ABBREVN":"Goodall Focus","SUBJECTO":"Goodall Focus","BORDERPRECISION":1,"PARTOF":"Goodall Focus"}},
{"type":"Feature","geometry":{"type":"Polygon","coordinates":[[[-75.59,43.68],[-76.21,43.56],[-76.18,43.61],[-76.95,44.25],[-77.08,44.13],[-77.12,44.05],[-77.13,44.02],[-77.29,43.94],[-77.3,43.94],[-79.27,43.67],[-78.82,43.31],[-79.19,42.85],[-79.56,42.39],[-80.29,41.34],[-82.28,40.91],[-82.44,40.79],[-83.64,40.6],[-83.66,40.61],[-86.55,39.41],[-89.19,39.42],[-87.35,41.17],[-87.38,41.63],[-88.16,41.94],[-87.79,42.82],[-87.79,42.84],[-89.32,44.49],[-92.21,45.76],[-93.49,45.19],[-91.95,43.69],[-94.11,42.03],[-92.57,40.87],[-94.12,40.14],[-95.36,39.95],[-95.79,37.17],[-94.12,36.33],[-93.43,38.34],[-90.81,38.01],[-88.51,36.06],[-85.56,37.55],[-82.14,36.96],[-79.98,37.58],[-78.29,41.02],[-75.59,43.68]]]},"properties":{"NAME":"Hopewell Culture","ABBREVN":"Hopewell Culture","SUBJECTO":"Hopewell Culture","BORDERPRECISION":1,"PARTOF":"Hopewell Culture"}},
{"type":"Feature","geometry":{"type":"Polygon","coordinates":[[[-80.5,44.59],[-82.17,43.08],[-81.86,42.26],[-80.02,42.81],[-80.5,44.59]]]},"properties":{"NAME":"Saugeen Complex","ABBREVN":"Saugeen Complex","SUBJECTO":"Saugeen Complex","BORDERPRECISION":1,"PARTOF":"Saugeen Complex"}},
{"type":"Feature","geometry":{"type":"Polygon","coordinates":[[[-82.46,43.2],[-83.74,43.62],[-84.45,42.89],[-84.74,41.72],[-84.75,41.69],[-84.05,40.74],[-83.66,40.61],[-83.64,40.6],[-82.44,40.79],[-82.28,40.91],[-81.96,41.15],[-81.95,41.51],[-82.77,42.27],[-82.46,43.2]]]},"properties":{"NAME":"Couture Complex","ABBREVN":"Couture Complex","SUBJECTO":"Couture Complex","BORDERPRECISION":1,"PARTOF":"Couture Complex"}},
{"type":"Feature","geometry":{"type":"Polygon","coordinates":[[[-76.06,47.31],[-80.53,45.65],[-79.95,44.77],[-80.29,44.52],[-79.27,43.67],[-77.3,43.94],[-77.29,43.94],[-77.13,44.02],[-77.12,44.05],[-77.08,44.13],[-76.95,44.25],[-76.18,43.61],[-75.59,43.68],[-70.56,45.31],[-70.36,46.88],[-71.1,47.13],[-74.19,47.97],[-76.06,47.31]]]},"properties":{"NAME":"Point Peninsula","ABBREVN":"Point Peninsula","SUBJECTO":"Point Peninsula","BORDERPRECISION":1,"PARTOF":"Point Peninsula"}},
{"type":"Feature","geometry":{"type":"Polygon","coordinates":[[[-114.47,52],[-114.13,47.95],[-111.67,41.94],[-111.55,41.64],[-104.52,33.87],[-98.19,29.18],[-97.21,28.07],[-97.12,28.11],[-97.05,28.12],[-96.83,28.16],[-94.12,29.69],[-94.12,31.64],[-95.47,31.69],[-96.04,32.99],[-96.04,33.01],[-95.46,33.03],[-96.26,34.62],[-94.28,35.13],[-94.12,35.88],[-94.12,36.33],[-95.79,37.17],[-95.36,39.95],[-94.12,40.14],[-94.23,46.72],[-94.51,47.39],[-95.62,47.72],[-97.28,49.57],[-97.2,50.11],[-98.92,50.23],[-105.19,51.45],[-114.47,52]]]},"properties":{"NAME":"Plain bison hunters","ABBREVN":"Plain bison hunters","SUBJECTO":"Plain bison hunters","BORDERPRECISION":1,"PARTOF":"Plain bison hunters"}},
{"type":"Feature","geometry":{"type":"Polygon","coordinates":[[[-76.24,-13.91],[-74.62,-15.67],[-73.89,-14.85],[-75.56,-12.87],[-76.24,-13.91]]]},"properties":{"NAME":"Nazca","ABBREVN":"Nazca","SUBJECTO":"Nazca","BORDERPRECISION":1,"PARTOF":"Nazca"}},
{"type":"Feature","geometry":{"type":"Polygon","coordinates":[[[-82.43,27.83],[-81.1,25.13],[-80.05,26.55],[-80.59,28.49],[-82.43,27.83]]]},"properties":{"NAME":"Caloosahatchee cultureure","ABBREVN":"Caloosahatchee cultureure","SUBJECTO":"Caloosahatchee cultureure","BORDERPRECISION":1,"PARTOF":"Caloosahatchee cultureure"}},
{"type":"Feature","geometry":{"type":"Polygon","coordinates":[[[-6.26,13.35],[-4.55,15.11],[-5.18,17.2],[-7.46,19.44],[-9.91,17.89],[-11.18,15.46],[-10.18,14.21],[-8.91,12.64],[-6.26,13.35]]]},"properties":{"NAME":"Empire of Ghana","ABBREVN":"Empire of Ghana","SUBJECTO":"Empire of Ghana","BORDERPRECISION":1,"PARTOF":"Empire of Ghana"}},
{"type":"Feature","geometry":{"type":"Polygon","coordinates":[[[-4.15,53.23],[-4.28,53.4],[-4.57,53.27],[-4.35,53.12],[-4.15,53.23]]]},"properties":{"NAME":null,"ABBREVN":null,"SUBJECTO":null,"BORDERPRECISION":1,"PARTOF":null}},
{"type":"Feature","geometry":{"type":"Polygon","coordinates":[[[-5.1,55.44],[-5.15,55.67],[-5.4,55.6],[-5.1,55.44]]]},"properties":{"NAME":null,"ABBREVN":null,"SUBJECTO":null,"BORDERPRECISION":1,"PARTOF":null}},
{"type":"Feature","geometry":{"type":"Polygon","coordinates":[[[-6.12,55.88],[-6.33,55.59],[-6.02,55.68],[-6.12,55.88]]]},"properties":{"NAME":null,"ABBREVN":null,"SUBJECTO":null,"BORDERPRECISION":1,"PARTOF":null}},
{"type":"Feature","geometry":{"type":"Polygon","coordinates":[[[-5.95,55.83],[-5.75,56.06],[-5.97,56.02],[-6.08,55.91],[-5.95,55.83]]]},"properties":{"NAME":null,"ABBREVN":null,"SUBJECTO":null,"BORDERPRECISION":1,"PARTOF":null}},
{"type":"Feature","geometry":{"type":"Polygon","coordinates":[[[-7.47,56.94],[-7.38,56.98],[-7.45,57.06],[-7.55,56.97],[-7.47,56.94]]]},"properties":{"NAME":null,"ABBREVN":null,"SUBJECTO":null,"BORDERPRECISION":1,"PARTOF":null}},
{"type":"Feature","geometry":{"type":"Polygon","coordinates":[[[-7.22,57.34],[-7.42,57.38],[-7.38,57.11],[-7.23,57.09],[-7.22,57.34]]]},"properties":{"NAME":null,"ABBREVN":null,"SUBJECTO":null,"BORDERPRECISION":1,"PARTOF":null}},
{"type":"Feature","geometry":{"type":"Polygon","coordinates":[[[-7.27,57.4],[-7.2,57.46],[-7.35,57.49],[-7.39,57.42],[-7.27,57.4]]]},"properties":{"NAME":null,"ABBREVN":null,"SUBJECTO":null,"BORDERPRECISION":1,"PARTOF":null}},
{"type":"Feature","geometry":{"type":"Polygon","coordinates":[[[-7.19,57.69],[-7.48,57.56],[-7.15,57.51],[-7.19,57.69]]]},"properties":{"NAME":null,"ABBREVN":null,"SUBJECTO":null,"BORDERPRECISION":1,"PARTOF":null}},
{"type":"Feature","geometry":{"type":"Polygon","coordinates":[[[-7.01,57.88],[-6.99,57.92],[-7.07,57.9],[-7.01,57.88]]]},"properties":{"NAME":null,"ABBREVN":null,"SUBJECTO":null,"BORDERPRECISION":1,"PARTOF":null}},
{"type":"Feature","geometry":{"type":"Polygon","coordinates":[[[-6.2,58.36],[-7.03,58.24],[-6.47,57.94],[-6.2,58.36]]]},"properties":{"NAME":null,"ABBREVN":null,"SUBJECTO":null,"BORDERPRECISION":1,"PARTOF":null}},
{"type":"Feature","geometry":{"type":"Polygon","coordinates":[[[-2.92,58.73],[-2.88,58.82],[-3.04,58.82],[-2.92,58.73]]]},"properties":{"NAME":null,"ABBREVN":null,"SUBJECTO":null,"BORDERPRECISION":1,"PARTOF":null}},
{"type":"Feature","geometry":{"type":"Polygon","coordinates":[[[-3.23,58.78],[-3.14,58.8],[-3.34,58.93],[-3.43,58.87],[-3.23,58.78]]]},"properties":{"NAME":null,"ABBREVN":null,"SUBJECTO":null,"BORDERPRECISION":1,"PARTOF":null}},
{"type":"Feature","geometry":{"type":"Polygon","coordinates":[[[-2.79,58.95],[-3.08,59.12],[-3.19,58.91],[-2.79,58.95]]]},"properties":{"NAME":null,"ABBREVN":null,"SUBJECTO":null,"BORDERPRECISION":1,"PARTOF":null}},
{"type":"Feature","geometry":{"type":"Polygon","coordinates":[[[-2.68,59.2],[-2.62,59.24],[-2.5,59.24],[-2.41,59.31],[-2.59,59.29],[-2.68,59.2]]]},"properties":{"NAME":null,"ABBREVN":null,"SUBJECTO":null,"BORDERPRECISION":1,"PARTOF":null}},
{"type":"Feature","geometry":{"type":"Polygon","coordinates":[[[-2.89,59.3],[-3.05,59.33],[-3,59.26],[-2.97,59.29],[-2.89,59.3]]]},"properties":{"NAME":null,"ABBREVN":null,"SUBJECTO":null,"BORDERPRECISION":1,"PARTOF":null}},
{"type":"Feature","geometry":{"type":"Polygon","coordinates":[[[-1.3,60.49],[-1.32,60.36],[-1.65,60.23],[-1.13,60.15],[-1.04,60.45],[-1.3,60.49]]]},"properties":{"NAME":null,"ABBREVN":null,"SUBJECTO":null,"BORDERPRECISION":1,"PARTOF":null}},
{"type":"Feature","geometry":{"type":"Polygon","coordinates":[[[-1.03,60.5],[-0.99,60.72],[-1.18,60.64],[-1.03,60.5]]]},"properties":{"NAME":null,"ABBREVN":null,"SUBJECTO":null,"BORDERPRECISION":1,"PARTOF":null}},
{"type":"Feature","geometry":{"type":"Polygon","coordinates":[[[-0.82,60.69],[-0.77,60.83],[-0.94,60.79],[-0.97,60.69],[-0.82,60.69]]]},"properties":{"NAME":null,"ABBREVN":null,"SUBJECTO":null,"BORDERPRECISION":1,"PARTOF":null}},
{"type":"Feature","geometry":{"type":"Polygon","coordinates":[[[-6.71,61.94],[-6.72,62.03],[-7.19,62.31],[-7.23,62.17],[-6.71,61.94]]]},"properties":{"NAME":null,"ABBREVN":null,"SUBJECTO":null,"BORDERPRECISION":1,"PARTOF":null}},
{"type":"Feature","geometry":{"type":"Polygon","coordinates":[[[-4.78,54.06],[-4.39,54.19],[-4.53,54.37],[-4.78,54.06]]]},"properties":{"NAME":null,"ABBREVN":null,"SUBJECTO":null,"BORDERPRECISION":1,"PARTOF":null}},
{"type":"Feature","geometry":{"type":"Polygon","coordinates":[[[18.21,56.91],[18.71,57.24],[18.81,57.7],[18.11,57.52],[18.21,56.91]]]},"properties":{"NAME":null,"ABBREVN":null,"SUBJECTO":null,"BORDERPRECISION":1,"PARTOF":null}},
{"type":"Feature","geometry":{"type":"Polygon","coordinates":[[[129.72,28.45],[129.16,28.23],[129.37,28.12],[129.72,28.45]]]},"properties":{"NAME":null,"ABBREVN":null,"SUBJECTO":null,"BORDERPRECISION":1,"PARTOF":null}},
{"type":"Feature","geometry":{"type":"Polygon","coordinates":[[[129.96,29.96],[129.94,30],[129.92,29.98],[129.96,29.96]]]},"properties":{"NAME":null,"ABBREVN":null,"SUBJECTO":null,"BORDERPRECISION":1,"PARTOF":null}},
{"type":"Feature","geometry":{"type":"Polygon","coordinates":[[[129.9,29.87],[129.88,29.83],[129.92,29.82],[129.9,29.87]]]},"properties":{"NAME":null,"ABBREVN":null,"SUBJECTO":null,"BORDERPRECISION":1,"PARTOF":null}},
{"type":"Feature","geometry":{"type":"Polygon","coordinates":[[[130.91,30.35],[131.07,30.69],[130.95,30.68],[130.91,30.35]]]},"properties":{"NAME":null,"ABBREVN":null,"SUBJECTO":null,"BORDERPRECISION":1,"PARTOF":null}},
{"type":"Feature","geometry":{"type":"Polygon","coordinates":[[[130.56,30.24],[130.67,30.37],[130.51,30.46],[130.39,30.4],[130.56,30.24]]]},"properties":{"NAME":null,"ABBREVN":null,"SUBJECTO":null,"BORDERPRECISION":1,"PARTOF":null}},
{"type":"Feature","geometry":{"type":"Polygon","coordinates":[[[128.9,32.64],[128.65,32.78],[128.61,32.61],[128.9,32.64]]]},"properties":{"NAME":null,"ABBREVN":null,"SUBJECTO":null,"BORDERPRECISION":1,"PARTOF":null}},
{"type":"Feature","geometry":{"type":"Polygon","coordinates":[[[128.27,38.42],[128.26,38.41],[128.24,38.4],[128.15,38.34],[128.01,38.31],[127.13,38.3],[126.55,37.65],[126.66,37.55],[126.66,37.54],[126.67,37.53],[126.67,37.49],[126.66,37.41],[126.77,37.23],[126.5,36.72],[126.37,34.79],[126.62,34.62],[126.46,34.48],[126.48,34.35],[126.5,34.33],[126.52,34.32],[126.56,34.3],[126.6,34.3],[126.67,34.41],[126.68,34.43],[126.77,34.58],[126.8,34.46],[126.82,34.44],[126.83,34.44],[126.89,34.41],[126.9,34.45],[126.99,34.53],[126.99,34.54],[126.99,34.55],[127.01,34.6],[127.22,34.71],[127.23,34.71],[127.27,34.73],[127.33,34.74],[127.35,34.69],[127.24,34.57],[127.32,34.44],[127.55,34.66],[128.45,34.85],[129.14,35.11],[129.44,35.48],[129.34,37.26],[128.53,38.33],[128.28,38.43],[128.27,38.42]]]},"properties":{"NAME":null,"ABBREVN":null,"SUBJECTO":null,"BORDERPRECISION":1,"PARTOF":null}},
{"type":"Feature","geometry":{"type":"Polygon","coordinates":[[[123.87,24.25],[123.92,24.37],[123.77,24.41],[123.68,24.32],[123.87,24.25]]]},"properties":{"NAME":null,"ABBREVN":null,"SUBJECTO":null,"BORDERPRECISION":1,"PARTOF":null}},
{"type":"Feature","geometry":{"type":"Polygon","coordinates":[[[125.36,24.78],[125.26,24.88],[125.25,24.74],[125.36,24.78]]]},"properties":{"NAME":null,"ABBREVN":null,"SUBJECTO":null,"BORDERPRECISION":1,"PARTOF":null}},
{"type":"Feature","geometry":{"type":"Polygon","coordinates":[[[124.26,24.46],[124.08,24.42],[124.12,24.34],[124.23,24.34],[124.26,24.46]]]},"properties":{"NAME":null,"ABBREVN":null,"SUBJECTO":null,"BORDERPRECISION":1,"PARTOF":null}},
{"type":"Feature","geometry":{"type":"Polygon","coordinates":[[[128.25,26.64],[128.25,26.84],[127.96,26.54],[128.25,26.64]]]},"properties":{"NAME":null,"ABBREVN":null,"SUBJECTO":null,"BORDERPRECISION":1,"PARTOF":null}},
{"type":"Feature","geometry":{"type":"Polygon","coordinates":[[[126.76,26.39],[126.7,26.35],[126.78,26.3],[126.81,26.35],[126.76,26.39]]]},"properties":{"NAME":null,"ABBREVN":null,"SUBJECTO":null,"BORDERPRECISION":1,"PARTOF":null}},
{"type":"Feature","geometry":{"type":"Polygon","coordinates":[[[128.95,27.68],[129.03,27.77],[128.9,27.9],[128.9,27.73],[128.95,27.68]]]},"properties":{"NAME":null,"ABBREVN":null,"SUBJECTO":null,"BORDERPRECISION":1,"PARTOF":null}},
{"type":"Feature","geometry":{"type":"Polygon","coordinates":[[[128.61,27.36],[128.7,27.45],[128.52,27.41],[128.61,27.36]]]},"properties":{"NAME":null,"ABBREVN":null,"SUBJECTO":null,"BORDERPRECISION":1,"PARTOF":null}},
{"type":"Feature","geometry":{"type":"Polygon","coordinates":[[[129.99,28.28],[130.03,28.35],[129.94,28.32],[129.99,28.28]]]},"properties":{"NAME":null,"ABBREVN":null,"SUBJECTO":null,"BORDERPRECISION":1,"PARTOF":null}},
{"type":"Feature","geometry":{"type":"Polygon","coordinates":[[[129.34,28.08],[129.34,28.11],[129.22,28.18],[129.22,28.1],[129.34,28.08]]]},"properties":{"NAME":null,"ABBREVN":null,"SUBJECTO":null,"BORDERPRECISION":1,"PARTOF":null}},
{"type":"Feature","geometry":{"type":"Polygon","coordinates":[[[129.73,29.61],[129.75,29.65],[129.71,29.65],[129.73,29.61]]]},"properties":{"NAME":null,"ABBREVN":null,"SUBJECTO":null,"BORDERPRECISION":1,"PARTOF":null}},
{"type":"Feature","geometry":{"type":"Polygon","coordinates":[[[91.63,75.65],[90,75.6],[89.8,75.52],[91.63,75.65]]]},"properties":{"NAME":null,"ABBREVN":null,"SUBJECTO":null,"BORDERPRECISION":1,"PARTOF":null}},
{"type":"Feature","geometry":{"type":"Polygon","coordinates":[[[11.53,61.9],[9.83,63.68],[5.15,61.74],[5.62,58.46],[8.15,58.09],[10.55,59.38],[13.3,55.3],[15.77,56.03],[16.68,58.64],[15.29,59.42],[18.89,59.93],[17.15,60.95],[17.94,62.55],[15.43,61.87],[11.53,61.9]]]},"properties":{"NAME":null,"ABBREVN":null,"SUBJECTO":null,"BORDERPRECISION":1,"PARTOF":null}},
{"type":"Feature","geometry":{"type":"Polygon","coordinates":[[[-3.15,54.84],[-2.91,53.27],[-4.32,53.09],[-4.6,50.78],[-2.35,50.63],[-2.06,54.93],[-3.15,54.84]]]},"properties":{"NAME":"Western Roman Empire","ABBREVN":"W. Roman Emp","SUBJECTO":"Western Roman Empire","BORDERPRECISION":1,"PARTOF":"Western Roman Empire"}},
{"type":"Feature","geometry":{"type":"Polygon","coordinates":[[[30.81,23.86],[28.41,27.74],[26.74,28.57],[22.31,29.96],[18.61,29.41],[14.45,31.16],[9.83,32.92],[7.99,35.5],[2.55,34.73],[0.23,36.06],[-2.04,35.05],[-4.59,35.15],[-5.93,35.73],[-7,33.87],[-9.22,32.58],[-9.66,29.95],[-11.58,28.23],[-12.87,27.86],[-14.37,26.12],[-17.05,21],[-16.35,20.52],[-15.98,18.18],[-16.87,14.36],[-13.4,14.92],[-10.18,14.21],[-11.18,15.46],[-9.91,17.89],[-7.46,19.44],[-5.18,17.2],[-4.55,15.11],[-6.26,13.35],[2.35,13.29],[8.27,12.37],[17.75,12.83],[20.44,11.97],[23.2,11.78],[24.07,11.18],[30.74,11.2],[30.35,16.93],[29.49,20.28],[30.81,23.86]]]},"properties":{"NAME":null,"ABBREVN":null,"SUBJECTO":null,"BORDERPRECISION":1,"PARTOF":null}},
{"type":"Feature","geometry":{"type":"Polygon","coordinates":[[[-5.82,43.7],[-7.64,43.72],[-8.71,40.93],[-6.98,39.61],[-4.77,42.28],[-5.82,43.7]]]},"properties":{"NAME":"Sveves","ABBREVN":"Sveves","SUBJECTO":"Sveves","BORDERPRECISION":1,"PARTOF":"Sveves"}},
{"type":"Feature","geometry":{"type":"Polygon","coordinates":[[[-4.77,42.28],[0.27,41.81],[-1.68,43.42],[-5.82,43.7],[-4.77,42.28]]]},"properties":{"NAME":"Basks","ABBREVN":"Basks","SUBJECTO":"Basks","BORDERPRECISION":1,"PARTOF":"Basks"}},
{"type":"Feature","geometry":{"type":"Polygon","coordinates":[[[-2.06,54.93],[-2.35,50.63],[0.19,50.73],[1.69,52.31],[-1.58,54.97],[-2.06,54.93]]]},"properties":{"NAME":"Anglo-Saxons","ABBREVN":"Anglo-Saxons","SUBJECTO":"Anglo-Saxons","BORDERPRECISION":1,"PARTOF":"Anglo-Saxons"}},
{"type":"Feature","geometry":{"type":"Polygon","coordinates":[[[9.34,52.2],[7.21,50.72],[9.49,48.37],[11.17,48.72],[11.41,49.98],[9.34,52.2]]]},"properties":{"NAME":"Turingians","ABBREVN":"Turingians","SUBJECTO":"Turingians","BORDERPRECISION":1,"PARTOF":"Turingians"}},
{"type":"Feature","geometry":{"type":"Polygon","coordinates":[[[19.07,45.54],[18.91,47.84],[15.76,48.54],[14.76,48.19],[12.2,49.14],[11.17,48.72],[9.49,48.37],[9.01,47.44],[6.96,45.9],[6.96,44.54],[4.45,44.38],[4.27,43.41],[6.52,43.15],[8.9,44.44],[12.64,41.53],[15.67,40.09],[17.08,40.53],[14.09,42.61],[12.35,44.3],[14.95,44.93],[15.41,43.93],[18.84,42.24],[19.07,45.54]]]},"properties":{"NAME":"Ostrogoths","ABBREVN":"","SUBJECTO":"","BORDERPRECISION":1,"PARTOF":""}},
{"type":"Feature","geometry":{"type":"Polygon","coordinates":[[[9.01,47.44],[3.77,47.7],[3.71,46.33],[4.45,44.38],[6.96,44.54],[6.96,45.9],[9.01,47.44]]]},"properties":{"NAME":"Burgunds","ABBREVN":"Burgunds","SUBJECTO":"Burgunds","BORDERPRECISION":1,"PARTOF":"Burgunds"}},
{"type":"Feature","geometry":{"type":"Polygon","coordinates":[[[52.61,72.74],[51.48,71.84],[54.31,71.21],[55.52,72.48],[52.61,72.74]]]},"properties":{"NAME":null,"ABBREVN":null,"SUBJECTO":null,"BORDERPRECISION":1,"PARTOF":null}},
{"type":"Feature","geometry":{"type":"Polygon","coordinates":[[[12.05,55.7],[11.1,55.63],[11.29,55.19],[12.43,55.24],[12.05,55.7]]]},"properties":{"NAME":null,"ABBREVN":null,"SUBJECTO":null,"BORDERPRECISION":1,"PARTOF":null}},
{"type":"Feature","geometry":{"type":"Polygon","coordinates":[[[9.34,52.2],[10.35,54.35],[4.64,52.76],[3.78,51.39],[5.14,52.13],[7.21,50.72],[9.34,52.2]]]},"properties":{"NAME":"Saxons","ABBREVN":"Saxons","SUBJECTO":"Saxons","BORDERPRECISION":1,"PARTOF":"Saxons"}},
{"type":"Feature","geometry":{"type":"Polygon","coordinates":[[[-1.73,48.62],[-3.09,48.87],[-3.95,47.9],[-2.4,47.22],[-1.73,48.62]]]},"properties":{"NAME":"Armorica","ABBREVN":"Armorica","SUBJECTO":"Armorica","BORDERPRECISION":1,"PARTOF":"Armorica"}},
{"type":"Feature","geometry":{"type":"Polygon","coordinates":[[[29.62,45.41],[30.83,46.58],[33.64,45.93],[37.42,47.08],[37.47,44.69],[41.41,42.79],[41.68,41.79],[48.25,42.25],[46.85,44.45],[47.56,45.45],[51.37,47.09],[53.19,46.87],[52.61,45.4],[50.87,44.63],[52.52,42.07],[53.99,42.11],[54.82,40.88],[52.85,40.18],[54.07,38.9],[54.07,36.94],[62.7,39.99],[67.06,37.12],[69.65,37.09],[71.23,38.21],[71.63,35.84],[74.2,37.49],[77.22,36.28],[76,34.68],[78.76,30.79],[83.61,26.92],[86.51,25.87],[88,25.87],[92.63,27.09],[94.19,25.72],[90,24.31],[91.88,23.64],[92.92,20.37],[94.05,19.06],[95.33,15.68],[96.47,16.51],[97.67,15.69],[101.88,16.23],[107.33,15.3],[107.69,16.37],[106.39,17.66],[104.38,18.33],[103.23,20.12],[102.38,24.01],[100.41,25.09],[99.75,27.47],[102.83,31.69],[103.35,33.18],[102.83,35.49],[99.85,37.35],[96.94,38.39],[96.27,39.73],[97.02,40.85],[102.98,40.18],[106.18,41.37],[111.1,40.87],[116.17,40.64],[118.21,40.83],[119.04,42.31],[123.87,43.05],[124.7,42.31],[127.3,43.24],[129.64,41.66],[132.18,43.19],[134.14,42.99],[137.72,46],[140.08,48.5],[141.05,52.69],[134.87,52.01],[127.34,49.98],[119.94,51.26],[116.71,54.66],[114.02,59.55],[107.96,59.82],[99.49,55.66],[93.7,56.48],[78.36,56.41],[65.31,55.05],[59.09,56.43],[53.98,57.71],[46.11,57.71],[32.52,60.93],[29.02,61.77],[21.2,62.44],[21.56,60.51],[23.66,59.84],[24.35,57.16],[21.68,57.46],[21.14,54.85],[14.47,53.88],[12.65,54.32],[10.35,54.35],[9.34,52.2],[11.41,49.98],[11.17,48.72],[12.2,49.14],[14.76,48.19],[15.76,48.54],[18.91,47.84],[19.07,45.54],[25.26,43.82],[28.04,44.38],[29.62,45.41]],[[101.66,52.6],[101.68,52.93],[107.72,53.67],[108.69,53.65],[109.02,53.65],[109.19,53.65],[110.86,53.62],[111.18,53.31],[113.33,53.47],[116.32,45.45],[107.36,44.03],[89.16,42.27],[76.36,43.62],[73.44,44.51],[75.3,47.41],[81.78,51.11],[101.66,52.6]]]},"properties":{"NAME":null,"ABBREVN":null,"SUBJECTO":null,"BORDERPRECISION":1,"PARTOF":null}},
{"type":"Feature","geometry":{"type":"MultiPolygon","coordinates":[[[[18.61,30.37],[15.84,31.29],[15.01,32.36],[12.56,32.74],[10.02,34.08],[11.13,35.24],[10.13,37.1],[5.14,36.67],[1.06,36.46],[0.23,36.06],[2.55,34.73],[7.99,35.5],[9.83,32.92],[14.45,31.16],[18.61,29.41],[18.61,30.37]]],[[[12.64,37.58],[15.03,36.75],[15.39,38.21],[12.64,37.58]]]]},"properties":{"NAME":"Vandals","ABBREVN":"Vandals","SUBJECTO":"Vandals","BORDERPRECISION":1,"PARTOF":"Vandals"}},
{"type":"Feature","geometry":{"type":"Polygon","coordinates":[[[-156.12,20.71],[-156.4,20.95],[-156.82,20.94],[-156.51,20.6],[-156.12,20.71]]]},"properties":{"NAME":null,"ABBREVN":null,"SUBJECTO":null,"BORDERPRECISION":1,"PARTOF":null}},
{"type":"Feature","geometry":{"type":"Polygon","coordinates":[[[-158.18,21.69],[-158.43,21.45],[-158.3,21.28],[-158.05,21.46],[-158.18,21.69]]]},"properties":{"NAME":null,"ABBREVN":null,"SUBJECTO":null,"BORDERPRECISION":1,"PARTOF":null}},
{"type":"Feature","geometry":{"type":"Polygon","coordinates":[[[-167.87,53.32],[-168.22,53.59],[-168.37,53.24],[-167.87,53.32]]]},"properties":{"NAME":null,"ABBREVN":null,"SUBJECTO":null,"BORDERPRECISION":1,"PARTOF":null}},
{"type":"Feature","geometry":{"type":"Polygon","coordinates":[[[-96.21,17.89],[-97.23,18.23],[-98.45,19.79],[-97.53,21.25],[-97.82,24.14],[-100.36,23.97],[-104.22,25.12],[-107.56,27.76],[-110.6,27.86],[-105.54,22.28],[-104.95,19.44],[-103.49,18.35],[-97.88,16.05],[-96.33,15.75],[-95.13,16.3],[-93.59,15.74],[-93.14,16.98],[-96.19,17.88],[-96.44,16.22],[-99.02,16.82],[-98.59,17.99],[-96.21,17.89]],[[-100.49,20.9],[-99.11,20.59],[-99.14,18.92],[-100.75,19.59],[-100.49,20.9]]]},"properties":{"NAME":null,"ABBREVN":null,"SUBJECTO":null,"BORDERPRECISION":1,"PARTOF":null}},
{"type":"Feature","geometry":{"type":"Polygon","coordinates":[[[-130.66,54.96],[-130.55,54.91],[-130.48,54.97],[-130.66,54.96]]]},"properties":{"NAME":null,"ABBREVN":null,"SUBJECTO":null,"BORDERPRECISION":1,"PARTOF":null}},
{"type":"Feature","geometry":{"type":"Polygon","coordinates":[[[-89.86,63.65],[-89.99,64.03],[-90.01,63.9],[-89.86,63.65]]]},"properties":{"NAME":null,"ABBREVN":null,"SUBJECTO":null,"BORDERPRECISION":1,"PARTOF":null}},
{"type":"Feature","geometry":{"type":"Polygon","coordinates":[[[-166.74,53.53],[-166.38,53.85],[-167.15,53.94],[-166.74,53.53]]]},"properties":{"NAME":null,"ABBREVN":null,"SUBJECTO":null,"BORDERPRECISION":1,"PARTOF":null}},
{"type":"Feature","geometry":{"type":"Polygon","coordinates":[[[-164.79,54.69],[-163.21,54.74],[-163.74,55.06],[-164.79,54.69]]]},"properties":{"NAME":null,"ABBREVN":null,"SUBJECTO":null,"BORDERPRECISION":1,"PARTOF":null}},
{"type":"Feature","geometry":{"type":"Polygon","coordinates":[[[-163.26,55.17],[-162.97,54.95],[-162.79,55.15],[-163.26,55.17]]]},"properties":{"NAME":null,"ABBREVN":null,"SUBJECTO":null,"BORDERPRECISION":1,"PARTOF":null}},
{"type":"Feature","geometry":{"type":"Polygon","coordinates":[[[-160.68,55.76],[-161.81,55.78],[-162.58,55.39],[-162.22,55.13],[-160.68,55.76]]]},"properties":{"NAME":null,"ABBREVN":null,"SUBJECTO":null,"BORDERPRECISION":1,"PARTOF":null}},
{"type":"Feature","geometry":{"type":"Polygon","coordinates":[[[-154.34,57.49],[-153.88,56.94],[-152.68,57.76],[-153.4,57.8],[-154.34,57.49]]]},"properties":{"NAME":null,"ABBREVN":null,"SUBJECTO":null,"BORDERPRECISION":1,"PARTOF":null}},
{"type":"Feature","geometry":{"type":"Polygon","coordinates":[[[-136.42,58.11],[-136.6,57.9],[-135.11,57.67],[-135.32,58.09],[-136.42,58.11]]]},"properties":{"NAME":null,"ABBREVN":null,"SUBJECTO":null,"BORDERPRECISION":1,"PARTOF":null}},
{"type":"Feature","geometry":{"type":"Polygon","coordinates":[[[-171.23,63.65],[-169.9,63.08],[-169.33,63.4],[-171.23,63.65]]]},"properties":{"NAME":null,"ABBREVN":null,"SUBJECTO":null,"BORDERPRECISION":1,"PARTOF":null}},
{"type":"Feature","geometry":{"type":"Polygon","coordinates":[[[-135.26,57.41],[-135.47,57.23],[-134.95,56.45],[-134.76,56.79],[-135,57.33],[-135.26,57.41]]]},"properties":{"NAME":null,"ABBREVN":null,"SUBJECTO":null,"BORDERPRECISION":1,"PARTOF":null}},
{"type":"Feature","geometry":{"type":"Polygon","coordinates":[[[-104.62,71.09],[-105.31,72.65],[-111.73,72.33],[-117.22,72.86],[-110.35,71.2],[-104.62,71.09]]]},"properties":{"NAME":null,"ABBREVN":null,"SUBJECTO":null,"BORDERPRECISION":1,"PARTOF":null}},
{"type":"Feature","geometry":{"type":"Polygon","coordinates":[[[-117.69,73.22],[-117.34,74.17],[-123.49,74.45],[-117.69,73.22]]]},"properties":{"NAME":null,"ABBREVN":null,"SUBJECTO":null,"BORDERPRECISION":1,"PARTOF":null}},
{"type":"Feature","geometry":{"type":"Polygon","coordinates":[[[-114.14,76.39],[-115.19,75.15],[-112.2,74.5],[-105.77,75.23],[-105.92,76.02],[-111.39,75.66],[-114.14,76.39]]]},"properties":{"NAME":null,"ABBREVN":null,"SUBJECTO":null,"BORDERPRECISION":1,"PARTOF":null}},
{"type":"Feature","geometry":{"type":"Polygon","coordinates":[[[-102.15,75.64],[-98,75.16],[-97.82,76.48],[-102.15,75.64]]]},"properties":{"NAME":null,"ABBREVN":null,"SUBJECTO":null,"BORDERPRECISION":1,"PARTOF":null}},
{"type":"Feature","geometry":{"type":"Polygon","coordinates":[[[-122.15,76.58],[-120.1,75.98],[-118.74,76.94],[-122.15,76.58]]]},"properties":{"NAME":null,"ABBREVN":null,"SUBJECTO":null,"BORDERPRECISION":1,"PARTOF":null}},
{"type":"Feature","geometry":{"type":"Polygon","coordinates":[[[-111.99,77.98],[-113.02,77.6],[-110.62,77.54],[-109.66,77.95],[-111.99,77.98]]]},"properties":{"NAME":null,"ABBREVN":null,"SUBJECTO":null,"BORDERPRECISION":1,"PARTOF":null}},
{"type":"Feature","geometry":{"type":"Polygon","coordinates":[[[-104.97,78.53],[-101.17,78.27],[-99.89,78.66],[-102.57,79.02],[-104.97,78.53]]]},"properties":{"NAME":null,"ABBREVN":null,"SUBJECTO":null,"BORDERPRECISION":1,"PARTOF":null}},
{"type":"Feature","geometry":{"type":"Polygon","coordinates":[[[-95.1,78.44],[-98.44,78.66],[-97.46,78.1],[-95.1,78.44]]]},"properties":{"NAME":null,"ABBREVN":null,"SUBJECTO":null,"BORDERPRECISION":1,"PARTOF":null}},
{"type":"Feature","geometry":{"type":"Polygon","coordinates":[[[-75.92,82.52],[-90,82.02],[-78.32,80.97],[-75.92,82.52]]]},"properties":{"NAME":null,"ABBREVN":null,"SUBJECTO":null,"BORDERPRECISION":1,"PARTOF":null}},
{"type":"Feature","geometry":{"type":"Polygon","coordinates":[[[-87.83,80.37],[-96.43,79.93],[-92.7,78.43],[-87.79,78.73],[-87.83,80.37]]]},"properties":{"NAME":null,"ABBREVN":null,"SUBJECTO":null,"BORDERPRECISION":1,"PARTOF":null}},
{"type":"Feature","geometry":{"type":"Polygon","coordinates":[[[-94.28,35.13],[-96.26,34.62],[-95.46,33.03],[-96.04,33.01],[-96.04,32.99],[-93.81,31.94],[-92.22,33.32],[-94.28,35.13]]]},"properties":{"NAME":"Fourche Maline Culture","ABBREVN":"Fourche Maline Culture","SUBJECTO":"Fourche Maline Culture","BORDERPRECISION":1,"PARTOF":"Fourche Maline Culture"}},
{"type":"Feature","geometry":{"type":"Polygon","coordinates":[[[-87.97,30.58],[-87.77,30.26],[-87.69,30.26],[-87.97,30.58]]]},"properties":{"NAME":"Swift Creek Culture","ABBREVN":"Swift Creek Culture","SUBJECTO":"Swift Creek Culture","BORDERPRECISION":1,"PARTOF":"Swift Creek Culture"}},
{"type":"Feature","geometry":{"type":"Polygon","coordinates":[[[-87.51,32.81],[-87.47,32.81],[-86.99,32.82],[-87.51,32.82],[-87.51,32.81]]]},"properties":{"NAME":"Swift Creek Culture","ABBREVN":"Swift Creek Culture","SUBJECTO":"Swift Creek Culture","BORDERPRECISION":1,"PARTOF":"Swift Creek Culture"}},
{"type":"Feature","geometry":{"type":"Polygon","coordinates":[[[111.18,53.31],[110.86,53.62],[109.19,53.65],[109.02,53.65],[108.69,53.65],[107.72,53.67],[101.68,52.93],[101.66,52.6],[101.53,50.38],[105.59,50.35],[109.65,50.76],[112.36,52.14],[111.18,53.31]]]},"properties":{"NAME":"Kurykans","ABBREVN":"Kurykans","SUBJECTO":"Kurykans","BORDERPRECISION":1,"PARTOF":"Tiele"}},
{"type":"Feature","geometry":{"type":"Polygon","coordinates":[[[15.29,59.42],[17.74,59.11],[17.75,58.99],[18.27,59.29],[18.52,59.4],[16.41,59.45],[18.89,59.93],[15.29,59.42]]]},"properties":{"NAME":"Swedes","ABBREVN":"Swedes","SUBJECTO":"Swedes","BORDERPRECISION":1,"PARTOF":"Swedes"}},
{"type":"Feature","geometry":{"type":"Polygon","coordinates":[[[77.63,9.12],[77.65,10.32],[76.27,10.04],[76.65,8.9],[77.63,9.12]]]},"properties":{"NAME":"Cheras","ABBREVN":"Cheras","SUBJECTO":"Cheras","BORDERPRECISION":1,"PARTOF":"Hindu kingdoms"}},
{"type":"Feature","geometry":{"type":"Polygon","coordinates":[[[77.65,10.32],[77.86,10.36],[77.47,12.45],[75.2,12.15],[76.27,10.04],[77.65,10.32]]]},"properties":{"NAME":"Western Gangas","ABBREVN":"Western Gangas","SUBJECTO":"Western Gangas","BORDERPRECISION":1,"PARTOF":"Hindu kingdoms"}},
{"type":"Feature","geometry":{"type":"Polygon","coordinates":[[[78.24,8.9],[79.16,10],[77.86,10.36],[77.65,10.32],[77.63,9.12],[78.24,8.9]]]},"properties":{"NAME":"Cholas","ABBREVN":"Cholas","SUBJECTO":"Cholas","BORDERPRECISION":1,"PARTOF":"Hindu kingdoms"}},
{"type":"Feature","geometry":{"type":"Polygon","coordinates":[[[74.15,14.85],[75.2,12.15],[77.47,12.45],[77,14.97],[74.15,14.85]]]},"properties":{"NAME":"Kadambas","ABBREVN":"Kadambas","SUBJECTO":"Kadambas","BORDERPRECISION":1,"PARTOF":"Hindu kingdoms"}},
{"type":"Feature","geometry":{"type":"Polygon","coordinates":[[[79.71,12.93],[77.47,12.45],[77.86,10.36],[79.16,10],[79.92,12.11],[79.71,12.93]]]},"properties":{"NAME":"Pallavas","ABBREVN":"Pallavas","SUBJECTO":"Pallavas","BORDERPRECISION":1,"PARTOF":"Hindu kingdoms"}},
{"type":"Feature","geometry":{"type":"Polygon","coordinates":[[[79.58,15.47],[77,14.97],[77.47,12.45],[79.71,12.93],[79.58,15.47]]]},"properties":{"NAME":"Vishnu-Kundins","ABBREVN":"Vishnu-Kundins","SUBJECTO":"Vishnu-Kundins","BORDERPRECISION":1,"PARTOF":"Hindu kingdoms"}},
{"type":"Feature","geometry":{"type":"Polygon","coordinates":[[[5.36,5.37],[5.35,5.36],[6.84,4.29],[8.87,4.62],[9.92,2.82],[9.2,-0.63],[9.66,-2.42],[11.77,-4.54],[13.39,-8.16],[13.2,-9.64],[13.65,-12.2],[12.59,-13.46],[11.78,-15.87],[11.77,-17.6],[14.42,-22.27],[14.84,-25.62],[15.45,-27.62],[16.79,-29.14],[18.18,-31.81],[18.49,-34.4],[20.26,-34.62],[22.68,-34.1],[24.43,-34.33],[26.66,-33.85],[28.92,-32.3],[32.23,-28.74],[33.35,-25.3],[34.88,-24.72],[35.26,-22.27],[34.73,-19.86],[37.28,-17.71],[39.47,-16.72],[40.6,-14.4],[40.31,-11.34],[39.66,-9.8],[38.92,-6.34],[40.23,-3.19],[43.72,0.8],[44.14,1.15],[42.54,1.26],[40.86,0.32],[40.45,-1.36],[38.77,-2.27],[36.02,1.3],[33.93,2.84],[22.22,6.2],[12.6,7.73],[5.36,5.37]]]},"properties":{"NAME":"Khoiasan","ABBREVN":"Khoiasan","SUBJECTO":"Khoiasan","BORDERPRECISION":1,"PARTOF":"Khoiasan"}},
{"type":"Feature","geometry":{"type":"Polygon","coordinates":[[[103.35,33.18],[102.83,31.69],[99.75,27.47],[100.41,25.09],[102.38,24.01],[103.23,20.12],[104.38,18.33],[106.39,17.66],[105.53,18.84],[106.81,20.91],[107.9,21.48],[110.08,20.87],[112.75,21.76],[113.72,22.48],[116.34,22.91],[118.81,24.85],[119.43,26.59],[121.36,28.39],[121.61,31.83],[119.02,34.69],[120.66,37.74],[118.88,37.95],[116.91,36.75],[116.91,34.29],[114.83,33.62],[111.77,33.85],[109.69,33.1],[107.6,33.77],[103.35,33.18]]]},"properties":{"NAME":"Jin Empire","ABBREVN":"Jin Empire","SUBJECTO":"Jin Empire","BORDERPRECISION":1,"PARTOF":"Jin Empire"}},
{"type":"Feature","geometry":{"type":"MultiPolygon","coordinates":[[[[45.55,-16.06],[44.45,-16.24],[43.97,-17.55],[44.47,-20.17],[43.5,-21.49],[43.67,-24.23],[45.58,-25.62],[47.26,-24.77],[49.34,-18.23],[50.5,-15.31],[49.82,-12.83],[46.92,-15.36],[45.55,-16.06]]],[[[99.86,2.57],[97.38,5.18],[96.72,3.7],[98.6,1.71],[100.81,-2.34],[104.57,-6.07],[105.73,-5.83],[105.94,-3.21],[103.24,-0.66],[101.06,2.08],[99.86,2.57]]],[[[110.89,1.51],[109.28,1.88],[108.81,0.81],[110.1,-3.08],[112.8,-2.97],[114.71,-4.21],[115.57,-3.8],[117.53,0.61],[118.52,1.17],[117.07,3.51],[119.04,5.17],[116.6,6.9],[114.88,4.86],[112.76,3.01],[111.37,2.6],[110.89,1.51]]],[[[113.26,-7.91],[112.27,-7.03],[108.56,-6.92],[106.95,-6.03],[106.48,-7.5],[109.04,-7.72],[110.78,-8.32],[113.26,-7.91]]],[[[120.31,14.58],[122.4,17.11],[122.03,18.01],[120.39,18.04],[119.77,15.47],[120.31,14.58]]],[[[125.95,6.65],[125.93,9.17],[123.46,7.79],[124.22,6.09],[125.95,6.65]]]]},"properties":{"NAME":null,"ABBREVN":"Austronesian","SUBJECTO":null,"BORDERPRECISION":1,"PARTOF":null}},
{"type":"Feature","geometry":{"type":"Polygon","coordinates":[[[107.33,15.3],[101.88,16.23],[101.77,12.64],[103.04,10.9],[106.48,9.55],[107.1,10.41],[107.64,13.74],[107.33,15.3]]]},"properties":{"NAME":"Funan","ABBREVN":"Funan","SUBJECTO":"Funan","BORDERPRECISION":1,"PARTOF":"Funan"}},
{"type":"Feature","geometry":{"type":"Polygon","coordinates":[[[99.47,9.18],[99.19,10.49],[99.9,12.08],[101.77,12.64],[101.88,16.23],[97.67,15.69],[98.74,11.44],[98.24,8.9],[99.47,9.18]]]},"properties":{"NAME":"Lavo","ABBREVN":"Lavo","SUBJECTO":"Lavo","BORDERPRECISION":1,"PARTOF":"Lavo"}},
{"type":"Feature","geometry":{"type":"Polygon","coordinates":[[[7.21,50.72],[5.14,52.13],[3.78,51.39],[-1.73,48.62],[-2.4,47.22],[-1.22,46.26],[3.71,46.33],[3.77,47.7],[9.01,47.44],[9.49,48.37],[7.21,50.72]]]},"properties":{"NAME":"Franks","ABBREVN":"Franks","SUBJECTO":"Franks","BORDERPRECISION":1,"PARTOF":"Western Roman Empire"}},
{"type":"Feature","geometry":{"type":"Polygon","coordinates":[[[-8.71,40.93],[-9.55,38.77],[-8.67,37.12],[-2.24,36.73],[0.17,38.74],[-0.39,39.43],[0.88,41.02],[3.13,41.86],[4.27,43.41],[4.45,44.38],[3.71,46.33],[-1.22,46.26],[-1.68,43.42],[0.27,41.81],[-4.77,42.28],[-6.98,39.61],[-8.71,40.93]]]},"properties":{"NAME":"Visigoths","ABBREVN":"Visigoths","SUBJECTO":"Visigoths","BORDERPRECISION":1,"PARTOF":"Visigoths"}},
{"type":"Feature","geometry":{"type":"Polygon","coordinates":[[[178.18,-18.24],[178.17,-17.34],[177.51,-17.51],[177.33,-18.12],[178.18,-18.24]]]},"properties":{"NAME":"Tuʻi Tonga Empire","ABBREVN":"Tuʻi Tonga Empire","SUBJECTO":"Tuʻi Tonga Empire","BORDERPRECISION":1,"PARTOF":"Tuʻi Tonga Empire"}}
]}